  0.9999903      -8.119041       6.225920      -12345.00      0.9999901    
   199.9647       1600.951      -12345.00      -12345.00       2.000000    
  -12345.00      -12345.00      -12345.00      -12345.00      -12345.00    
  -12345.00      -12345.00      -12345.00      -12345.00      -12345.00    
  -12345.00      -12345.00      -12345.00      -12345.00      -12345.00    
  -12345.00      -12345.00      -12345.00      -12345.00      -12345.00    
  -12345.00       62.47971      -114.5917      -12345.00      -12345.00    
   40.30000      -127.0000             0.             0.      -12345.00    
  -12345.00      -12345.00      -12345.00      -12345.00      -12345.00    
  -12345.00      -12345.00      -12345.00      -12345.00      -12345.00    
   2603.720       14.53347       204.4047       23.43720      -12345.00    
  -12345.00     -0.9599771e-03         0.       90.00000      -12345.00    
  -12345.00      -12345.00      -12345.00      -12345.00      -12345.00    
  -12345.00      -12345.00      -12345.00      -12345.00      -12345.00    
      1984       254         3        14         7
         0         6         0         0      1402
    -12345    -12345    -12345    -12345    -12345
         1        50        11    -12345    -12345
    -12345    -12345        40    -12345    -12345
    -12345    -12345    -12345    -12345    -12345
    -12345    -12345    -12345    -12345    -12345
         1         0         1         1         0
RSNT    EUREKA          
-12345  -12345  -12345  
-12345  -12345  -12345  
-12345  -12345  -12345  
-12345  -12345  -12345  
-12345  -12345  -12345  
-12345  -12345  KL.N    
RSTN-SAR10/12/84KS-36000
 -0.1170000e-02 -0.7100001e-03 -0.2100000e-03  0.2200000e-03  0.6799999e-03
  0.1230000e-02  0.1750000e-02  0.1950000e-02  0.1800000e-02  0.1390000e-02
  0.7199999e-03 -0.1300000e-03 -0.9200000e-03 -0.1440000e-02 -0.1870000e-02
 -0.2320000e-02 -0.2430000e-02 -0.1840000e-02 -0.8700000e-03 -0.1000000e-04
  0.4899999e-03  0.8500000e-03  0.1210000e-02  0.1490000e-02  0.1430000e-02
  0.9899999e-03  0.3599999e-03 -0.2100000e-03 -0.5900001e-03 -0.6900000e-03
 -0.7600001e-03 -0.1130000e-02 -0.1740000e-02 -0.2040000e-02 -0.1810000e-02
 -0.1300000e-02 -0.8200001e-03 -0.4100000e-03 -0.7000001e-04  0.3300000e-03
  0.9999999e-03  0.1740000e-02  0.2130000e-02  0.2050000e-02  0.1550000e-02
  0.6099999e-03 -0.5200000e-03 -0.1340000e-02 -0.1620000e-02 -0.1840000e-02
 -0.2200000e-02 -0.2140000e-02 -0.1410000e-02 -0.3100000e-03  0.7900000e-03
  0.1680000e-02  0.1970000e-02  0.1580000e-02  0.9099999e-03  0.2700000e-03
 -0.4400000e-03 -0.1230000e-02 -0.1770000e-02 -0.2110000e-02 -0.2440000e-02
 -0.2480000e-02 -0.1750000e-02 -0.4600000e-03  0.7000000e-03  0.1360000e-02
  0.1620000e-02  0.1470000e-02  0.9099999e-03  0.8000000e-04 -0.6600000e-03
 -0.1200000e-02 -0.1500000e-02 -0.1570000e-02 -0.1300000e-02 -0.6900000e-03
         0.      0.5600000e-03  0.1070000e-02  0.1680000e-02  0.2160000e-02
  0.1990000e-02  0.1190000e-02  0.2400000e-03 -0.4800000e-03 -0.9200000e-03
 -0.1030000e-02 -0.8500001e-03 -0.6000000e-03 -0.4700000e-03 -0.4500000e-03
 -0.4100000e-03 -0.3000000e-03 -0.7000001e-04  0.2800000e-03  0.5300000e-03
  0.5000000e-03  0.1300000e-03 -0.4300000e-03 -0.7500000e-03 -0.3100000e-03
  0.6400000e-03  0.1320000e-02  0.1370000e-02  0.9899999e-03  0.4400000e-03
 -0.1400000e-03 -0.8000000e-03 -0.1470000e-02 -0.1990000e-02 -0.2290000e-02
 -0.2090000e-02  0.1850000e-02  0.1854000e-01  0.5768999e-01  0.1179200    
  0.1864000      0.2536399      0.3114400      0.3340800      0.2932400    
  0.1781200      0.3719999e-02 -0.1964000     -0.3808000     -0.5164801    
 -0.5929600     -0.6208000     -0.6105601     -0.5675200     -0.5027200    
 -0.4382400     -0.3968000     -0.3768000     -0.3424000     -0.2416000    
 -0.4015000e-01  0.2567599      0.6118399      0.9641600       1.236000    
   1.363200       1.331200       1.161600      0.8883200      0.5660800    
  0.2380800     -0.7096000e-01 -0.3459200     -0.5665600     -0.7139200    
 -0.7838401     -0.7868800     -0.7412801     -0.6651200     -0.5728000    
 -0.4721600     -0.3601600     -0.2302000     -0.8396001e-01  0.6446999e-01
  0.1935600      0.2827600      0.3192800      0.3048800      0.2538000    
  0.1867200      0.1264000      0.8827999e-01  0.7563999e-01  0.8106999e-01
  0.8792000e-01  0.7776999e-01  0.4211000e-01 -0.1451000e-01 -0.8033000e-01
 -0.1446400     -0.2014000     -0.2456000     -0.2669200     -0.2522800    
 -0.1946000     -0.9868000e-01  0.1823000e-01  0.1279600      0.2054000    
  0.2442400      0.2553999      0.2548000      0.2545599      0.2562799    
  0.2509199      0.2273200      0.1788800      0.1077600      0.2903000e-01
 -0.3526000e-01 -0.7034001e-01 -0.7536000e-01 -0.6118000e-01 -0.4522000e-01
 -0.4326000e-01 -0.6274001e-01 -0.9916000e-01 -0.1384000     -0.1684800    
 -0.1846000     -0.1843600     -0.1661200     -0.1299600     -0.7948001e-01
 -0.2566000e-01  0.1522000e-01  0.2937000e-01  0.1449000e-01 -0.1833000e-01
 -0.5075000e-01 -0.6718001e-01 -0.6414001e-01 -0.5014000e-01 -0.3670000e-01
 -0.3143001e-01 -0.3485000e-01 -0.3876001e-01 -0.3091000e-01 -0.5130000e-02
  0.3401999e-01  0.7315999e-01  0.9655999e-01  0.9599999e-01  0.7525998e-01
  0.4600000e-01  0.1786000e-01 -0.8040002e-02 -0.3653000e-01 -0.7023001e-01
 -0.1066000     -0.1393200     -0.1571200     -0.1462400     -0.1002400    
 -0.2248000e-01  0.7675999e-01  0.1824000      0.2761199      0.3412800    
  0.3688000      0.3569599      0.3107200      0.2367600      0.1438400    
  0.4227000e-01 -0.5752000e-01 -0.1461200     -0.2141600     -0.2552400    
 -0.2669600     -0.2520400     -0.2168000     -0.1674000     -0.1080400    
 -0.4263000e-01  0.2196000e-01  0.7865000e-01  0.1218000      0.1464000    
  0.1492000      0.1317200      0.9891999e-01  0.5587000e-01  0.1013000e-01
 -0.2727000e-01 -0.4915000e-01 -0.5693001e-01 -0.5741000e-01 -0.5978000e-01
 -0.7135001e-01 -0.9080000e-01 -0.1068800     -0.1069600     -0.8536001e-01
 -0.4533000e-01  0.4840000e-02  0.5420999e-01  0.9047998e-01  0.1042800    
  0.9363998e-01  0.6243999e-01  0.1638000e-01 -0.3725000e-01 -0.8832000e-01
 -0.1279600     -0.1529600     -0.1640000     -0.1615200     -0.1418400    
 -0.1020000     -0.4415000e-01  0.2420000e-01  0.9412000e-01  0.1560800    
  0.2019200      0.2296400      0.2430800      0.2451600      0.2333200    
  0.2022400      0.1504800      0.8094999e-01 -0.4000000e-03 -0.8612001e-01
 -0.1674400     -0.2377600     -0.2937200     -0.3315200     -0.3448000    
 -0.3292800     -0.2836000     -0.2103600     -0.1164800     -0.1252000e-01
  0.8975999e-01  0.1789200      0.2451200      0.2858400      0.3060400    
  0.3123199      0.3066000      0.2854000      0.2468800      0.1970800    
  0.1482400      0.1119600      0.9443998e-01  0.9468000e-01  0.1034000    
  0.1063200      0.9208000e-01  0.5689000e-01  0.2330000e-02 -0.6516001e-01
 -0.1345200     -0.1932400     -0.2335200     -0.2548000     -0.2644400    
 -0.2711600     -0.2776001     -0.2800800     -0.2722400     -0.2498800    
 -0.2149600     -0.1735200     -0.1310400     -0.9020001e-01 -0.5446000e-01
 -0.3287000e-01 -0.3588000e-01 -0.6415001e-01 -0.1062400     -0.1470400    
 -0.1739600     -0.1771600     -0.1501200     -0.9212001e-01 -0.1023000e-01
  0.8016999e-01  0.1605200      0.2157200      0.2338800      0.1982800    
  0.8735999e-01 -0.1154400     -0.4132800     -0.7835200      -1.165440    
  -1.469440      -1.594880      -1.475840      -1.073120     -0.3932800    
  0.5326400       1.637120       2.827520       3.969280       4.901119    
   5.474560       5.582079       5.178880       4.272639       2.931200    
   1.271040     -0.5577600      -2.369280      -3.961600      -5.172481    
  -5.879041      -6.041600      -5.687040      -4.913920      -3.863040    
  -2.700800      -1.570560     -0.5739200      0.2313200      0.8265599    
   1.220480       1.434880       1.510400       1.475840       1.356800    
   1.162560      0.9003199      0.5931200      0.2752799     -0.1670000e-02
 -0.1789600     -0.2104400     -0.8212000e-01  0.1787200      0.5087999    
  0.8305600       1.081120       1.229920       1.280480       1.255200    
   1.177120       1.060160      0.9023999      0.6884799      0.4003199    
  0.3258999e-01 -0.3993600     -0.8596801      -1.303680      -1.688320    
  -1.972480      -2.138880      -2.181120      -2.104320      -1.905920    
  -1.585920      -1.146400     -0.6264000     -0.9000000e-01  0.3832000    
  0.7345599      0.9391999       1.006880      0.9732800      0.8823999    
  0.7734399      0.6747199      0.6035199      0.5654399      0.5536000    
  0.5583999      0.5775999      0.6262399      0.7313600      0.9219199    
   1.220000       1.632000       2.142720       2.699520       3.211520    
   3.558400       3.632640       3.366400       2.746880       1.827840    
  0.7147199     -0.4512000      -1.524480      -2.384640      -2.979840    
  -3.328000      -3.498240      -3.576320      -3.624960      -3.674880    
  -3.717120      -3.718400      -3.648000      -3.489280      -3.249920    
  -2.963200      -2.667520      -2.388480      -2.112000      -1.809920    
  -1.438720     -0.9606401     -0.3620800      0.3475199       1.139200    
   1.973760       2.816000       3.630080       4.376320       5.025279    
   5.542399       5.913599       6.137599       6.225920       6.195199    
   6.041599       5.729280       5.198079       4.380159       3.244800    
   1.820160      0.1879200      -1.543680      -3.243520      -4.800000    
  -6.122240      -7.146240      -7.823360      -8.119041      -8.024321    
  -7.552000      -6.744320      -5.680640      -4.459520      -3.183360    
  -1.948160     -0.8244801      0.1431200      0.9481599       1.610240    
   2.169600       2.658560       3.097600       3.472640       3.749120    
   3.866879       3.763200       3.402240       2.787840       1.978880    
   1.063360      0.1535600     -0.6281600      -1.164960      -1.365760    
  -1.176480     -0.6216000      0.2153600       1.199520       2.177279    
   3.009280       3.577600       3.788800       3.582720       2.931200    
   1.864960      0.4763200      -1.079360      -2.592000      -3.832320    
  -4.615681      -4.828160      -4.460800      -3.613440      -2.475520    
  -1.286560     -0.2953200      0.3121200      0.4471999      0.1417200    
 -0.4619200      -1.138080      -1.638400      -1.748480      -1.354240    
 -0.4614400      0.7948799       2.186240       3.439360       4.299520    
   4.605439       4.330239       3.589119       2.602240       1.620480    
  0.8526399      0.3753600      0.1356000     -0.3565000e-01 -0.3448000    
 -0.9454401      -1.871360      -2.995200      -4.072960      -4.812800    
  -4.980480      -4.488960      -3.427840      -2.039040     -0.6276801    
  0.5284799       1.279680       1.632000       1.734400       1.794560    
   1.992960       2.401280       2.958080       3.496960       3.801600    
   3.688960       3.060480       1.954560      0.5228800      -1.014080    
  -2.424320      -3.511040      -4.161281      -4.322560      -4.002561    
  -3.252480      -2.176000     -0.9286400      0.2989600       1.318400    
   1.994240       2.261760       2.152960       1.788160       1.333760    
  0.9439999      0.6964799      0.5798399      0.4988800      0.3331200    
  0.3450000e-02 -0.4804800      -1.003520      -1.392640      -1.483520    
  -1.210080     -0.6436801      0.4188000e-01  0.6271999      0.9374399    
  0.9019200      0.5735999      0.9903999e-01 -0.3456000     -0.6177601    
 -0.6529601     -0.4739200     -0.1638400      0.1763600      0.4705600    
  0.6860800      0.8239999      0.8920000      0.8793600      0.7556800    
  0.4966400      0.1140400     -0.3358400     -0.7708800      -1.118240    
  -1.338880      -1.425920      -1.399040      -1.272960      -1.050400    
 -0.7072001     -0.2211200      0.3952000       1.073120       1.685760    
   2.095360       2.196480       1.973760       1.502720      0.9166399    
  0.3388799     -0.1471200     -0.5318401     -0.8568001      -1.178240    
  -1.527040      -1.881600      -2.178560      -2.339840      -2.286080    
  -1.966080      -1.368320     -0.5168000      0.5276799       1.669120    
   2.773760       3.660800       4.127999       4.010240       3.238400    
   1.889280      0.1958800      -1.506560      -2.858240      -3.601920    
  -3.640320      -3.061760      -2.074880     -0.9356800      0.1241600    
  0.9519999       1.470720       1.667840       1.557760       1.194400    
  0.6577599      0.8096999e-01 -0.3886400     -0.6302401     -0.6027200    
 -0.3638400     -0.4684000e-01  0.1958000      0.2607599      0.1357600    
 -0.9904000e-01 -0.3128400     -0.3873600     -0.2735600     -0.1357000e-01
  0.2844800      0.4992000      0.5505599      0.4305599      0.2014000    
 -0.4374000e-01 -0.2231600     -0.2960400     -0.2703200     -0.1913600    
 -0.1184400     -0.9648001e-01 -0.1366400     -0.2137200     -0.2811200    
 -0.2953200     -0.2368800     -0.1160000      0.3711999e-01  0.1860800    
  0.2990800      0.3519999      0.3332800      0.2463200      0.1138800    
 -0.2352000e-01 -0.1193600     -0.1330800     -0.4534000e-01  0.1293200    
  0.3404800      0.5137600      0.5703999      0.4569600      0.1677600    
 -0.2489200     -0.7020800      -1.086400      -1.313280      -1.326080    
  -1.106560     -0.6798401     -0.9300001e-01  0.5758399       1.222720    
   1.722880       1.966080       1.877760       1.456640      0.7812799    
 -0.2209000e-01 -0.8008001      -1.414400      -1.754880      -1.770240    
  -1.477120     -0.9560001     -0.3356800      0.2423200      0.6567999    
  0.8476800      0.8291199      0.6761600      0.4820800      0.3140399    
  0.1957600      0.1202800      0.7155000e-01  0.3747000e-01  0.9349998e-02
 -0.2498000e-01 -0.8568001e-01 -0.1941600     -0.3550400     -0.5352000    
 -0.6644801     -0.6652800     -0.4972800     -0.1900400      0.1563200    
  0.4121600      0.4832000      0.3579199      0.1188400     -0.1022800    
 -0.1856400     -0.8004001e-01  0.1792800      0.4926400      0.7409599    
  0.8281599      0.7091199      0.3971199     -0.4400000e-01 -0.5137601    
 -0.8883201      -1.048640     -0.9156801     -0.4862400      0.1438800    
  0.7911999       1.237760       1.305440      0.9291199      0.1960800    
 -0.6785600      -1.427200      -1.822720      -1.761280      -1.284640    
 -0.5500801      0.2338000      0.8655999       1.214880       1.246720    
   1.022720      0.6662400      0.3130800      0.5965000e-01 -0.6300001e-01
 -0.8800000e-01 -0.8300000e-01 -0.1125600     -0.2047600     -0.3396800    
 -0.4595200     -0.4939200     -0.3937600     -0.1565200      0.1633600    
  0.4758400      0.6939199      0.7654399      0.6804799      0.4638399    
  0.1608400     -0.1742400     -0.4835200     -0.7091200     -0.8033600    
 -0.7438401     -0.5515200     -0.2883200     -0.3592000e-01  0.1390400    
  0.2093600      0.1906800      0.1286400      0.7644999e-01  0.7286999e-01
  0.1260400      0.2074400      0.2601600      0.2256400      0.8150999e-01
 -0.1358400     -0.3425600     -0.4496000     -0.4091200     -0.2338000    
  0.1713000e-01  0.2704000      0.4622400      0.5491199      0.5129600    
  0.3695999      0.1684800     -0.2060000e-01 -0.1328400     -0.1366800    
 -0.4867000e-01  0.7489999e-01  0.1684000      0.1870400      0.1212000    
 -0.9630000e-02 -0.1742400     -0.3441600     -0.4988800     -0.6208000    
 -0.6875200     -0.6712000     -0.5475200     -0.3087600      0.2072000e-01
  0.3817599      0.6905599      0.8606399      0.8409599      0.6449599    
  0.3508800      0.6938998e-01 -0.1117200     -0.1653200     -0.1310800    
 -0.7887000e-01 -0.6023000e-01 -0.8012001e-01 -0.1088000     -0.1159600    
 -0.9768000e-01 -0.7344000e-01 -0.6289001e-01 -0.6213000e-01 -0.4196000e-01
  0.3011000e-01  0.1584800      0.3016400      0.3828800      0.3283200    
  0.1099200     -0.2298800     -0.5854400     -0.8302400     -0.8737600    
 -0.6982400     -0.3640000      0.1951000e-01  0.3334399      0.4915200    
  0.4619200      0.2787200      0.3243999e-01 -0.1625200     -0.2167200    
 -0.1093600      0.1019200      0.3132800      0.4312000      0.4212800    
  0.3171200      0.1896400      0.1032400      0.8299999e-01  0.1136000    
  0.1574400      0.1752800      0.1410000      0.5065999e-01 -0.7261001e-01
 -0.1863200     -0.2496400     -0.2489600     -0.2078800     -0.1736800    
 -0.1853600     -0.2440800     -0.3099600     -0.3292800     -0.2720400    
 -0.1524400     -0.1663000e-01  0.8476000e-01  0.1208800      0.8795999e-01
  0.9189999e-02 -0.7439001e-01 -0.1189600     -0.9624000e-01 -0.8220000e-02
  0.1119200      0.2146000      0.2569600      0.2248800      0.1401600    
  0.4757000e-01 -0.9520000e-02 -0.9620002e-02  0.4053000e-01  0.1149200    
  0.1860000      0.2394800      0.2769200      0.3066400      0.3311999    
  0.3411199      0.3119200      0.2147600      0.3489000e-01 -0.2138000    
 -0.4804800     -0.6876800     -0.7630401     -0.6740800     -0.4510400    
 -0.1751600      0.5659000e-01  0.1766800      0.1687200      0.6310999e-01
 -0.8324000e-01 -0.2097200     -0.2682400     -0.2334000     -0.1066000    
  0.8635999e-01  0.3022799      0.4875200      0.5884799      0.5678400    
  0.4216000      0.1862800     -0.7669000e-01 -0.3082000     -0.4715200    
 -0.5521600     -0.5430400     -0.4352000     -0.2236000      0.7092999e-01
  0.3910400      0.6536000      0.7825599      0.7491199      0.5857599    
  0.3657600      0.1639200      0.1927000e-01 -0.7536000e-01 -0.1576800    
 -0.2654001     -0.4120000     -0.5777601     -0.7214401     -0.8008001    
 -0.7867200     -0.6737601     -0.4814400     -0.2447200     -0.4000000e-04
  0.2298800      0.4367999      0.6158400      0.7512000      0.8161600    
  0.7835199      0.6464000      0.4275200      0.1806800     -0.3417000e-01
 -0.1775600     -0.2487600     -0.2772800     -0.2940000     -0.3066000    
 -0.2983200     -0.2492000     -0.1579200     -0.4562000e-01  0.5695999e-01
  0.1265200      0.1542800      0.1436800      0.1042800      0.4574999e-01
 -0.2519000e-01 -0.1040800     -0.1850800     -0.2589600     -0.3156800    
 -0.3502400     -0.3624000     -0.3507200     -0.3038400     -0.2016800    
 -0.2723000e-01  0.2128000      0.4780800      0.7052799      0.8327999    
  0.8249599      0.6827199      0.4379200      0.1418800     -0.1490800    
 -0.3827200     -0.5225600     -0.5571201     -0.5020801     -0.3942400    
 -0.2744000     -0.1732000     -0.1037200     -0.6569001e-01 -0.5315001e-01
 -0.5945000e-01 -0.7761000e-01 -0.9616001e-01 -0.9656000e-01 -0.6033000e-01
  0.1884000e-01  0.1287200      0.2414800      0.3256000      0.3600000    
  0.3436800      0.2912800      0.2265200      0.1740000      0.1472000    
  0.1407200      0.1318000      0.9171999e-01  0.2950000e-02 -0.1279600    
 -0.2692800     -0.3795200     -0.4268800     -0.4040000     -0.3254400    
 -0.2142400     -0.8868000e-01  0.3845999e-01  0.1532800      0.2350000    
  0.2585999      0.2072400      0.8591999e-01 -0.7481000e-01 -0.2290800    
 -0.3307200     -0.3497600     -0.2804000     -0.1423600      0.2951000e-01
  0.1956800      0.3238800      0.3968000      0.4169599      0.4001600    
  0.3628799      0.3134800      0.2461600      0.1526000      0.3128000e-01
 -0.1042800     -0.2282800     -0.3135200     -0.3432000     -0.3180000    
 -0.2555600     -0.1822000     -0.1234800     -0.9676000e-01 -0.1065600    
 -0.1435200     -0.1888800     -0.2221200     -0.2282000     -0.2003600    
