  0.9999903      -10.48448       10.48576      -12345.00      0.9999901    
   199.9647       1600.951      -12345.00      -12345.00       2.000000    
  -12345.00      -12345.00      -12345.00      -12345.00      -12345.00    
  -12345.00      -12345.00      -12345.00      -12345.00      -12345.00    
  -12345.00      -12345.00      -12345.00      -12345.00      -12345.00    
  -12345.00      -12345.00      -12345.00      -12345.00      -12345.00    
  -12345.00       62.47971      -114.5917      -12345.00      -12345.00    
   40.30000      -127.0000             0.             0.      -12345.00    
  -12345.00      -12345.00      -12345.00      -12345.00      -12345.00    
  -12345.00      -12345.00      -12345.00      -12345.00      -12345.00    
   2603.720       14.53347       204.4047       23.43720      -12345.00    
  -12345.00     -0.4832330e-02   90.00000       90.00000      -12345.00    
  -12345.00      -12345.00      -12345.00      -12345.00      -12345.00    
  -12345.00      -12345.00      -12345.00      -12345.00      -12345.00    
      1984       254         3        14         7
         0         6         0         0      1402
    -12345    -12345    -12345    -12345    -12345
         1        50        11    -12345    -12345
    -12345    -12345        40    -12345    -12345
    -12345    -12345    -12345    -12345    -12345
    -12345    -12345    -12345    -12345    -12345
         1         0         1         1         0
RSNT    EUREKA          
-12345  -12345  -12345  
-12345  -12345  -12345  
-12345  -12345  -12345  
-12345  -12345  -12345  
-12345  -12345  -12345  
-12345  -12345  KL.E    
RSTN-SAR10/12/84KS-36000
 -0.1660000e-02 -0.1370000e-02 -0.8800001e-03 -0.4700000e-03 -0.2500000e-03
 -0.8000000e-04  0.1700000e-03  0.5999999e-03  0.1120000e-02  0.1340000e-02
  0.9099999e-03  0.6000000e-04 -0.6100000e-03 -0.9700001e-03 -0.1160000e-02
 -0.1100000e-02 -0.6300000e-03  0.6999999e-04  0.5900000e-03  0.7099999e-03
  0.6099999e-03  0.5000000e-03  0.4499999e-03  0.3800000e-03  0.1400000e-03
 -0.2600000e-03 -0.8100000e-03 -0.1450000e-02 -0.1990000e-02 -0.2010000e-02
 -0.1370000e-02 -0.4300000e-03  0.4199999e-03  0.1110000e-02  0.1740000e-02
  0.2290000e-02  0.2590000e-02  0.2580000e-02  0.2320000e-02  0.1780000e-02
  0.8799999e-03 -0.2100000e-03 -0.1320000e-02 -0.2300000e-02 -0.3000000e-02
 -0.3240000e-02 -0.2970000e-02 -0.2240000e-02 -0.1360000e-02 -0.7300001e-03
 -0.3200000e-03  0.1300000e-03  0.7399999e-03  0.1250000e-02  0.1510000e-02
  0.1500000e-02  0.1230000e-02  0.7499999e-03  0.2500000e-03 -0.1100000e-03
 -0.3800000e-03 -0.6200001e-03 -0.7900001e-03 -0.7900001e-03 -0.6100000e-03
 -0.1900000e-03  0.4199999e-03  0.8899999e-03  0.8999999e-03  0.7099999e-03
  0.6499999e-03  0.5600000e-03  0.1800000e-03 -0.2500000e-03 -0.5200000e-03
 -0.8000000e-03 -0.1200000e-02 -0.1570000e-02 -0.1740000e-02 -0.1660000e-02
 -0.1360000e-02 -0.8000000e-03 -0.7000001e-04  0.7199999e-03  0.1350000e-02
  0.1700000e-02  0.1680000e-02  0.1300000e-02  0.7999999e-03  0.3800000e-03
 -0.1300000e-03 -0.9600000e-03 -0.1880000e-02 -0.2420000e-02 -0.2430000e-02
 -0.1990000e-02 -0.1250000e-02 -0.3900000e-03  0.3800000e-03  0.9999999e-03
  0.1460000e-02  0.1730000e-02  0.1630000e-02  0.1100000e-02  0.4000000e-03
 -0.2600000e-03 -0.8700000e-03 -0.1260000e-02 -0.1340000e-02 -0.1270000e-02
 -0.1110000e-02 -0.7600001e-03 -0.3500000e-03 -0.1400000e-03 -0.1000000e-04
  0.4600000e-03  0.2580000e-02  0.9579999e-02  0.2489000e-01  0.4746000e-01
  0.7166000e-01  0.9439999e-01  0.1141600      0.1206000      0.1008800    
  0.5272000e-01 -0.1502000e-01 -0.8932000e-01 -0.1588000     -0.2143200    
 -0.2511600     -0.2720000     -0.2777600     -0.2630400     -0.2262400    
 -0.1772000     -0.1282400     -0.8024001e-01 -0.2618000e-01  0.4108000e-01
  0.1236000      0.2183200      0.3169600      0.4047999      0.4659200    
  0.4865600      0.4614400      0.3937600      0.2960399      0.1818800    
  0.6120999e-01 -0.5839000e-01 -0.1660400     -0.2508000     -0.3064000    
 -0.3344000     -0.3396800     -0.3299200     -0.3061200     -0.2701600    
 -0.2194800     -0.1517600     -0.6997001e-01  0.1388000e-01  0.8452000e-01
  0.1294800      0.1442400      0.1342400      0.1093600      0.8112998e-01
  0.5938999e-01  0.4700000e-01  0.3895999e-01  0.3096000e-01  0.2038000e-01
  0.3980000e-02 -0.1729000e-01 -0.3705000e-01 -0.4906000e-01 -0.5120000e-01
 -0.4566000e-01 -0.3722000e-01 -0.2917000e-01 -0.1991000e-01 -0.4310001e-02
  0.2104000e-01  0.5349000e-01  0.8387999e-01  0.1027200      0.1054000    
  0.9480000e-01  0.7799999e-01  0.6156000e-01  0.4969999e-01  0.4229999e-01
  0.3643999e-01  0.2673000e-01  0.9559998e-02 -0.1335000e-01 -0.3588000e-01
 -0.5021000e-01 -0.5183000e-01 -0.4463001e-01 -0.3766000e-01 -0.3701000e-01
 -0.4358000e-01 -0.5481000e-01 -0.6669001e-01 -0.7695000e-01 -0.8628000e-01
 -0.9456001e-01 -0.9808001e-01 -0.9036000e-01 -0.6684001e-01 -0.2771000e-01
  0.2107000e-01  0.6590000e-01  0.9295999e-01  0.9615999e-01  0.7826999e-01
  0.4830000e-01  0.1911000e-01  0.1140000e-02 -0.3510000e-02 -0.1730000e-02
 -0.2600000e-02 -0.1044000e-01 -0.2339000e-01 -0.3611001e-01 -0.4184000e-01
 -0.3644000e-01 -0.2197000e-01 -0.3520000e-02  0.1586000e-01  0.3626999e-01
  0.5702999e-01  0.7337999e-01  0.7911000e-01  0.6982999e-01  0.4494999e-01
  0.9799998e-02 -0.2633000e-01 -0.5514000e-01 -0.7133001e-01 -0.7257001e-01
 -0.6087000e-01 -0.4074001e-01 -0.1506000e-01  0.1494000e-01  0.4570000e-01
  0.7106999e-01  0.8455999e-01  0.8199999e-01  0.6186999e-01  0.2675000e-01
 -0.1500000e-01 -0.5154000e-01 -0.7262000e-01 -0.7496001e-01 -0.6298001e-01
 -0.4492000e-01 -0.2770000e-01 -0.1359000e-01 -0.1240000e-02  0.1172000e-01
  0.2656000e-01  0.4181000e-01  0.5425999e-01  0.6069999e-01  0.5988999e-01
  0.5392999e-01  0.4743999e-01  0.4422999e-01  0.4501999e-01  0.4738999e-01
  0.4471000e-01  0.2910000e-01 -0.1270000e-02 -0.4097001e-01 -0.8060001e-01
 -0.1102400     -0.1229200     -0.1178000     -0.9744000e-01 -0.6682001e-01
 -0.3194001e-01  0.4109999e-02  0.3839999e-01  0.6493999e-01  0.7875998e-01
  0.7903999e-01  0.6714000e-01  0.4458000e-01  0.1411000e-01 -0.1845000e-01
 -0.4594000e-01 -0.6421001e-01 -0.7275000e-01 -0.7256001e-01 -0.6507000e-01
 -0.5346000e-01 -0.4197000e-01 -0.3249000e-01 -0.2408000e-01 -0.1383000e-01
  0.2120000e-02  0.2467000e-01  0.4990000e-01  0.7194999e-01  0.8452000e-01
  0.8323999e-01  0.6882998e-01  0.4638000e-01  0.2130000e-01 -0.3160000e-02
 -0.2448000e-01 -0.4091001e-01 -0.5165000e-01 -0.5674000e-01 -0.5552001e-01
 -0.4648000e-01 -0.3003000e-01 -0.9720001e-02  0.9380000e-02  0.2257000e-01
  0.2797000e-01  0.2754000e-01  0.2493000e-01  0.2412000e-01  0.3044000e-01
  0.4804000e-01  0.7573000e-01  0.1048400      0.1237600      0.1238000    
  0.1046400      0.7202999e-01  0.3406999e-01  0.2020000e-02 -0.1412000e-01
 -0.1099000e-01  0.8819999e-02  0.3744999e-01  0.6150000e-01  0.6779999e-01
  0.5022000e-01  0.9269999e-02 -0.5023000e-01 -0.1171600     -0.1760800    
 -0.2144000     -0.2240400     -0.2038800     -0.1614400     -0.1121600    
 -0.7068001e-01 -0.4459000e-01 -0.3496000e-01 -0.3928000e-01 -0.5130000e-01
 -0.6420000e-01 -0.7266000e-01 -0.7122001e-01 -0.5515000e-01 -0.2531000e-01
  0.1104000e-01  0.4280999e-01  0.5903000e-01  0.5334000e-01  0.2894000e-01
  0.6599999e-03 -0.4890000e-02  0.5028000e-01  0.2100000      0.5112000    
  0.9705600       1.566720       2.273280       2.993920       3.610880    
   3.983360       3.978240       3.502079       2.525440       1.101920    
 -0.6883200      -2.736640      -4.917760      -7.123200      -9.213440    
  -10.48448      -10.48448      -10.48448      -10.48448      -9.856001    
  -6.932480      -3.316480      0.5911999       4.336639       7.585279    
   10.08000       10.48576       10.48576       10.48576       10.48576    
   10.48576       9.089279       7.344640       5.469440       3.566080    
   1.734400      0.7747999e-01  -1.373440      -2.568960      -3.521280    
  -4.247041      -4.752641      -5.047040      -5.135361      -5.043200    
  -4.805120      -4.464641      -4.061440      -3.623680      -3.156480    
  -2.643200      -2.069760      -1.433600     -0.7516800     -0.8560000e-01
  0.5120000      0.9886400       1.305600       1.477120       1.532160    
   1.509120       1.463040       1.443840       1.495040       1.629440    
   1.829120       2.059520       2.266880       2.396160       2.420480    
   2.329600       2.142720       1.884160       1.589760       1.293920    
   1.001440      0.7351999      0.4996800      0.2905200      0.9035999e-01
 -0.1261600     -0.3936000     -0.7444800      -1.201120      -1.765120    
  -2.380800      -2.993920      -3.544320      -3.994880      -4.339200    
  -4.605440      -4.833281      -5.057281      -5.290240      -5.510401    
  -5.657600      -5.651200      -5.402881      -4.847361      -3.959040    
  -2.776320      -1.384960      0.1024800       1.541120       2.877439    
   4.071679       5.150720       6.164479       7.151360       8.101118    
   8.939518       9.548800       9.807360       9.633278       9.027840    
   8.063999       6.882560       5.638399       4.450560       3.376640    
   2.398720       1.441280      0.4187199     -0.7588800      -2.119680    
  -3.612160      -5.158401      -6.631680      -7.925760      -8.962561    
  -9.712641      -10.18240      -10.40000      -10.37824      -10.10560    
  -9.534721      -8.600321      -7.238400      -5.422080      -3.191040    
 -0.6411201       2.035200       4.670719       7.060479       9.039358    
   10.48320       10.48576       10.48576       10.48576       10.47936    
   9.251839       7.683840       5.843200       3.820800       1.711360    
 -0.3776000      -2.379520      -4.189441      -5.760000      -7.059200    
  -8.067841      -8.774401      -9.160961      -9.192961      -8.828161    
  -8.012800      -6.712320      -4.936960      -2.773760     -0.3736000    
   2.023680       4.218880       6.004479       7.240959       7.865600    
   7.886080       7.372799       6.430719       5.191679       3.783679    
   2.348800       1.029120     -0.6081000e-01 -0.8188801      -1.188480    
  -1.180320     -0.8758401     -0.4305600     -0.5337000e-01  0.2921000e-01
 -0.3612800      -1.300160      -2.739200      -4.468480      -6.199040    
  -7.582721      -8.284161      -8.049921      -6.766080      -4.499201    
  -1.498880       1.829120       5.006080       7.566079       9.137918    
   9.530878       8.784639       7.138559       4.990720       2.772480    
  0.8510399     -0.5844800      -1.515520      -2.056960      -2.425600    
  -2.817280      -3.338240      -3.951360      -4.491520      -4.730881    
  -4.473600      -3.660800      -2.401280     -0.9376000      0.4087999    
   1.387520       1.908480       2.022400       1.931520       1.875200    
   2.036479       2.457600       3.014400       3.470080       3.555840    
   3.078400       1.994240      0.4302400      -1.383680      -3.098880    
  -4.407041      -5.070081      -4.979200      -4.162560      -2.768640    
  -1.016800      0.8174399       2.478080       3.746560       4.417279    
   4.353279       3.517440       2.005760      0.9383999e-01  -1.854720    
  -3.363840      -4.078080      -3.825920      -2.702080      -1.054240    
  0.6113600       1.824000       2.302720       1.995520       1.108960    
 -0.2046000e-01  -1.004480      -1.552640      -1.509120     -0.9115200    
  0.5057999e-01   1.129920       2.056960       2.626560       2.699520    
   2.248960       1.354240      0.2165200     -0.9420800      -1.876480    
  -2.393600      -2.439680      -2.087680      -1.500160     -0.8612801    
 -0.3318400      0.5679999e-01  0.3566400      0.6726400       1.075360    
   1.527040       1.899520       1.967360       1.574400      0.7169600    
 -0.4529600      -1.629440      -2.447360      -2.644480      -2.145280    
  -1.086240      0.1800000       1.247360       1.770240       1.614080    
  0.8660799     -0.2061600      -1.221120      -1.840640      -1.840640    
  -1.203840     -0.1100400       1.160160       2.277120       2.979840    
   3.116800       2.684160       1.804800      0.6839999     -0.4734400    
  -1.464320      -2.131200      -2.432000      -2.401280      -2.126080    
  -1.696000      -1.159680     -0.5518401      0.1308800      0.8484799    
   1.501440       1.958400       2.058240       1.708800      0.9379200    
 -0.1216400      -1.214400      -2.074880      -2.478080      -2.361600    
  -1.786880     -0.8952000      0.1174400       1.095520       1.911040    
   2.487040       2.740479       2.600960       2.030080       1.081920    
 -0.1127200      -1.308000      -2.254080      -2.750720      -2.754560    
  -2.350080      -1.689600     -0.9235201     -0.1699200      0.5350399    
   1.184800       1.758720       2.237440       2.551040       2.616320    
   2.352640       1.708800      0.7263999     -0.4779200      -1.667840    
  -2.553600      -2.935040      -2.749440      -2.101760      -1.209440    
 -0.3528000      0.2881200      0.6571199      0.8420799       1.003840    
   1.274880       1.657600       2.030080       2.152960       1.816320    
  0.9588799     -0.3132401      -1.707520      -2.830080      -3.371520    
  -3.178240      -2.312960      -1.019680      0.3274000       1.388800    
   1.973760       2.028800       1.667840       1.102560      0.5220799    
  0.8175999e-01 -0.1660400     -0.2567600     -0.2844000     -0.3433600    
 -0.4699200     -0.6251200     -0.7140801     -0.6356801     -0.3353601    
  0.1524000      0.6972799       1.115680       1.234240      0.9735999    
  0.3918400     -0.3292800     -0.9576000      -1.305120      -1.298720    
 -0.9960001     -0.5420800     -0.9112000e-01  0.2562400      0.4880000    
  0.6520000      0.7961599      0.9252800      0.9924799      0.9337599    
  0.7142400      0.3536000     -0.7855001e-01 -0.4929600     -0.8038400    
 -0.9595200     -0.9440000     -0.7721601     -0.4867200     -0.1567600    
  0.1246000      0.2684799      0.2200000     -0.8320000e-02 -0.3239200    
 -0.5729600     -0.5931201     -0.2882000      0.3179200       1.074080    
   1.733120       2.064640       1.908480       1.268000      0.2794000    
 -0.8056000      -1.736960      -2.300160      -2.414080      -2.101760    
  -1.486080     -0.7329600     -0.1379000e-01  0.5807999       1.019680    
   1.298560       1.402880       1.340160       1.116320      0.7676799    
  0.3960000      0.9947999e-01 -0.6814000e-01 -0.1232800     -0.1400400    
 -0.2036000     -0.3563200     -0.5660801     -0.7456000     -0.7961600    
 -0.6587200     -0.3475200      0.5363999e-01  0.4185600      0.6374400    
  0.6487999      0.4596800      0.1377200     -0.2172800     -0.4992000    
 -0.6297600     -0.5888001     -0.4163200     -0.1912800      0.6999999e-04
  0.1066800      0.1347200      0.1416000      0.1984400      0.3361599    
  0.5169599      0.6494399      0.6468799      0.4803200      0.1938000    
 -0.1262400     -0.3940800     -0.5552001     -0.5939200     -0.5155201    
 -0.3379200     -0.9420000e-01  0.1547200      0.3300800      0.3620800    
  0.2232800     -0.4748000e-01 -0.3499200     -0.5569600     -0.5777601    
 -0.3952000     -0.6807001e-01  0.3021200      0.6273599      0.8548800    
  0.9611199      0.9310399      0.7494400      0.4134400     -0.4727000e-01
 -0.5664001      -1.041280      -1.379840      -1.483520      -1.310080    
 -0.8897600     -0.2841600      0.3798400      0.9513599       1.284160    
   1.289120      0.9719999      0.4396800     -0.1319600     -0.5612800    
 -0.7174400     -0.5784000     -0.2314000      0.1551600      0.4060799    
  0.4078400      0.1533200     -0.2538400     -0.6377600     -0.8188801    
 -0.6932801     -0.2721600      0.3200400      0.9014399       1.302240    
   1.413120       1.260480      0.8955200      0.4430400      0.4439999e-02
 -0.3699200     -0.6691201     -0.9043200      -1.073280      -1.150240    
  -1.094720     -0.8792000     -0.5174401     -0.8162001e-01  0.3051200    
  0.5179199      0.4881600      0.2453200     -0.8584000e-01 -0.3419200    
 -0.3980800     -0.2296800      0.8199999e-01  0.3963200      0.5752000    
  0.5395199      0.3054399     -0.2439000e-01 -0.3060000     -0.4193600    
 -0.3133200     -0.2775000e-01  0.3382400      0.6668799      0.8583999    
  0.8635199      0.6945599      0.4094400      0.8520000e-01 -0.2142800    
 -0.4505600     -0.6089600     -0.6902400     -0.6896000     -0.5937600    
 -0.3953600     -0.1176000      0.1730800      0.3900800      0.4595200    
  0.3512000      0.1041200     -0.1848000     -0.3947200     -0.4356800    
 -0.2964800     -0.5135000e-01  0.1823200      0.3034400      0.2746000    
  0.1322800     -0.4452001e-01 -0.1828800     -0.2492800     -0.2556800    
 -0.2344000     -0.2077600     -0.1711600     -0.1010000      0.1952000e-01
  0.1752800      0.3217199      0.4068800      0.4067200      0.3382400    
  0.2527199      0.2011600      0.2076400      0.2511600      0.2794000    
  0.2419200      0.1191600     -0.7140000e-01 -0.2900800     -0.4907200    
 -0.6280000     -0.6689601     -0.5945600     -0.4091200     -0.1450400    
  0.1388800      0.3807999      0.5328000      0.5647999      0.4659200    
  0.2438000     -0.7371001e-01 -0.4268800     -0.7228800     -0.8673600    
 -0.7998401     -0.5289600     -0.1356400      0.2538800      0.5256000    
  0.6243199      0.5726399      0.4542400      0.3635200      0.3574399    
  0.4329600      0.5347199      0.5886400      0.5377599      0.3670400    
  0.1058800     -0.1896000     -0.4580800     -0.6542400     -0.7627200    
 -0.7872001     -0.7387201     -0.6321601     -0.4892800     -0.3414400    
 -0.2219600     -0.1548000     -0.1344400     -0.1249600     -0.6953001e-01
  0.8064999e-01  0.3337600      0.6431999      0.9166399       1.066560    
   1.047040      0.8742399      0.6033599      0.2970000     -0.1760000e-02
 -0.2698800     -0.4926400     -0.6508801     -0.7248000     -0.6992000    
 -0.5764800     -0.3830400     -0.1667600      0.1603000e-01  0.1257200    
  0.1502800      0.1024800      0.9979999e-02 -0.9808001e-01 -0.1940400    
 -0.2561200     -0.2724800     -0.2482400     -0.2050000     -0.1660000    
 -0.1375200     -0.1008000     -0.2315000e-01  0.1180800      0.3188800    
  0.5438399      0.7433599      0.8707199      0.8985599      0.8251200    
  0.6686399      0.4555200      0.2086400     -0.5849000e-01 -0.3332800    
 -0.5896001     -0.7926401     -0.9116800     -0.9398401     -0.9011201    
 -0.8328000     -0.7545600     -0.6504000     -0.4814400     -0.2188000    
  0.1219200      0.4793600      0.7675200      0.9097599      0.8756800    
  0.6932800      0.4350399      0.1875600      0.1687000e-01 -0.4510000e-01
 -0.4340000e-02  0.1048000      0.2369200      0.3491200      0.4139200    
  0.4169599      0.3572800      0.2438000      0.8391999e-01 -0.1146400    
 -0.3449600     -0.5892800     -0.8177600     -0.9886401      -1.058560    
 -0.9960001     -0.7966400     -0.4865600     -0.1162800      0.2487600    
  0.5480000      0.7351999      0.7838399      0.6980799      0.5148799    
  0.2991199      0.1194800      0.2487000e-01  0.2303000e-01  0.8447999e-01
  0.1633600      0.2207200      0.2376800      0.2114000      0.1461600    
  0.4855999e-01 -0.7084000e-01 -0.1946000     -0.3020400     -0.3777600    
 -0.4104000     -0.3979200     -0.3416000     -0.2506000     -0.1466000    
 -0.5496000e-01  0.1500000e-03  0.8679999e-02 -0.2058000e-01 -0.6337000e-01
 -0.9184000e-01 -0.8524001e-01 -0.3795000e-01  0.3951000e-01  0.1254800    
