  0.9999903      -5.518081       5.562880      -12345.00      0.9999901    
   199.9647       1600.951      -12345.00      -12345.00       2.000000    
  -12345.00      -12345.00      -12345.00      -12345.00      -12345.00    
  -12345.00      -12345.00      -12345.00      -12345.00      -12345.00    
  -12345.00      -12345.00      -12345.00      -12345.00      -12345.00    
  -12345.00      -12345.00      -12345.00      -12345.00      -12345.00    
  -12345.00       62.47971      -114.5917      -12345.00      -12345.00    
   40.30000      -127.0000             0.             0.      -12345.00    
  -12345.00      -12345.00      -12345.00      -12345.00      -12345.00    
  -12345.00      -12345.00      -12345.00      -12345.00      -12345.00    
   2603.720       14.53347       204.4047       23.43720      -12345.00    
  -12345.00     -0.1164054e-02         0.             0.      -12345.00    
  -12345.00      -12345.00      -12345.00      -12345.00      -12345.00    
  -12345.00      -12345.00      -12345.00      -12345.00      -12345.00    
      1984       254         3        14         7
         0         6         0         0      1402
    -12345    -12345    -12345    -12345    -12345
         1        50        11    -12345    -12345
    -12345    -12345        40    -12345    -12345
    -12345    -12345    -12345    -12345    -12345
    -12345    -12345    -12345    -12345    -12345
         1         0         1         1         0
RSNT    EUREKA          
-12345  -12345  -12345  
-12345  -12345  -12345  
-12345  -12345  -12345  
-12345  -12345  -12345  
-12345  -12345  -12345  
-12345  -12345  KL.Z    
RSTN-SAR10/12/84KS-36000
 -0.1510000e-02 -0.1720000e-02 -0.1720000e-02 -0.1570000e-02 -0.1220000e-02
 -0.6800001e-03 -0.7000001e-04  0.5699999e-03  0.1360000e-02  0.2170000e-02
  0.2750000e-02  0.3070000e-02  0.2929999e-02  0.2100000e-02  0.5900000e-03
 -0.1140000e-02 -0.2630000e-02 -0.3830000e-02 -0.4690001e-02 -0.4870000e-02
 -0.4370000e-02 -0.3630000e-02 -0.2800000e-02 -0.1630000e-02 -0.1200000e-03
  0.1440000e-02  0.2660000e-02  0.3230000e-02  0.3070000e-02  0.2350000e-02
  0.1210000e-02  0.1000000e-04 -0.9800000e-03 -0.1690000e-02 -0.2170000e-02
 -0.2560000e-02 -0.2890000e-02 -0.2940000e-02 -0.2530000e-02 -0.1700000e-02
 -0.5400000e-03  0.6499999e-03  0.1440000e-02  0.1630000e-02  0.1510000e-02
  0.1460000e-02  0.1590000e-02  0.1500000e-02  0.1030000e-02  0.5199999e-03
  0.2000000e-03 -0.9000000e-04 -0.3600000e-03 -0.6600000e-03 -0.1140000e-02
 -0.1600000e-02 -0.1450000e-02 -0.7000001e-03 -0.5000000e-04 -0.7000001e-04
 -0.4100000e-03 -0.4500000e-03 -0.1100000e-03  0.8000000e-04 -0.1800000e-03
 -0.6200001e-03 -0.7500000e-03 -0.4900000e-03  0.9999999e-04  0.8200000e-03
  0.1160000e-02  0.7900000e-03  0.2300000e-03 -0.1000000e-04 -0.1100000e-03
 -0.4400000e-03 -0.1090000e-02 -0.1880000e-02 -0.2390000e-02 -0.2410000e-02
 -0.2230000e-02 -0.2050000e-02 -0.1690000e-02 -0.9700001e-03  0.1300000e-03
  0.1370000e-02  0.2330000e-02  0.2740000e-02  0.2860000e-02  0.2680000e-02
  0.2010000e-02  0.9999999e-03  0.8999999e-04 -0.6200001e-03 -0.1390000e-02
 -0.2280000e-02 -0.2930000e-02 -0.3010000e-02 -0.2360000e-02 -0.1110000e-02
  0.2599999e-03  0.1090000e-02  0.1360000e-02  0.1370000e-02  0.1340000e-02
  0.1220000e-02  0.1020000e-02  0.7499999e-03  0.3300000e-03 -0.2500000e-03
 -0.9000000e-03 -0.1620000e-02 -0.2060000e-02 -0.1760000e-02 -0.9600000e-03
  0.2800000e-03  0.5870000e-02  0.2712000e-01  0.7594000e-01  0.1495600    
  0.2297600      0.3014799      0.3475199      0.3324800      0.2240800    
  0.2453000e-01 -0.2333200     -0.4955200     -0.6939200     -0.7769600    
 -0.7404801     -0.6262400     -0.4811200     -0.3363200     -0.2117600    
 -0.1228800     -0.7140000e-01 -0.3512000e-01  0.2748000e-01  0.1561600    
  0.3715200      0.6592000      0.9644799       1.206880       1.306720    
   1.217280      0.9480000      0.5599999      0.1415200     -0.2301600    
 -0.5097600     -0.6870401     -0.7769600     -0.7963201     -0.7552000    
 -0.6622400     -0.5347201     -0.3950400     -0.2656000     -0.1653200    
 -0.1006800     -0.6070000e-01 -0.2218000e-01  0.3630000e-01  0.1176800    
  0.2049200      0.2722800      0.2977600      0.2724400      0.2070800    
  0.1284800      0.6745999e-01  0.4517999e-01  0.6468000e-01  0.1064800    
  0.1364400      0.1235200      0.5586000e-01 -0.5226000e-01 -0.1657600    
 -0.2486400     -0.2812800     -0.2624400     -0.2032000     -0.1190400    
 -0.2349000e-01  0.7183999e-01  0.1550800      0.2102800      0.2244800    
  0.2000800      0.1544800      0.1066400      0.6933999e-01  0.4601000e-01
  0.2997000e-01  0.9419998e-02 -0.2237000e-01 -0.6137000e-01 -0.9276001e-01
 -0.9812000e-01 -0.7084000e-01 -0.2272000e-01  0.2394000e-01  0.4555000e-01
  0.2750000e-01 -0.2622000e-01 -0.9432000e-01 -0.1509200     -0.1778400    
 -0.1693200     -0.1315200     -0.7736000e-01 -0.2031000e-01  0.3087000e-01
  0.6978999e-01  0.9043999e-01  0.8759999e-01  0.6037000e-01  0.1740000e-01
 -0.2659000e-01 -0.5655000e-01 -0.6118000e-01 -0.4098000e-01 -0.8800000e-02
  0.2324000e-01  0.5161999e-01  0.7849999e-01  0.1074800      0.1397200    
  0.1682400      0.1780000      0.1535200      0.9040000e-01  0.6099999e-03
 -0.9452000e-01 -0.1750800     -0.2306800     -0.2588400     -0.2608800    
 -0.2398800     -0.2016400     -0.1500400     -0.8129001e-01  0.6399999e-02
  0.1038400      0.1960000      0.2707199      0.3155200      0.3170800    
  0.2747999      0.2031600      0.1199600      0.3831000e-01 -0.3131000e-01
 -0.7908000e-01 -0.1010000     -0.1009200     -0.8672000e-01 -0.6564000e-01
 -0.4537001e-01 -0.2930000e-01 -0.1486000e-01 -0.3000000e-03  0.1238000e-01
  0.2263000e-01  0.3109000e-01  0.3366999e-01  0.2345000e-01 -0.4490000e-02
 -0.5122000e-01 -0.1100000     -0.1647200     -0.1972800     -0.1937600    
 -0.1511600     -0.7819000e-01  0.6270000e-02  0.7888000e-01  0.1192400    
  0.1180000      0.8186999e-01  0.2981000e-01 -0.1549000e-01 -0.3630000e-01
 -0.2602000e-01  0.1025000e-01  0.6013999e-01  0.1098800      0.1490400    
  0.1706800      0.1715200      0.1504400      0.1093600      0.5398999e-01
 -0.9680001e-02 -0.7843001e-01 -0.1485200     -0.2095200     -0.2491200    
 -0.2592000     -0.2374000     -0.1857200     -0.1126800     -0.3108000e-01
  0.4657999e-01  0.1123200      0.1622800      0.1948800      0.2081200    
  0.1966000      0.1548000      0.8340000e-01 -0.7950000e-02 -0.1036000    
 -0.1818000     -0.2239600     -0.2242800     -0.1909600     -0.1387600    
 -0.8264001e-01 -0.3438000e-01  0.2499999e-02  0.3225999e-01  0.6055000e-01
  0.9155999e-01  0.1264400      0.1605600      0.1871600      0.2048000    
  0.2165600      0.2234000      0.2208000      0.2024800      0.1674800    
  0.1221600      0.7610999e-01  0.3770000e-01  0.1100000e-01 -0.6010001e-02
 -0.2221000e-01 -0.4927000e-01 -0.9548001e-01 -0.1610000     -0.2364400    
 -0.3056000     -0.3529601     -0.3683200     -0.3502400     -0.3055200    
 -0.2474000     -0.1849600     -0.1216400     -0.5869000e-01  0.2720000e-02
  0.6186000e-01  0.1151600      0.1592800      0.1954800      0.2260800    
  0.2477200      0.2530800      0.2360000      0.1950400      0.1350800    
  0.6732999e-01  0.7540000e-02 -0.2793000e-01 -0.2793000e-01  0.8070000e-02
  0.6715000e-01  0.1255200      0.1576400      0.1460800      0.8476000e-01
 -0.2517000e-01 -0.1773200     -0.3542400     -0.5193601     -0.6241601    
 -0.6259201     -0.5096000     -0.2904400     -0.6560001e-02  0.2957200    
  0.5735999      0.8014399      0.9696000       1.076640       1.118560    
   1.095200       1.011520      0.8558400      0.5865599      0.1632800    
 -0.4115200      -1.064960      -1.689600      -2.164480      -2.426880    
  -2.471680      -2.336000      -2.077440      -1.733120      -1.306400    
 -0.7947201     -0.1770400      0.5379199       1.308160       2.071040    
   2.732800       3.208960       3.429120       3.371520       3.047680    
   2.498559       1.781760      0.9735999      0.1330000     -0.6728001    
  -1.387520      -1.943040      -2.296320      -2.417920      -2.306560    
  -2.000640      -1.569280      -1.082560     -0.6196800     -0.2156400    
  0.1134800      0.3734400      0.5785599      0.7318399      0.8177599    
  0.8105599      0.6918399      0.4612800      0.1375600     -0.2404000    
 -0.6145600     -0.9195200      -1.102400      -1.137280      -1.032160    
 -0.8164800     -0.5251200     -0.1954400      0.1298400      0.4096000    
  0.6116799      0.7160000      0.7211199      0.6494399      0.5398400    
  0.4353600      0.3704000      0.3672000      0.4312000      0.5470400    
  0.6796799      0.7841599      0.8182399      0.7574400      0.5996799    
  0.3620800      0.8195999e-01 -0.1905600     -0.4032000     -0.5172801    
 -0.5201601     -0.4281600     -0.2804800     -0.1242400      0.5870000e-02
  0.9295999e-01  0.1374400      0.1474400      0.1323600      0.9631999e-01
  0.3371000e-01 -0.6897001e-01 -0.2228000     -0.4256000     -0.6531200    
 -0.8636800      -1.011520      -1.061600      -1.000160     -0.8446400    
 -0.6436801     -0.4598400     -0.3377600     -0.2819600     -0.2670800    
 -0.2561200     -0.2225200     -0.1599200     -0.8612001e-01 -0.3658000e-01
 -0.4559001e-01 -0.1271200     -0.2665600     -0.4238400     -0.5425601    
 -0.5756800     -0.5048001     -0.3436800     -0.1190400      0.1466000    
  0.4464000      0.7859199       1.171360       1.594880       2.040320    
   2.447360       2.753280       2.908160       2.882560       2.676480    
   2.332160       1.896960       1.420800      0.9489599      0.5086399    
  0.1376400     -0.1383600     -0.3078800     -0.3841600     -0.4011200    
 -0.4086400     -0.4542400     -0.5676800     -0.7540801      -1.003840    
  -1.306400      -1.662720      -2.054400      -2.476800      -2.896640    
  -3.275520      -3.562240      -3.718400      -3.724800      -3.580160    
  -3.307520      -2.929920      -2.483200      -1.992960      -1.478400    
 -0.9390401     -0.3768000      0.2330800      0.9060799       1.644800    
   2.438400       3.243520       4.003839       4.665600       5.175039    
   5.482240       5.562880       5.400319       5.003519       4.382719    
   3.572480       2.604800       1.523200      0.3839999     -0.7708800    
  -1.888000      -2.905600      -3.788800      -4.513280      -5.057281    
  -5.400320      -5.518081      -5.382401      -4.980480      -4.313601    
  -3.422720      -2.374400      -1.242720     -0.1307200      0.8975999    
   1.793280       2.548480       3.155200       3.627520       3.967999    
   4.179199       4.261120       4.207359       4.014079       3.674880    
   3.170560       2.492160       1.621760      0.5846399     -0.5804801    
  -1.786880      -2.915840      -3.866880      -4.556800      -4.926721    
  -4.954881      -4.655360      -4.080641      -3.296000      -2.362880    
  -1.309600     -0.1734400       1.019360       2.209280       3.316480    
   4.238079       4.855040       5.064960       4.788480       4.020479    
   2.833920       1.373440     -0.1594800      -1.576960      -2.675200    
  -3.342080      -3.536640      -3.316480      -2.808320      -2.169600    
  -1.533440     -0.9716800     -0.5136000     -0.1140000      0.2908400    
  0.7571199       1.298080       1.856000       2.324480       2.558720    
   2.428160       1.870080      0.9196799     -0.2811600      -1.498880    
  -2.443520      -2.892800      -2.731520      -1.999360     -0.8801601    
  0.3202800       1.301280       1.832960       1.841920       1.401600    
  0.7121599     -0.4800000e-02 -0.5641600     -0.8769600     -0.9568000    
 -0.8771200     -0.7193600     -0.5320001     -0.3162400     -0.4314000e-01
  0.3189200      0.7737600       1.280000       1.739520       2.032640    
   2.024960       1.629440      0.8411199     -0.2430000      -1.420800    
  -2.416640      -2.988800      -2.990080      -2.425600      -1.463040    
 -0.3742400      0.5372800       1.079200       1.208960       1.039840    
  0.7779199      0.6287999      0.7140800       1.033440       1.465600    
   1.840640       1.967360       1.729280       1.090880      0.9604000e-01
  -1.123360      -2.384640      -3.458560      -4.142080      -4.267520    
  -3.750400      -2.604800     -0.9534401      0.9441599       2.769920    
   4.198400       4.949759       4.893439       4.078079       2.711040    
   1.089920     -0.4880000      -1.784320      -2.640640      -3.023360    
  -2.968320      -2.552320      -1.879040      -1.064960     -0.2705600    
  0.3641599      0.7326399      0.8080000      0.6628799      0.4438400    
  0.3059199      0.3396800      0.5358399      0.7875199      0.9499199    
  0.9107199      0.6438400      0.2180800     -0.2387600     -0.5998400    
 -0.7897600     -0.8041600     -0.6908801     -0.5145601     -0.3209600    
 -0.1240800      0.8129999e-01  0.2900800      0.4739200      0.5904000    
  0.6027199      0.4995199      0.3030000      0.5779999e-01 -0.1848400    
 -0.3872000     -0.5337601     -0.6294401     -0.6787200     -0.6713600    
 -0.5785600     -0.3704000     -0.4302000e-01  0.3536000      0.7188799    
  0.9268799      0.8841599      0.5824000      0.1172800     -0.3420800    
 -0.6128000     -0.5760001     -0.2260000      0.3206000      0.8716799    
   1.234080       1.276960      0.9697599      0.3772799     -0.3712000    
  -1.122560      -1.739520      -2.090240      -2.105600      -1.761280    
  -1.090880     -0.2254800      0.6713599       1.423360       1.912320    
   2.076159       1.925120       1.504000      0.8831999      0.1446400    
 -0.5918400      -1.189440      -1.537280      -1.560320      -1.281280    
 -0.8235201     -0.3342400      0.5256999e-01  0.2727600      0.3510399    
  0.3707200      0.4179199      0.5323199      0.6911999      0.8342400    
  0.9011199      0.8558400      0.6881599      0.3987200     -0.6520000e-02
 -0.5001601      -1.001600      -1.391360      -1.515520      -1.283840    
 -0.7220800      0.3736000e-01  0.7615999       1.212320       1.235200    
  0.8329599      0.1678400     -0.5064000     -0.9425601      -1.002080    
 -0.6921600     -0.1472000      0.4278399      0.8310399      0.9188799    
  0.6462399      0.8375999e-01 -0.5942401      -1.147680      -1.359360    
  -1.083680     -0.3801600      0.5558399       1.420800       1.948160    
   1.967360       1.492480      0.6918399     -0.2070000     -0.9691200    
  -1.438720      -1.538560      -1.303040     -0.8539200     -0.3374400    
  0.9639999e-01  0.3443199      0.3894399      0.2978399      0.1828800    
  0.1509200      0.2454800      0.4252800      0.5873599      0.6163199    
  0.4419200      0.7533999e-01 -0.3916800     -0.8116801      -1.044640    
  -1.010400     -0.7160001     -0.2437200      0.2828400      0.7376000    
   1.018240       1.058880      0.8459200      0.4288000     -0.8300000e-01
 -0.5454401     -0.8248000     -0.8571200     -0.6675200     -0.3531200    
 -0.3439000e-01  0.1844800      0.2530000      0.1836800      0.4951999e-01
 -0.4025000e-01  0.1519000e-01  0.2508399      0.5974399      0.8964800    
  0.9735999      0.7343999      0.2220800     -0.4064000     -0.9462401    
  -1.235360      -1.207520     -0.9052800     -0.4524800      0.3570000e-02
  0.3433599      0.5190399      0.5446399      0.4745600      0.3686399    
  0.2668800      0.1742800      0.7500999e-01 -0.4560000e-01 -0.1778000    
 -0.2816400     -0.3057600     -0.2198400     -0.4243001e-01  0.1553600    
  0.2800400      0.2614000      0.9175999e-01 -0.1643600     -0.3952000    
 -0.4883200     -0.3854400     -0.1108400      0.2306000      0.5015999    
  0.6014400      0.5137600      0.3139200      0.1148000     -0.1400000e-03
 -0.2536000e-01 -0.2041000e-01 -0.5306000e-01 -0.1432000     -0.2511600    
 -0.3172400     -0.3113600     -0.2560400     -0.2050800     -0.1975600    
 -0.2233600     -0.2266000     -0.1433200      0.5413999e-01  0.3300800    
  0.5969599      0.7470399      0.7049599      0.4625599      0.8491999e-01
 -0.3150000     -0.6163200     -0.7328000     -0.6427200     -0.3884800    
 -0.6371000e-01  0.2136000      0.3454400      0.2962400      0.1124800    
 -0.9392001e-01 -0.2085600     -0.1778800     -0.3139000e-01  0.1471200    
  0.2766399      0.3206000      0.2909600      0.2219200      0.1412000    
  0.6051999e-01 -0.1775000e-01 -0.9224001e-01 -0.1608000     -0.2233600    
 -0.2780000     -0.3123600     -0.3025200     -0.2261200     -0.8176000e-01
  0.9947999e-01  0.2645600      0.3622400      0.3710400      0.3032399    
  0.1913600      0.7370999e-01 -0.2303000e-01 -0.8972001e-01 -0.1346400    
 -0.1780800     -0.2374000     -0.3097600     -0.3668800     -0.3673600    
 -0.2844000     -0.1256000      0.6820999e-01  0.2384000      0.3368000    
  0.3475199      0.2867600      0.1894800      0.9227999e-01  0.1666000e-01
 -0.3467000e-01 -0.6937000e-01 -0.9268001e-01 -0.9856001e-01 -0.7431000e-01
 -0.7620000e-02  0.1071200      0.2577600      0.4025599      0.4751999    
  0.4068800      0.1715200     -0.1868800     -0.5566400     -0.8065600    
 -0.8531201     -0.6963201     -0.4100800     -0.9320000e-01  0.1750000    
  0.3585600      0.4552000      0.4719999      0.4158400      0.2964799    
  0.1306400     -0.4890000e-01 -0.2003600     -0.2834000     -0.2770800    
 -0.1874800     -0.4118000e-01  0.1280000      0.2882000      0.4052799    
  0.4420800      0.3649600      0.1692800     -0.1034000     -0.3641600    
 -0.5131201     -0.4955200     -0.3324800     -0.1118800      0.6153999e-01
  0.1285600      0.1019200      0.4562999e-01  0.2693000e-01  0.7547998e-01
  0.1731200      0.2726800      0.3255600      0.3024400      0.2035200    
  0.5694000e-01 -0.9424001e-01 -0.2105200     -0.2739600     -0.2923600    
 -0.2891600     -0.2816400     -0.2620000     -0.2019200     -0.8084001e-01
  0.8563998e-01  0.2461600      0.3388799      0.3313600      0.2384800    
  0.1115600      0.5050000e-02 -0.5972000e-01 -0.9944001e-01 -0.1449600    
 -0.2101600     -0.2783200     -0.3167200     -0.3048800     -0.2479600    
 -0.1655600     -0.7122001e-01  0.3398000e-01  0.1532800      0.2829199    
  0.4062400      0.5003200      0.5430399      0.5257599      0.4579200    
  0.3569599      0.2344000      0.8576000e-01 -0.9868000e-01 -0.3133200    
 -0.5212801     -0.6616000     -0.6856000     -0.5820800     -0.3833600    
 -0.1444000      0.7787000e-01  0.2418000      0.3222800      0.3122399    
  0.2273600      0.1058000     -0.4950000e-02 -0.6992000e-01 -0.8113000e-01
 -0.5597001e-01 -0.2040000e-01  0.9869998e-02  0.3619000e-01  0.6862000e-01
  0.1103600      0.1474000      0.1523600      0.1041200      0.6820000e-02
 -0.1084400     -0.1991200     -0.2348400     -0.2096400     -0.1417600    
 -0.6100000e-01  0.7040000e-02  0.5464000e-01  0.9175999e-01  0.1345600    
  0.1898000      0.2446000      0.2669200      0.2205600      0.8780000e-01
 -0.1145200     -0.3364800     -0.5131201     -0.5947200     -0.5640000    
 -0.4374400     -0.2479600     -0.2655000e-01  0.2067600      0.4335999    
  0.6294400      0.7593600      0.7918400      0.7108799      0.5252799    
  0.2701600     -0.4780000e-02 -0.2490800     -0.4283200     -0.5289600    
 -0.5572801     -0.5273601     -0.4566400     -0.3596800     -0.2448000    
 -0.1159200      0.2551000e-01  0.1703200      0.2973999      0.3748800    
  0.3772799      0.2981600      0.1584800      0.8699999e-03 -0.1295200    
 -0.2006000     -0.2030800     -0.1475200     -0.5600000e-01  0.4527000e-01
  0.1326000      0.1875600      0.1978800      0.1592400      0.7731000e-01
