  0.2499976      -3.614720       3.383039      -12345.00      0.2499975    
   199.8647       1600.101      -12345.00      -12345.00       2.000000    
  -12345.00      -12345.00      -12345.00      -12345.00      -12345.00    
  -12345.00      -12345.00      -12345.00      -12345.00      -12345.00    
  -12345.00      -12345.00      -12345.00      -12345.00      -12345.00    
  -12345.00      -12345.00      -12345.00      -12345.00      -12345.00    
  -12345.00       62.47971      -114.5917      -12345.00      -12345.00    
   40.30000      -127.0000             0.             0.      -12345.00    
  -12345.00      -12345.00      -12345.00      -12345.00      -12345.00    
  -12345.00      -12345.00      -12345.00      -12345.00      -12345.00    
   2603.720       14.53347       204.4047       23.43720      -12345.00    
  -12345.00     -0.1134908e-02         0.             0.      -12345.00    
  -12345.00      -12345.00      -12345.00      -12345.00      -12345.00    
  -12345.00      -12345.00      -12345.00      -12345.00      -12345.00    
      1984       254         3        14         7
         0         6         0         0      5602
    -12345    -12345    -12345    -12345    -12345
         1        50        11    -12345    -12345
    -12345    -12345        40    -12345    -12345
    -12345    -12345    -12345    -12345    -12345
    -12345    -12345    -12345    -12345    -12345
         1         0         1         1         0
RSNT    EUREKA          
-12345  -12345  -12345  
-12345  -12345  -12345  
-12345  -12345  -12345  
-12345  -12345  -12345  
-12345  -12345  -12345  
-12345  -12345  KM.Z    
RSTN-SAR10/12/84KS-36000
[...]
  0.5241599      0.6820799      0.8324800      0.9768000       1.109760    
   1.224640       1.320960       1.410560       1.478400       1.514240    
   1.515520       1.482240       1.414400       1.308160       1.171520    
  0.9998399      0.8008000      0.5716799      0.3159199      0.4025999e-01
 -0.2476800     -0.5384001     -0.8235201      -1.102080      -1.373440    
  -1.614080      -1.826560      -2.010880      -2.167040      -2.297600    
  -2.406400      -2.485760      -2.528000      -2.531840      -2.496000    
  -2.412800      -2.283520      -2.106880      -1.885440      -1.619200    
  -1.301440     -0.9518400     -0.5707201     -0.1625600      0.2623600    
  0.6878399       1.099200       1.482240       1.847040       2.184960    
   2.488320       2.752000       2.968320       3.129600       3.224319    
   3.247360       3.197440       3.086080       2.915840       2.689280    
   2.419199       2.106880       1.761280       1.384960      0.9836799    
  0.5431999      0.7884999e-01 -0.3956800     -0.8617600      -1.304480    
  -1.719040      -2.086400      -2.400000      -2.654720      -2.848000    
  -2.976000      -3.043840      -3.048960      -2.984960      -2.856960    
  -2.666240      -2.416640      -2.101760      -1.729280      -1.307200    
 -0.8718400     -0.4334400     -0.3400000e-02  0.4036800      0.7766399    
   1.106080       1.383680       1.617920       1.797120       1.916160    
   1.971200       1.967360       1.904640       1.783040       1.610240    
   1.397760       1.164000      0.8995199      0.6233599      0.3544000    
  0.1034000     -0.1292800     -0.3417600     -0.5291201     -0.6841600    
 -0.8011200     -0.8745600     -0.9028801     -0.8873601     -0.8299201    
 -0.7347200     -0.6060801     -0.4492800     -0.2726800     -0.8612001e-01
  0.1038800      0.2902800      0.4694400      0.6454400      0.8150399    
  0.9676799       1.094400       1.192160       1.255840       1.283680    
   1.279360       1.249760       1.200960       1.134560       1.050080    
  0.9457599      0.8214399      0.6766399      0.5070399      0.3077599    
  0.8012000e-01 -0.1635200     -0.4094400     -0.6486400     -0.8827200    
  -1.116000      -1.349120      -1.562880      -1.762560      -1.945600    
  -2.104320      -2.241280      -2.355200      -2.443520      -2.496000    
  -2.504960      -2.460160      -2.361600      -2.205440      -1.992960    
  -1.730560      -1.419520      -1.062400     -0.6819201     -0.2852000    
  0.1212400      0.5295999      0.9307200       1.312000       1.680640    
   2.026240       2.346240       2.630400       2.868480       3.054080    
   3.180799       3.233280       3.211520       3.110400       2.927360    
   2.666240       2.334720       1.944320       1.509120       1.046880    
  0.5556799      0.5514000e-01 -0.4427200     -0.9284800      -1.400320    
  -1.832960      -2.213120      -2.526720      -2.757120      -2.904320    
  -2.961920      -2.933760      -2.823680      -2.632960      -2.375680    
  -2.054400      -1.674240      -1.232640     -0.7560000     -0.2539600    
  0.2536399      0.7459199       1.204160       1.611520       1.968640    
   2.263040       2.496000       2.658560       2.746880       2.758399    
   2.703360       2.586880       2.408960       2.176000       1.903360    
   1.602560       1.280800      0.9303999      0.5555199      0.1608400    
 -0.2392800     -0.6276801     -0.9902400      -1.322240      -1.608960    
  -1.856000      -2.063360      -2.229760      -2.347520      -2.420480    
  -2.449920      -2.444800      -2.408960      -2.343680      -2.257920    
  -2.163200      -2.060800      -1.949440      -1.822720      -1.685760    
  -1.538560      -1.382400      -1.213120      -1.051520     -0.8862400    
 -0.7104000     -0.5216000     -0.3193200     -0.1070800      0.1152400    
  0.3500800      0.5982399      0.8507199       1.101280       1.341440    
   1.575680       1.798400       2.005760       2.199040       2.373120    
   2.520319       2.635520       2.725120       2.787840       2.826240    
   2.835200       2.819839       2.784000       2.726400       2.644480    
   2.529280       2.371840       2.168320       1.917440       1.624320    
   1.300000      0.9428799      0.5614399      0.1551200     -0.2745600    
 -0.7163200      -1.156320      -1.592320      -2.000640      -2.380800    
  -2.727680      -3.032320      -3.280640      -3.462400      -3.571200    
  -3.604480      -3.555840      -3.432960      -3.240960      -2.991360    
  -2.693120      -2.352640      -1.978880      -1.585920      -1.173120    
 -0.7609600     -0.3505600      0.4578000e-01  0.4091200      0.7278399    
  0.9961599       1.212960       1.370880       1.484800       1.553920    
   1.587200       1.593600       1.578240       1.543680       1.484800    
   1.400320       1.295360       1.163360       1.015040      0.8615999    
  0.7142400      0.5791999      0.4622400      0.3715200      0.3128000    
  0.2850800      0.2854000      0.3036399      0.3279999      0.3556800    
  0.3878400      0.4183999      0.4379200      0.4412799      0.4236799    
  0.3799999      0.3098000      0.2121200      0.8671999e-01 -0.6605001e-01
 -0.2434400     -0.4416000     -0.6540800     -0.8691200      -1.074400    
  -1.260000      -1.419520      -1.530880      -1.593600      -1.607680    
  -1.571840      -1.483520      -1.336320      -1.128000     -0.8780800    
 -0.5875200     -0.2648400      0.7926999e-01  0.4327999      0.7854400    
   1.123840       1.428480       1.693440       1.902080       2.044160    
   2.119680       2.120960       2.049280       1.913600       1.721600    
   1.479680       1.200000      0.8767999      0.5217599      0.1438400    
 -0.2453600     -0.6297600     -0.9936000      -1.329920      -1.610240    
  -1.831680      -1.989120      -2.088960      -2.129920      -2.105600    
  -2.017280      -1.872640      -1.680640      -1.445120      -1.169600    
 -0.8782400     -0.5676800     -0.2409200      0.8895999e-01  0.4096000    
  0.7094399      0.9747199       1.193440       1.350400       1.451520    
   1.495040       1.478400       1.405440       1.289920       1.139680    
  0.9678400      0.7839999      0.5990399      0.4148800      0.2314800    
  0.5150999e-01 -0.1178800     -0.2727600     -0.4092800     -0.5182401    
 -0.5944000     -0.6342400     -0.6393601     -0.6153600     -0.5622400    
 -0.4758400     -0.3596800     -0.2206000     -0.6185000e-01  0.1108400    
  0.2806399      0.4278399      0.5408000      0.6147199      0.6543999    
  0.6609600      0.6294400      0.5579200      0.4524800      0.3228800    
  0.1776800      0.2641000e-01 -0.1237200     -0.2663200     -0.3976000    
 -0.5144000     -0.6148801     -0.6921600     -0.7411201     -0.7638401    
 -0.7656001     -0.7472000     -0.7057600     -0.6433600     -0.5654401    
 -0.4769600     -0.3812800     -0.2837600     -0.1886400     -0.9284000e-01
  0.4029999e-02  0.9648000e-01  0.1806400      0.2517200      0.3057200    
  0.3432000      0.3656000      0.3680000      0.3507200      0.3179600    
  0.2713200      0.2154000      0.1566000      0.9747998e-01  0.3579000e-01
 -0.3280000e-01 -0.1092000     -0.1864000     -0.2532000     -0.2996400    
 -0.3180400     -0.3038800     -0.2602000     -0.1932800     -0.1027200    
  0.1245000e-01  0.1455200      0.2867600      0.4257600      0.5561600    
  0.6755199      0.7847999      0.8815999      0.9625599       1.024320    
   1.061440       1.069600       1.045280      0.9846399      0.8873600    
  0.7503999      0.5719999      0.3542399      0.1056000     -0.1684400    
 -0.4576000     -0.7480000      -1.030560      -1.295360      -1.536000    
  -1.730560      -1.877760      -1.976320      -2.022400      -2.005760    
  -1.925120      -1.776640      -1.565440      -1.294880     -0.9860801    
 -0.6404800     -0.2674800      0.1187200      0.5068799      0.8875200    
   1.250720       1.580800       1.875200       2.115839       2.298880    
   2.423040       2.489600       2.497280       2.446080       2.338560    
   2.173440       1.952000       1.671680       1.340160      0.9729599    
  0.5719999      0.1575600     -0.2585600     -0.6635201      -1.044320    
  -1.397760      -1.701120      -1.952000      -2.145280      -2.278400    
  -2.348800      -2.364160      -2.329600      -2.252800      -2.135040    
  -1.980160      -1.795840      -1.588480      -1.360640      -1.115840    
 -0.8755200     -0.6408000     -0.4180800     -0.2162400     -0.3842000e-01
  0.1190400      0.2601200      0.3864000      0.4988800      0.5968000    
  0.6819199      0.7540799      0.8145599      0.8667200      0.9128000    
  0.9540799      0.9966400       1.045600       1.100320       1.159360    
   1.222400       1.287680       1.347840       1.408000       1.460480    
   1.497600       1.511680       1.493760       1.438720       1.345280    
   1.219040       1.052480      0.8542399      0.6268799      0.3744000    
  0.1045600     -0.1763200     -0.4580800     -0.7252800     -0.9641601    
  -1.163040      -1.320960      -1.422080      -1.475840      -1.486080    
  -1.459200      -1.396480      -1.296160      -1.173280      -1.027360    
 -0.8689600     -0.7121600     -0.5708801     -0.4560000     -0.3772800    
 -0.3388800     -0.3392000     -0.3737600     -0.4316800     -0.4987200    
 -0.5627201     -0.6144000     -0.6475201     -0.6561600     -0.6331201    
 -0.5748800     -0.4859200     -0.3694400     -0.2244000     -0.5241000e-01
  0.1430800      0.3574399      0.5819199      0.8004799       1.002720    
   1.186720       1.342720       1.469440       1.553920       1.600000    
   1.614080       1.591040       1.528320       1.425920       1.285280    
   1.092800      0.8558400      0.5814400      0.2793599     -0.3812000e-01
 -0.3558400     -0.6587200     -0.9345601      -1.169120      -1.358080    
  -1.489920      -1.569280      -1.589760      -1.553920      -1.460480    
  -1.308640      -1.114720     -0.8795201     -0.6128000     -0.3268000    
 -0.3653000e-01  0.2484000      0.5206399      0.7728000      0.9939200    
   1.177760       1.317120       1.419520       1.473280       1.469440    
   1.405440       1.288480       1.114720      0.8977599      0.6507199    
  0.3880000      0.1247200     -0.1262000     -0.3542400     -0.5494400    
 -0.7067200     -0.8235201     -0.8969600     -0.9264001     -0.9184000    
 -0.8808000     -0.8228800     -0.7539201     -0.6790401     -0.5984000    
 -0.5132800     -0.4339200     -0.3712000     -0.3291200     -0.3066400    
 -0.3106800     -0.3480000     -0.4155200     -0.5051200     -0.6088001    
 -0.7195201     -0.8248000     -0.9064001     -0.9481601     -0.9406401    
 -0.8809600     -0.7694401     -0.6056000     -0.3886400     -0.1238800    
  0.1761600      0.4974400      0.8260800       1.149760       1.454080    
   1.740800       1.987840       2.191360       2.343680       2.439680    
   2.474240       2.437119       2.330880       2.152960       1.905920    
   1.596160       1.233120      0.8211199      0.3779200     -0.8680001e-01
 -0.5654401      -1.044000      -1.515520      -1.955840      -2.355200    
  -2.698240      -2.972160      -3.166720      -3.272960      -3.290880    
  -3.217920      -3.048960      -2.786560      -2.448640      -2.042880    
  -1.578240      -1.057440     -0.5100801      0.4939000e-01  0.6004800    
   1.128640       1.612800       2.050560       2.430720       2.736640    
   2.961920       3.096320       3.134720       3.079679       2.938879    
   2.722560       2.444800       2.110720       1.734400       1.332480    
  0.9212799      0.5079999      0.1090000     -0.2707600     -0.6270400    
 -0.9513600      -1.237760      -1.491200      -1.702400      -1.884160    
  -2.028800      -2.140160      -2.214400      -2.255360      -2.264320    
  -2.243840      -2.191360      -2.109440      -1.990400      -1.841920    
  -1.660160      -1.447680      -1.199360     -0.9332800     -0.6435200    
 -0.3288000      0.9519998e-02  0.3676800      0.7454399       1.138720    
   1.532160       1.925120       2.292480       2.625280       2.914560    
   3.143680       3.302400       3.383039       3.380480       3.298560    
   3.132160       2.877439       2.540800       2.127360       1.644800    
   1.110720      0.5319999     -0.6816001e-01 -0.6723200      -1.259360    
  -1.818880      -2.320640      -2.754560      -3.109120      -3.372800    
  -3.543040      -3.614720      -3.587840      -3.472640      -3.276800    
  -3.004160      -2.661120      -2.260480      -1.822720      -1.364480    
 -0.8910401     -0.4254400      0.2608000e-01  0.4494399      0.8371199    
   1.182080       1.473280       1.710080       1.884160       1.994240    
   2.042880       2.035200       1.982720       1.898240       1.792000    
   1.667840       1.532160       1.393920       1.263040       1.124480    
  0.9766399      0.8185599      0.6499199      0.4716800      0.2876400    
  0.9976000e-01 -0.8796000e-01 -0.2706400     -0.4470400     -0.6177601    
 -0.7835200     -0.9432000      -1.092960      -1.226720      -1.341440    
  -1.419520      -1.463040      -1.470720      -1.436160      -1.360640    
  -1.232320      -1.066560     -0.8633600     -0.6315200     -0.3747200    
 -0.1008000      0.1791200      0.4575999      0.7267200      0.9766399    
   1.199200       1.381120       1.523200       1.614080       1.655040    
   1.640960       1.573120       1.451520       1.284960       1.065920    
  0.8113599      0.5299200      0.2270400     -0.9116000e-01 -0.4140800    
 -0.7288001      -1.022720      -1.284480      -1.512960      -1.685760    
  -1.800960      -1.859840      -1.868800      -1.838080      -1.765120    
  -1.655040      -1.509120      -1.329920      -1.108800     -0.8620801    
 -0.5878401     -0.2930800      0.1127000e-01  0.3160800      0.6148800    
  0.9015999       1.166240       1.395200       1.588480       1.736960    
   1.844480       1.907200       1.921280       1.881600       1.790720    
   1.651200       1.470720       1.258720       1.015680      0.7592000    
  0.5030400      0.2588000      0.3152999e-01 -0.1720000     -0.3467200    
 -0.4915200     -0.6102401     -0.7040000     -0.7761600     -0.8324801    
 -0.8774401     -0.9124800     -0.9406401     -0.9667200     -0.9944000    
  -1.024640      -1.056480      -1.087840      -1.112960      -1.124640    
  -1.118400      -1.093760      -1.051840     -0.9932801     -0.9185600    
 -0.8251201     -0.7088001     -0.5670401     -0.4003200     -0.2076400    
  0.1045000e-01  0.2507200      0.5056000      0.7659199       1.019520    
   1.252000       1.443840       1.596160       1.701120       1.753600    
   1.747200       1.681920       1.557760       1.381120       1.162400    
  0.9007999      0.6147199      0.3215600      0.3434999e-01 -0.2356800    
 -0.4787200     -0.6859200     -0.8547200     -0.9857601      -1.083200    
  -1.151040      -1.192480      -1.207040      -1.193280      -1.155360    
  -1.098880      -1.023520     -0.9281601     -0.8158400     -0.6886400    
 -0.5481601     -0.3963200     -0.2329600     -0.5719000e-01  0.1299200    
  0.3253199      0.5257599      0.7300799      0.9345599       1.135200    
   1.322240       1.498880       1.651200       1.766400       1.832960    
   1.843200       1.790720       1.670400       1.484800       1.239360    
  0.9239999      0.5457599      0.1172800     -0.3459200     -0.8260801    
  -1.306400      -1.771520      -2.183680      -2.534400      -2.800640    
  -2.965760      -3.022080      -2.965760      -2.800640      -2.534400    
  -2.174720      -1.743360      -1.256160     -0.7507200     -0.2428800    
  0.2468400      0.7044799       1.120800       1.482240       1.788160    
   2.026240       2.193920       2.296319       2.333440       2.305280    
   2.214400       2.071040       1.884160       1.661440       1.414400    
   1.152160      0.8726399      0.5828799      0.2880400     -0.3660000e-02
 -0.2847200     -0.5488000     -0.7865601     -0.9912001      -1.158080    
  -1.282080      -1.367040      -1.402880      -1.393920      -1.341440    
  -1.242080      -1.113280     -0.9552001     -0.7755201     -0.5824001    
 -0.3851200     -0.1932400     -0.1654000e-01  0.1416000      0.2791200    
  0.3920000      0.4806399      0.5465599      0.5910399      0.6145599    
  0.6185600      0.6051199      0.5742400      0.5252799      0.4563200    
  0.3672000      0.2606400      0.1384000      0.4960000e-02 -0.1332800    
 -0.2665200     -0.3867200     -0.4856000     -0.5577600     -0.6017600    
 -0.6195201     -0.6134400     -0.5838400     -0.5304000     -0.4521600    
 -0.3481600     -0.2192000     -0.7019001e-01  0.9435999e-01  0.2674400    
  0.4372799      0.5966399      0.7390399      0.8576000      0.9476799    
   1.006240       1.028480       1.011680      0.9579200      0.8652799    
  0.7332799      0.5671999      0.3724800      0.1540000     -0.8292000e-01
 -0.3276000     -0.5697601     -0.7980801      -1.004160      -1.179360    
  -1.323520      -1.418240      -1.465600      -1.464320      -1.411840    
  -1.309120      -1.171680     -0.9968001     -0.7894400     -0.5520000    
 -0.2884000     -0.1023000e-01  0.2691600      0.5385599      0.7924799    
   1.024960       1.228960       1.393920       1.529600       1.625600    
   1.678080       1.683200       1.643520       1.557760       1.425920    
   1.256160       1.043200      0.7942399      0.5171199      0.2214000    
 -0.8964001e-01 -0.4108800     -0.7304001      -1.033440      -1.305920    
  -1.543680      -1.724160      -1.841920      -1.889280      -1.864960    
  -1.768960      -1.600000      -1.367040      -1.077280     -0.7563200    
 -0.4112000     -0.5682001e-01  0.2908000      0.6230400      0.9327999    
   1.206240       1.420800       1.568000       1.638400       1.633280    
