  0.2499976      -3.531520       3.648000      -12345.00      0.2499975    
   199.8647       1600.101      -12345.00      -12345.00       2.000000    
  -12345.00      -12345.00      -12345.00      -12345.00      -12345.00    
  -12345.00      -12345.00      -12345.00      -12345.00      -12345.00    
  -12345.00      -12345.00      -12345.00      -12345.00      -12345.00    
  -12345.00      -12345.00      -12345.00      -12345.00      -12345.00    
  -12345.00       62.47971      -114.5917      -12345.00      -12345.00    
   40.30000      -127.0000             0.             0.      -12345.00    
  -12345.00      -12345.00      -12345.00      -12345.00      -12345.00    
  -12345.00      -12345.00      -12345.00      -12345.00      -12345.00    
   2603.720       14.53347       204.4047       23.43720      -12345.00    
  -12345.00     -0.7274847e-03         0.       90.00000      -12345.00    
  -12345.00      -12345.00      -12345.00      -12345.00      -12345.00    
  -12345.00      -12345.00      -12345.00      -12345.00      -12345.00    
      1984       254         3        14         7
         0         6         0         0      5602
    -12345    -12345    -12345    -12345    -12345
         1        50        11    -12345    -12345
    -12345    -12345        40    -12345    -12345
    -12345    -12345    -12345    -12345    -12345
    -12345    -12345    -12345    -12345    -12345
         1         0         1         1         0
RSNT    EUREKA          
-12345  -12345  -12345  
-12345  -12345  -12345  
-12345  -12345  -12345  
-12345  -12345  -12345  
-12345  -12345  -12345  
-12345  -12345  KM.N    
RSTN-SAR10/12/84KS-36000
[...]
  -1.626880      -1.662720      -1.683200      -1.667840      -1.624320    
  -1.561600      -1.477120      -1.370880      -1.244480      -1.097440    
 -0.9320000     -0.7507200     -0.5553601     -0.3532800     -0.1521600    
  0.4399999e-01  0.2349200      0.4203200      0.5907199      0.7310399    
  0.8420799      0.9350399       1.013760       1.078240       1.123520    
   1.142880       1.140960       1.128800       1.112000       1.092480    
   1.073280       1.047200      0.9993600      0.9259199      0.8352000    
  0.7372799      0.6369599      0.5283200      0.4015999      0.2613600    
  0.1240800     -0.7600001e-03 -0.1230400     -0.2451200     -0.3473600    
 -0.4214400     -0.4822400     -0.5331200     -0.5628800     -0.5624001    
 -0.5176001     -0.4249600     -0.3162800     -0.2258800     -0.1541600    
 -0.9192000e-01 -0.4321000e-01 -0.1036000e-01  0.1568000e-01  0.3747000e-01
  0.4747999e-01  0.4514000e-01  0.3494000e-01  0.2210000e-01  0.2224000e-01
  0.3902999e-01  0.6043000e-01  0.8111998e-01  0.9651999e-01  0.1058000    
  0.1101600      0.1076800      0.1049200      0.1022000      0.9344000e-01
  0.8591999e-01  0.9167999e-01  0.1070800      0.1084000      0.7190999e-01
 -0.1110000e-02 -0.8736001e-01 -0.1681600     -0.2410400     -0.3100000    
 -0.3771200     -0.4307200     -0.4529600     -0.4433600     -0.4120000    
 -0.3668800     -0.3188800     -0.2816000     -0.2620400     -0.2485600    
 -0.2188000     -0.1649200     -0.9440000e-01 -0.6790000e-02  0.9935999e-01
  0.2171200      0.3395200      0.4633600      0.5836799      0.6948799    
  0.7857599      0.8537599      0.9052799      0.9326400      0.9337599    
  0.9238399      0.9059199      0.8686399      0.8126400      0.7409599    
  0.6537600      0.5508800      0.4281600      0.2895600      0.1535200    
  0.2981000e-01 -0.8640000e-01 -0.1998800     -0.3154000     -0.4326400    
 -0.5356801     -0.6041601     -0.6230401     -0.5913601     -0.5238401    
 -0.4404800     -0.3580800     -0.2782000     -0.1942800     -0.1092800    
 -0.3218000e-01  0.3606000e-01  0.9803998e-01  0.1584000      0.2240000    
  0.2905599      0.3419200      0.3596799      0.3350400      0.2872000    
  0.2307600      0.1606800      0.9143999e-01  0.3869999e-01 -0.9380002e-02
 -0.5284000e-01 -0.8400001e-01 -0.1197600     -0.1782800     -0.2561200    
 -0.3446400     -0.4388800     -0.5348800     -0.6326400     -0.7198400    
 -0.7739201     -0.7961600     -0.8048000     -0.8049600     -0.7880000    
 -0.7464000     -0.6857600     -0.6185601     -0.5496000     -0.4820800    
 -0.4243200     -0.3779200     -0.3380800     -0.2953200     -0.2363200    
 -0.1649200     -0.9872000e-01 -0.4325000e-01  0.1050000e-02  0.3040000e-01
  0.4302999e-01  0.4753999e-01  0.5759999e-01  0.7433999e-01  0.9127998e-01
  0.1055200      0.1148000      0.1177200      0.1111200      0.9079999e-01
  0.6580999e-01  0.5202000e-01  0.5079000e-01  0.5109999e-01  0.4776999e-01
  0.4701000e-01  0.5394000e-01  0.6558999e-01  0.7958999e-01  0.1041200    
  0.1492400      0.2141200      0.2990400      0.4064000      0.5243199    
  0.6342399      0.7283199      0.8017600      0.8486400      0.8619199    
  0.8327999      0.7590399      0.6471999      0.5065600      0.3491200    
  0.1848000      0.2012000e-01 -0.1428800     -0.3037601     -0.4508800    
 -0.5716801     -0.6617601     -0.7112000     -0.7160001     -0.6846401    
 -0.6219200     -0.5371201     -0.4476800     -0.3609600     -0.2770800    
 -0.2006800     -0.1373200     -0.8540000e-01 -0.3454001e-01  0.2461000e-01
  0.8735999e-01  0.1461200      0.2030400      0.2597200      0.3125200    
  0.3593600      0.3916799      0.3923200      0.3625600      0.3166800    
  0.2616400      0.2067200      0.1621600      0.1352800      0.1353600    
  0.1615600      0.1977600      0.2252000      0.2290400      0.2092000    
  0.1872800      0.1754400      0.1568800      0.1229600      0.8775999e-01
  0.5740999e-01  0.2869000e-01 -0.1020000e-02 -0.3584000e-01 -0.7424000e-01
 -0.1008800     -0.9604001e-01 -0.6161001e-01 -0.1352000e-01  0.4826999e-01
  0.1263200      0.2075200      0.2851599      0.3649600      0.4532800    
  0.5510399      0.6495999      0.7319999      0.7947199      0.8534399    
  0.9089599      0.9441599      0.9575999      0.9571199      0.9523199    
  0.9606400      0.9937599       1.039520       1.078080       1.103040    
   1.118560       1.125120       1.111200       1.064480      0.9857600    
  0.8835199      0.7639999      0.6278399      0.4673600      0.2877200    
  0.1050400     -0.8304000e-01 -0.2822400     -0.4852800     -0.6929600    
 -0.9062400      -1.111360      -1.294080      -1.438720      -1.530880    
  -1.578240      -1.589760      -1.576960      -1.553920      -1.527040    
  -1.496320      -1.456640      -1.393920      -1.323520      -1.257280    
  -1.187040      -1.095680     -0.9798400     -0.8392000     -0.6875200    
 -0.5374401     -0.3865600     -0.2334000     -0.7932000e-01  0.7363999e-01
  0.2175200      0.3435200      0.4471999      0.5275199      0.5862399    
  0.6196799      0.6351999      0.6449599      0.6375999      0.5910399    
  0.4969600      0.3622400      0.2011200      0.2402000e-01 -0.1640400    
 -0.3507200     -0.5257601     -0.6921600     -0.8507200     -0.9985601    
  -1.132480      -1.238080      -1.303840      -1.331200      -1.308640    
  -1.235360      -1.124800      -1.006400     -0.8953600     -0.7880000    
 -0.6836801     -0.5918400     -0.5123200     -0.4382400     -0.3646400    
 -0.2805600     -0.1725200     -0.4364000e-01  0.8487999e-01  0.1922000    
  0.2668800      0.3056400      0.3128000      0.2989200      0.2758800    
  0.2495600      0.2221600      0.1961200      0.1603600      0.9835999e-01
  0.1667000e-01 -0.6683001e-01 -0.1532800     -0.2498800     -0.3390400    
 -0.4032000     -0.4531200     -0.5016000     -0.5536001     -0.5984000    
 -0.6118400     -0.5894400     -0.5361600     -0.4398400     -0.3036400    
 -0.1638400     -0.4019000e-01  0.8063999e-01  0.2030400      0.3191200    
  0.4355199      0.5604799      0.6755199      0.7631999      0.8348799    
  0.9038399      0.9579200      0.9934399       1.024320       1.056320    
   1.085600       1.109120       1.118720       1.100640       1.051520    
  0.9827199      0.9068799      0.8432000      0.8046399      0.7800000    
  0.7599999      0.7567999      0.7731199      0.7959999      0.8139199    
  0.8224000      0.8275199      0.8382399      0.8535999      0.8686399    
  0.8753599      0.8670399      0.8470399      0.8241599      0.8087999    
  0.8119999      0.8296000      0.8380799      0.8252800      0.7959999    
  0.7551999      0.7135999      0.6732799      0.6201600      0.5596800    
  0.5103999      0.4704000      0.4388800      0.4263999      0.4273599    
  0.4300799      0.4393600      0.4643199      0.5014399      0.5449599    
  0.5916799      0.6337600      0.6670399      0.6969600      0.7270399    
  0.7451199      0.7305599      0.6758399      0.5863999      0.4667200    
  0.3279999      0.1787200      0.1414000e-01 -0.1665200     -0.3601600    
 -0.5683200     -0.7940800      -1.032320      -1.271840      -1.506560    
  -1.715200      -1.882880      -2.005760      -2.087680      -2.133760    
  -2.149120      -2.145280      -2.114560      -2.049280      -1.950720    
  -1.822720      -1.679360      -1.532160      -1.390080      -1.259680    
  -1.156960      -1.080320      -1.014400     -0.9547200     -0.9025600    
 -0.8497601     -0.7924800     -0.7425600     -0.7059201     -0.6776000    
 -0.6614400     -0.6600001     -0.6665601     -0.6678400     -0.6556801    
 -0.6388800     -0.6222401     -0.5993600     -0.5676800     -0.5276800    
 -0.4763200     -0.4120000     -0.3374400     -0.2555200     -0.1698800    
 -0.7933001e-01  0.2612000e-01  0.1495600      0.2702799      0.3672000    
  0.4425600      0.5035199      0.5564799      0.6078399      0.6575999    
  0.6991999      0.7217599      0.7126399      0.6681600      0.6078399    
  0.5548799      0.5091199      0.4632000      0.4211200      0.3812799    
  0.3404800      0.3013200      0.2534400      0.1917200      0.1303200    
  0.7902999e-01  0.3626999e-01 -0.2730000e-02 -0.4032000e-01 -0.6333001e-01
 -0.5826000e-01 -0.3660000e-01 -0.1380000e-01  0.7749999e-02  0.2681000e-01
  0.4770000e-01  0.7745999e-01  0.1113600      0.1440800      0.1829200    
  0.2329600      0.2904000      0.3564799      0.4327999      0.5153599    
  0.6025599      0.6828799      0.7427199      0.7831999      0.8187199    
  0.8603200      0.9047999      0.9395199      0.9564799      0.9596800    
  0.9561599      0.9398400      0.8982400      0.8302399      0.7403200    
  0.6340799      0.5225599      0.4155200      0.3157600      0.2198400    
  0.1200000      0.9439999e-02 -0.1099200     -0.2369200     -0.3814400    
 -0.5420800     -0.7048000     -0.8588800     -0.9873600      -1.079360    
  -1.145760      -1.198880      -1.232960      -1.235040      -1.205440    
  -1.154720      -1.087360      -1.001760     -0.9001601     -0.7862400    
 -0.6691201     -0.5622400     -0.4673600     -0.3774400     -0.2830800    
 -0.1847600     -0.8840001e-01  0.1339000e-01  0.1251200      0.2373200    
  0.3451200      0.4488000      0.5433599      0.6366400      0.7385600    
  0.8446399      0.9476799       1.059360       1.191040       1.331200    
   1.470720       1.596160       1.698560       1.779200       1.834240    
   1.845760       1.802240       1.713920       1.594880       1.451520    
   1.298720       1.139040      0.9830400      0.8348799      0.6932800    
  0.5503999      0.4046400      0.2601200      0.1168400     -0.2222000e-01
 -0.1478000     -0.2525200     -0.3409600     -0.4201600     -0.4854400    
 -0.5291201     -0.5571201     -0.5803200     -0.6064000     -0.6438401    
 -0.7000000     -0.7798400     -0.8824000      -1.000000      -1.123840    
  -1.251520      -1.392640      -1.543680      -1.688320      -1.813760    
  -1.917440      -1.990400      -2.026240      -2.028800      -2.013440    
  -1.977600      -1.927680      -1.853440      -1.752320      -1.621760    
  -1.461760      -1.260320      -1.023040     -0.7606400     -0.4841600    
 -0.2050400      0.6360999e-01  0.3223200      0.5787200      0.8337599    
   1.078080       1.301280       1.495040       1.667840       1.822720    
   1.945600       2.026240       2.064640       2.055680       2.005760    
   1.930240       1.829120       1.703680       1.566720       1.419520    
   1.256640       1.061280      0.8432000      0.6100799      0.3651199    
  0.1149600     -0.1382000     -0.3990400     -0.6662401     -0.9318401    
  -1.189440      -1.438720      -1.671680      -1.882880      -2.062080    
  -2.209280      -2.310400      -2.365440      -2.371840      -2.328320    
  -2.241280      -2.123520      -1.982720      -1.825280      -1.651200    
  -1.460480      -1.246400      -1.000800     -0.7145600     -0.3968000    
 -0.6290001e-01  0.2755600      0.6107199      0.9390399       1.263840    
   1.578240       1.872640       2.138880       2.375679       2.581760    
   2.753280       2.882560       2.955520       2.973440       2.949120    
   2.883840       2.778880       2.649600       2.497280       2.311680    
   2.097920       1.864960       1.619200       1.354240       1.066240    
  0.7510399      0.4172800      0.7201000e-01 -0.2786800     -0.6256001    
 -0.9625601      -1.281120      -1.570560      -1.825280      -2.056960    
  -2.261760      -2.423040      -2.530560      -2.571520      -2.545920    
  -2.452480      -2.297600      -2.096640      -1.856000      -1.587200    
  -1.304800      -1.016480     -0.7075200     -0.3652800      0.2060000e-02
  0.3744000      0.7371199       1.077760       1.379840       1.637120    
   1.845760       2.010880       2.128640       2.196480       2.210560    
   2.163200       2.040320       1.848320       1.592320       1.284480    
  0.9233599      0.5244800      0.9896000e-01 -0.3492800     -0.8096000    
  -1.267040      -1.711360      -2.123520      -2.497280      -2.819840    
  -3.087360      -3.298560      -3.447040      -3.526400      -3.531520    
  -3.458560      -3.310080      -3.102720      -2.837760      -2.508800    
  -2.124800      -1.701120      -1.243520     -0.7529601     -0.2285600    
  0.3227200      0.8799999       1.413120       1.911040       2.370560    
   2.778880       3.116800       3.367680       3.539200       3.633920    
   3.648000       3.573760       3.411200       3.168000       2.856960    
   2.498559       2.099200       1.665280       1.208160      0.7304000    
  0.2457200     -0.2319200     -0.6864001      -1.107680      -1.493760    
  -1.836800      -2.124800      -2.346240      -2.492160      -2.558720    
  -2.543360      -2.451200      -2.293760      -2.077440      -1.808640    
  -1.482240      -1.104800     -0.6892800     -0.2449600      0.2177600    
  0.6860800       1.142720       1.561600       1.936640       2.259200    
   2.530560       2.748160       2.908160       3.005440       3.038720    
   2.996480       2.872320       2.676480       2.421760       2.106880    
   1.735680       1.320960      0.8857599      0.4371200     -0.5040000e-02
 -0.4326400     -0.8457600      -1.236960      -1.596160      -1.917440    
  -2.201600      -2.442240      -2.636800      -2.792960      -2.913280    
  -2.991360      -3.014400      -2.986240      -2.910720      -2.792960    
  -2.632960      -2.432000      -2.184960      -1.898240      -1.579520    
  -1.244160     -0.9056001     -0.5731200     -0.2555200      0.4093999e-01
  0.3128800      0.5545599      0.7611200      0.9281600       1.052640    
   1.135040       1.174560       1.179840       1.165600       1.137120    
   1.094080       1.046080       1.002720      0.9649599      0.9311999    
  0.9052799      0.9003199      0.9238399      0.9671999       1.014720    
   1.058240       1.095840       1.132640       1.168320       1.195840    
   1.210880       1.213280       1.194880       1.143200       1.054240    
  0.9283199      0.7638400      0.5663999      0.3467200      0.1164400    
 -0.1182400     -0.3496000     -0.5723201     -0.7827201     -0.9748800    
  -1.143200      -1.286080      -1.401600      -1.483520      -1.530880    
  -1.548800      -1.536000      -1.493760      -1.418240      -1.307200    
  -1.165920     -0.9923201     -0.7908801     -0.5721600     -0.3428800    
 -0.1040400      0.1443600      0.4008000      0.6580800      0.9025599    
   1.117920       1.295680       1.431040       1.528320       1.583360    
   1.591040       1.551360       1.468160       1.341440       1.168640    
  0.9399999      0.6641599      0.3478400      0.5120000e-02 -0.3448000    
 -0.6870401      -1.013120      -1.310240      -1.568000      -1.777920    
  -1.935360      -2.036480      -2.086400      -2.092800      -2.051840    
  -1.955840      -1.799680      -1.584640      -1.313280     -0.9886401    
 -0.6273600     -0.2386000      0.1662000      0.5783999      0.9915199    
   1.391360       1.767680       2.099200       2.371840       2.574080    
   2.698240       2.739200       2.691840       2.565120       2.368000    
   2.106880       1.792000       1.433600       1.036000      0.6033599    
  0.1533200     -0.2956000     -0.7275200      -1.131840      -1.500160    
  -1.817600      -2.073600      -2.270720      -2.408960      -2.479360    
  -2.484480      -2.426880      -2.307840      -2.133760      -1.909760    
  -1.640960      -1.335040      -1.003200     -0.6600001     -0.3088800    
  0.4346000e-01  0.3820800      0.6966399      0.9811199       1.226080    
   1.425920       1.588480       1.706240       1.776640       1.802240    
   1.780480       1.711360       1.602560       1.456640       1.284480    
   1.084640      0.8726399      0.6583999      0.4476799      0.2359600    
  0.2204000e-01 -0.1822000     -0.3625600     -0.5144000     -0.6390400    
 -0.7334400     -0.7936001     -0.8168000     -0.8020800     -0.7516800    
 -0.6713600     -0.5712000     -0.4590400     -0.3369600     -0.2060000    
 -0.7069001e-01  0.6224000e-01  0.1861600      0.2921200      0.3723199    
  0.4233599      0.4422399      0.4272000      0.3747200      0.2830000    
  0.1594400      0.1666000e-01 -0.1424400     -0.3178800     -0.5030401    
 -0.6891201     -0.8668801      -1.018720      -1.126880      -1.183520    
  -1.191680      -1.157120      -1.080480     -0.9625601     -0.8088000    
 -0.6318400     -0.4417600     -0.2469200     -0.5431000e-01  0.1299600    
  0.3000799      0.4481599      0.5647999      0.6399999      0.6703999    
  0.6636800      0.6294400      0.5747199      0.5097599      0.4431999    
  0.3712000      0.2872400      0.1926000      0.9615999e-01  0.2760000e-02
 -0.8504000e-01 -0.1596000     -0.2088400     -0.2266400     -0.2154400    
 -0.1786000     -0.1228800     -0.5880000e-01  0.1135000e-01  0.9731999e-01
  0.2078800      0.3447999      0.5044799      0.6758399      0.8479999    
   1.010880       1.156160       1.278720       1.369600       1.428480    
   1.447680       1.418240       1.340160       1.221920       1.068480    
  0.8868799      0.6771200      0.4430400      0.1888400     -0.8368000e-01
 -0.3700800     -0.6664001     -0.9678401      -1.257440      -1.516800    
  -1.722880      -1.866240      -1.946880      -1.957120      -1.894400    
  -1.768960      -1.596160      -1.383680      -1.141440     -0.8763200    
 -0.5921600     -0.3029200     -0.2459000e-01  0.2345200      0.4660800    
  0.6596799      0.8115199      0.9263999       1.007680       1.048800    
   1.040160      0.9833599      0.8894399      0.7635199      0.6023999    
  0.4038399      0.1766800     -0.6572001e-01 -0.3055600     -0.5284801    
 -0.7289600     -0.9041600      -1.050880      -1.174880      -1.277120    
  -1.346560      -1.369600      -1.346560      -1.287360      -1.197760    
