  0.2499976      -5.139200       5.341439      -12345.00      0.2499975    
   199.8647       1600.101      -12345.00      -12345.00       2.000000    
  -12345.00      -12345.00      -12345.00      -12345.00      -12345.00    
  -12345.00      -12345.00      -12345.00      -12345.00      -12345.00    
  -12345.00      -12345.00      -12345.00      -12345.00      -12345.00    
  -12345.00      -12345.00      -12345.00      -12345.00      -12345.00    
  -12345.00       62.47971      -114.5917      -12345.00      -12345.00    
   40.30000      -127.0000             0.             0.      -12345.00    
  -12345.00      -12345.00      -12345.00      -12345.00      -12345.00    
  -12345.00      -12345.00      -12345.00      -12345.00      -12345.00    
   2603.720       14.53347       204.4047       23.43720      -12345.00    
  -12345.00     -0.2466973e-02   90.00000       90.00000      -12345.00    
  -12345.00      -12345.00      -12345.00      -12345.00      -12345.00    
  -12345.00      -12345.00      -12345.00      -12345.00      -12345.00    
      1984       254         3        14         7
         0         6         0         0      5602
    -12345    -12345    -12345    -12345    -12345
         1        50        11    -12345    -12345
    -12345    -12345        40    -12345    -12345
    -12345    -12345    -12345    -12345    -12345
    -12345    -12345    -12345    -12345    -12345
         1         0         1         1         0
RSNT    EUREKA          
-12345  -12345  -12345  
-12345  -12345  -12345  
-12345  -12345  -12345  
-12345  -12345  -12345  
-12345  -12345  -12345  
-12345  -12345  KM.E    
RSTN-SAR10/12/84KS-36000
[...]
 -0.5072000e-01 -0.4027000e-01 -0.1199000e-01 -0.1549000e-01 -0.6330000e-01
 -0.1379200     -0.2050400     -0.2306400     -0.2082400     -0.1572000    
 -0.1018400     -0.7000001e-01 -0.5365000e-01 -0.2211000e-01  0.1153000e-01
  0.3528000e-01  0.6306998e-01  0.8183999e-01  0.7034999e-01  0.4410999e-01
  0.2696000e-01  0.2887000e-01  0.5876999e-01  0.1027200      0.1440400    
  0.1612400      0.1181200      0.4595000e-01  0.6139999e-02 -0.3043000e-01
 -0.7466000e-01 -0.6649001e-01 -0.3072000e-01 -0.7520000e-02  0.2941000e-01
  0.5214000e-01  0.1322000e-01 -0.4674000e-01 -0.8912000e-01 -0.1286000    
 -0.1588000     -0.1583600     -0.1451200     -0.1252000     -0.7584001e-01
 -0.2979000e-01 -0.2933000e-01 -0.3114000e-01  0.6499999e-02  0.5586000e-01
  0.8243999e-01  0.6965999e-01  0.2718000e-01  0.4960000e-02  0.2986000e-01
  0.9191999e-01  0.1660000      0.1956400      0.1735600      0.1562800    
  0.1300000      0.7114999e-01  0.2789000e-01 -0.1321000e-01 -0.8980000e-01
 -0.1500800     -0.1706400     -0.1826800     -0.1881600     -0.1700400    
 -0.1288800     -0.8964001e-01 -0.7117000e-01 -0.6138000e-01 -0.3329001e-01
  0.1056000e-01  0.3162999e-01  0.8989999e-02 -0.2694000e-01 -0.3854001e-01
 -0.1637000e-01  0.3038000e-01  0.7531999e-01  0.8875999e-01  0.7419999e-01
  0.6278999e-01  0.5294999e-01  0.9049999e-02 -0.3964000e-01 -0.4064000e-01
 -0.3083000e-01 -0.4088000e-01 -0.3800000e-01 -0.3482001e-01 -0.5374000e-01
 -0.7346001e-01 -0.8476001e-01 -0.7841000e-01 -0.5007000e-01 -0.7240000e-02
  0.5915000e-01  0.1324400      0.1752000      0.1921600      0.1910000    
  0.1676800      0.1283600      0.6814998e-01  0.2039000e-01  0.3585999e-01
  0.7658999e-01  0.9604000e-01  0.1236800      0.1594800      0.1556800    
  0.1100800      0.4198000e-01 -0.5516000e-01 -0.1528800     -0.2054800    
 -0.2284800     -0.2296400     -0.1928800     -0.1510400     -0.1362800    
 -0.1520800     -0.1864000     -0.1924400     -0.1444800     -0.7717000e-01
 -0.2183000e-01  0.1938000e-01  0.3461000e-01  0.2240000e-01  0.1087000e-01
  0.2860000e-01  0.7755999e-01  0.1274400      0.1448800      0.1244400    
  0.1004800      0.1090800      0.1329200      0.1540000      0.1828800    
  0.1982400      0.1737200      0.1024400     -0.6330000e-02 -0.1000000    
 -0.1362400     -0.1317200     -0.1148400     -0.1059200     -0.1241200    
 -0.1638400     -0.1940000     -0.1939200     -0.1566000     -0.8840001e-01
 -0.3197000e-01 -0.1046000e-01  0.1382000e-01  0.4815000e-01  0.5618999e-01
  0.4548000e-01  0.4770999e-01  0.5144999e-01  0.4957999e-01  0.6240000e-01
  0.6953000e-01  0.6068999e-01  0.8663999e-01  0.1434000      0.1679200    
  0.1591200      0.1432800      0.1044800      0.3434999e-01 -0.4049000e-01
 -0.9372000e-01 -0.1182800     -0.1125600     -0.7866001e-01 -0.3961001e-01
 -0.4720001e-02  0.2438000e-01  0.1516000e-01 -0.3261000e-01 -0.6289001e-01
 -0.3604000e-01  0.3436000e-01  0.9739999e-01  0.1289600      0.1438400    
  0.1340400      0.8811998e-01  0.3168000e-01 -0.2060000e-01 -0.7823001e-01
 -0.1297200     -0.1520800     -0.1400000     -0.1035200     -0.6162000e-01
 -0.3810000e-01 -0.5554000e-01 -0.1026800     -0.1246000     -0.1022400    
 -0.8712001e-01 -0.1075200     -0.1272800     -0.1183600     -0.7062000e-01
  0.9109998e-02  0.7450999e-01  0.9543999e-01  0.9604000e-01  0.9115998e-01
  0.8231999e-01  0.8511999e-01  0.9344000e-01  0.9079999e-01  0.7566999e-01
  0.3884000e-01  0.7660000e-02  0.2642000e-01  0.5766000e-01  0.6238999e-01
  0.6965999e-01  0.8115000e-01  0.7134999e-01  0.4957999e-01  0.3658000e-01
  0.2916000e-01  0.7749999e-02 -0.3045000e-01 -0.6283000e-01 -0.7151000e-01
 -0.5592000e-01 -0.2978000e-01 -0.1228000e-01 -0.2520000e-02  0.1456000e-01
  0.4510999e-01  0.8287999e-01  0.1116400      0.1181200      0.9463999e-01
  0.4409000e-01 -0.9800000e-03 -0.1871000e-01 -0.2586000e-01 -0.3459001e-01
 -0.4883000e-01 -0.6739001e-01 -0.7597001e-01 -0.7615000e-01 -0.8532001e-01
 -0.1014800     -0.1066000     -0.8872001e-01 -0.6138000e-01 -0.5576000e-01
 -0.7707001e-01 -0.1057200     -0.1202400     -0.1086000     -0.8516000e-01
 -0.6391001e-01 -0.4090000e-01 -0.2412000e-01 -0.1762000e-01 -0.9860002e-02
  0.2130000e-02  0.2069000e-01  0.5255999e-01  0.8195999e-01  0.9011999e-01
  0.1094000      0.1674800      0.2156000      0.2057200      0.1548400    
  0.1014000      0.6762999e-01  0.6158999e-01  0.6896999e-01  0.5467000e-01
  0.1402000e-01 -0.2605000e-01 -0.6901000e-01 -0.1144000     -0.1184400    
 -0.8004001e-01 -0.5657000e-01 -0.6924000e-01 -0.9176001e-01 -0.1034400    
 -0.1034400     -0.8636001e-01 -0.4240000e-01  0.1217000e-01  0.4859000e-01
  0.6034999e-01  0.5975000e-01  0.5569000e-01  0.5441000e-01  0.5809999e-01
  0.5814999e-01  0.5435000e-01  0.4945000e-01  0.3987999e-01  0.3653000e-01
  0.5375999e-01  0.8122998e-01  0.9415999e-01  0.7140999e-01  0.7099999e-02
 -0.6400001e-01 -0.1021200     -0.1022000     -0.6642000e-01 -0.3180000e-02
  0.4386000e-01  0.3400999e-01 -0.2633000e-01 -0.9736000e-01 -0.1310800    
 -0.1092000     -0.4929000e-01  0.1033000e-01  0.3636000e-01  0.2701000e-01
  0.1190000e-02 -0.1255000e-01 -0.7200000e-03  0.1973000e-01  0.5255000e-01
  0.1027600      0.1311600      0.1220400      0.1028400      0.7554999e-01
  0.2603000e-01 -0.2104000e-01 -0.3286000e-01 -0.1667000e-01  0.1240000e-02
  0.1151000e-01  0.1575000e-01  0.1538000e-01  0.9349998e-02 -0.7930001e-02
 -0.4173000e-01 -0.9592001e-01 -0.1646800     -0.2277200     -0.2617200    
 -0.2570000     -0.2162800     -0.1487200     -0.7449001e-01 -0.1957000e-01
  0.9759998e-02  0.2520000e-01  0.3126000e-01  0.1839000e-01 -0.3370000e-02
  0.6899999e-03  0.3332999e-01  0.6537999e-01  0.9491999e-01  0.1288400    
  0.1482000      0.1416000      0.1292400      0.1258400      0.1100800    
  0.7373999e-01  0.4074000e-01  0.1700000e-01  0.5259999e-02  0.1444000e-01
  0.1981000e-01  0.7629999e-02  0.2280000e-02  0.1758000e-01  0.3778999e-01
  0.3613999e-01  0.1276000e-01 -0.8640001e-02 -0.3007000e-01 -0.5731000e-01
 -0.6931001e-01 -0.5776000e-01 -0.3493001e-01 -0.6510001e-02  0.2467000e-01
  0.5567999e-01  0.8795999e-01  0.1101600      0.1013600      0.6519999e-01
  0.2284000e-01 -0.2616000e-01 -0.8668001e-01 -0.1368400     -0.1536400    
 -0.1366400     -0.1083600     -0.8508001e-01 -0.5434000e-01 -0.1071000e-01
  0.1918000e-01  0.1780000e-01 -0.1310000e-02 -0.2189000e-01 -0.2559000e-01
 -0.1179000e-01 -0.1472000e-01 -0.3400000e-01 -0.3702001e-01 -0.2997000e-01
 -0.3410000e-01 -0.4655001e-01 -0.5898000e-01 -0.6897001e-01 -0.6423001e-01
 -0.3569000e-01 -0.3870000e-02  0.1975000e-01  0.5571000e-01  0.1058400    
  0.1377200      0.1278400      0.8727999e-01  0.4374000e-01  0.1712000e-01
  0.9039998e-02  0.9149998e-02  0.4229999e-02 -0.1148000e-01 -0.1855000e-01
 -0.3410000e-02  0.7529999e-02 -0.5660000e-02 -0.2132000e-01 -0.2175000e-01
 -0.1175000e-01  0.3969999e-02  0.1973000e-01  0.3296000e-01  0.5057000e-01
  0.6137999e-01  0.3134000e-01 -0.3608000e-01 -0.9588000e-01 -0.1237200    
 -0.1234000     -0.9968001e-01 -0.5344000e-01  0.1010000e-01  0.6432000e-01
  0.7844999e-01  0.5187000e-01  0.9930000e-02 -0.1530000e-01 -0.1407000e-01
 -0.1200000e-02  0.2125000e-01  0.5911999e-01  0.9103999e-01  0.1025600    
  0.1132000      0.1284800      0.1316000      0.1141600      0.8600000e-01
  0.5729000e-01  0.2242000e-01 -0.1521000e-01 -0.5046000e-01 -0.7559000e-01
 -0.6915000e-01 -0.4498000e-01 -0.3451000e-01 -0.3402000e-01 -0.3837001e-01
 -0.5025000e-01 -0.5900000e-01 -0.6077000e-01 -0.6982000e-01 -0.9456001e-01
 -0.1228000     -0.1349600     -0.1298800     -0.1206400     -0.9668000e-01
 -0.3733000e-01  0.4510999e-01  0.1083200      0.1292400      0.1215600    
  0.9179999e-01  0.4550000e-01  0.3460000e-02 -0.3006000e-01 -0.5287001e-01
 -0.4308000e-01  0.7000000e-03  0.4003999e-01  0.4229999e-01  0.1667000e-01
 -0.9440001e-02 -0.2013000e-01 -0.1866000e-01 -0.1800000e-01 -0.1635000e-01
 -0.2230000e-02  0.2385000e-01  0.4532000e-01  0.3985000e-01  0.6219999e-02
 -0.2568000e-01 -0.3059000e-01 -0.1356000e-01  0.4639999e-02  0.1203000e-01
  0.1431000e-01  0.7499999e-02 -0.1306000e-01 -0.1615000e-01  0.2458000e-01
  0.8668000e-01  0.1262400      0.1217600      0.9259999e-01  0.6169000e-01
  0.2900000e-01 -0.8260000e-02 -0.4073000e-01 -0.5014000e-01 -0.3181000e-01
 -0.5770001e-02 -0.2240000e-02 -0.2805000e-01 -0.5533000e-01 -0.5961000e-01
 -0.4801000e-01 -0.4785001e-01 -0.6964001e-01 -0.8764000e-01 -0.7900001e-01
 -0.5594000e-01 -0.3146000e-01 -0.7130001e-02  0.1066000e-01  0.2326000e-01
  0.4413000e-01  0.6689999e-01  0.7680999e-01  0.7536998e-01  0.6353000e-01
  0.3675000e-01 -0.1860000e-02 -0.3097000e-01 -0.2389000e-01  0.1972000e-01
  0.8192000e-01  0.1374000      0.1568800      0.1453200      0.1285600    
  0.1123200      0.9480000e-01  0.8004999e-01  0.7459000e-01  0.8607998e-01
  0.9743999e-01  0.7336999e-01  0.1417000e-01 -0.4408000e-01 -0.8748001e-01
 -0.1321600     -0.1816000     -0.2186800     -0.2254000     -0.1921600    
 -0.1397200     -0.1081600     -0.1083200     -0.1180400     -0.1201200    
 -0.1085200     -0.7112001e-01 -0.6500001e-03  0.7954998e-01  0.1184800    
  0.9707999e-01  0.5284999e-01  0.1230000e-01 -0.2345000e-01 -0.3396000e-01
 -0.8620001e-02  0.3587999e-01  0.9159999e-01  0.1543200      0.2048000    
  0.2232800      0.2085600      0.1774000      0.1392400      0.9743999e-01
  0.5496000e-01  0.1139000e-01 -0.1731000e-01 -0.1398000e-01  0.1243000e-01
  0.4561000e-01  0.7155000e-01  0.6854999e-01  0.3827000e-01  0.2580000e-02
 -0.4499000e-01 -0.1096800     -0.1676000     -0.2042400     -0.2206400    
 -0.2254400     -0.2276400     -0.2190000     -0.1928400     -0.1640800    
 -0.1404400     -0.1111200     -0.7335001e-01 -0.3506000e-01 -0.8700000e-02
 -0.1248000e-01 -0.5000000e-01 -0.1014400     -0.1398000     -0.1541600    
 -0.1398800     -0.8512001e-01  0.6329999e-02  0.1006400      0.1590000    
  0.1705200      0.1583200      0.1361200      0.9831999e-01  0.6326999e-01
  0.6513000e-01  0.1003600      0.1397200      0.1618000      0.1587600    
  0.1433200      0.1286400      0.1078000      0.7735999e-01  0.5119999e-01
  0.4319999e-01  0.4814000e-01  0.4607999e-01  0.2257000e-01 -0.1554000e-01
 -0.5449000e-01 -0.9996000e-01 -0.1645600     -0.2425600     -0.2981600    
 -0.2969600     -0.2426400     -0.1598400     -0.6644000e-01  0.1568000e-01
  0.5892999e-01  0.5494999e-01  0.2023000e-01 -0.2781000e-01 -0.7040000e-01
 -0.8856000e-01 -0.8660001e-01 -0.7265000e-01 -0.2608000e-01  0.5130000e-01
  0.9655999e-01  0.8036999e-01  0.4702999e-01  0.3239000e-01  0.3950000e-01
  0.5889999e-01  0.6784000e-01  0.5616000e-01  0.3395999e-01  0.8549999e-02
 -0.1206000e-01 -0.1533000e-01  0.4720000e-02  0.4161000e-01  0.7938999e-01
  0.1128000      0.1453600      0.1653600      0.1647200      0.1482800    
  0.1125200      0.5853999e-01  0.7859999e-02 -0.2082000e-01 -0.3004000e-01
 -0.3057000e-01 -0.3033000e-01 -0.3712000e-01 -0.5588000e-01 -0.8884001e-01
 -0.1322000     -0.1687600     -0.1809600     -0.1682800     -0.1486000    
 -0.1371600     -0.1357200     -0.1433600     -0.1544400     -0.1532800    
 -0.1254400     -0.7542001e-01 -0.2275000e-01  0.2571000e-01  0.6901999e-01
  0.1066800      0.1528000      0.2100000      0.2582800      0.2926000    
  0.3283200      0.3822399      0.4622400      0.5630399      0.6734400    
  0.7944000      0.9163200       1.018880       1.096480       1.146240    
   1.173760       1.199520       1.224000       1.236160       1.247520    
   1.265920       1.271360       1.249600       1.204640       1.134560    
   1.047840      0.9723200      0.9284799      0.9086399      0.8849599    
  0.8193599      0.6836799      0.4942400      0.2984400      0.1075200    
 -0.1054400     -0.3560000     -0.6228801     -0.8744000      -1.104160    
  -1.328640      -1.519360      -1.680640      -1.831680      -1.986560    
  -2.137600      -2.264320      -2.353920      -2.429440      -2.507520    
  -2.579200      -2.608640      -2.567680      -2.451200      -2.293760    
  -2.131200      -1.999360      -1.914880      -1.866240      -1.832960    
  -1.813760      -1.825280      -1.879040      -1.966080      -2.067200    
  -2.160640      -2.245120      -2.319360      -2.379520      -2.416640    
  -2.438400      -2.447360      -2.452480      -2.457600      -2.446080    
  -2.391040      -2.259200      -2.033920      -1.711360      -1.298560    
 -0.8192000     -0.2615200      0.3617600       1.019680       1.676800    
   2.334720       2.972160       3.568640       4.104959       4.569599    
   4.935679       5.181439       5.304319       5.341439       5.311999    
   5.219839       5.052159       4.803840       4.481279       4.097280    
   3.660800       3.182080       2.690560       2.229760       1.816320    
   1.450240       1.126240      0.8260800      0.5700799      0.3582399    
  0.1702800     -0.1770000e-01 -0.2055200     -0.3720000     -0.5040001    
 -0.6027200     -0.6604800     -0.6806401     -0.6752000     -0.6460800    
 -0.5950401     -0.5300801     -0.4528000     -0.3691200     -0.2841200    
 -0.2023200     -0.1298800     -0.6593001e-01 -0.2110000e-02  0.5779000e-01
  0.9823999e-01  0.1140400      0.1169200      0.1267200      0.1522800    
  0.1840800      0.2087200      0.2104800      0.1716000      0.9463999e-01
 -0.7000001e-03 -0.1028800     -0.2116800     -0.3286400     -0.4441600    
 -0.5395200     -0.6083200     -0.6750400     -0.7604800     -0.8441601    
 -0.9017600     -0.9350400     -0.9529600     -0.9628800     -0.9668801    
 -0.9579201     -0.9204800     -0.8403200     -0.7184000     -0.5689601    
 -0.4196800     -0.2938800     -0.1938000     -0.1164000     -0.6787001e-01
 -0.5501001e-01 -0.8352001e-01 -0.1462000     -0.2303600     -0.3313600    
 -0.4369600     -0.5267200     -0.5902400     -0.6496000     -0.7264000    
 -0.8044801     -0.8504001     -0.8491200     -0.8057600     -0.7392000    
 -0.6672001     -0.5953600     -0.5296000     -0.4779200     -0.4276800    
 -0.3672000     -0.2961600     -0.2112000     -0.1151600     -0.2853000e-01
  0.3512000e-01  0.6749000e-01  0.6077000e-01  0.2518000e-01 -0.2238000e-01
 -0.6899001e-01 -0.9964001e-01 -0.1156800     -0.1356400     -0.1640000    
 -0.1969200     -0.2357200     -0.2802800     -0.3248400     -0.3568000    
 -0.3585600     -0.3364800     -0.3185200     -0.3213600     -0.3239600    
 -0.3076800     -0.2703601     -0.2085600     -0.1274800     -0.4353000e-01
  0.3735000e-01  0.1236400      0.2262000      0.3459200      0.4716800    
  0.5846399      0.6750399      0.7414399      0.7887999      0.8195199    
  0.8276799      0.8121599      0.7753599      0.7160000      0.6356800    
  0.5454400      0.4545600      0.3625600      0.2714000      0.1930400    
  0.1415200      0.1115200      0.7516000e-01  0.1513000e-01 -0.6454000e-01
 -0.1665600     -0.2852000     -0.3915200     -0.4609600     -0.4934400    
 -0.4985600     -0.4836800     -0.4510400     -0.3968000     -0.3126800    
 -0.2034400     -0.8860001e-01  0.1630000e-01  0.1048800      0.1730400    
  0.2201200      0.2480800      0.2618000      0.2728400      0.2921600    
  0.3281600      0.3812799      0.4372799      0.4892800      0.5372800    
  0.5822399      0.6292800      0.6759999      0.7174399      0.7587199    
  0.8001599      0.8279999      0.8460799      0.8601599      0.8523200    
  0.8059199      0.7233599      0.6273599      0.5395199      0.4636800    
  0.4044800      0.3648000      0.3300800      0.2841600      0.2133600    
  0.1195600      0.1832000e-01 -0.8134000e-01 -0.1766800     -0.2637600    
 -0.3392000     -0.3870400     -0.3974400     -0.3819200     -0.3518400    
 -0.3104400     -0.2679200     -0.2250000     -0.1781200     -0.1282800    
 -0.8224000e-01 -0.4972000e-01 -0.2919000e-01 -0.1005000e-01  0.1151000e-01
  0.3561000e-01  0.6027000e-01  0.8216000e-01  0.1044000      0.1266000    
  0.1456000      0.1648400      0.1823200      0.1864400      0.1697600    
  0.1315600      0.7757999e-01  0.2190000e-01 -0.1576000e-01 -0.2452000e-01
 -0.9820001e-02  0.1569000e-01  0.4127000e-01  0.5848999e-01  0.6039999e-01
  0.4505000e-01  0.1966000e-01 -0.8190000e-02 -0.3622000e-01 -0.5991000e-01
 -0.7753001e-01 -0.9528001e-01 -0.1168800     -0.1434800     -0.1778400    
 -0.2218800     -0.2754000     -0.3387200     -0.4044800     -0.4652800    
 -0.5169600     -0.5568000     -0.5940801     -0.6483201     -0.7257600    
 -0.8201600     -0.9190401      -1.010560      -1.094080      -1.164320    
  -1.206560      -1.214880      -1.206400      -1.195840      -1.172320    
  -1.127520      -1.070720     -0.9995201     -0.9043200     -0.7929600    
 -0.6729600     -0.5414400     -0.4076800     -0.2926800     -0.2064000    
 -0.1466800     -0.1142800     -0.1046400     -0.1094000     -0.1221200    
 -0.1416800     -0.1722000     -0.2221200     -0.2965200     -0.3889600    
 -0.4886400     -0.5985601     -0.7150401     -0.8228800     -0.9118401    
 -0.9816000      -1.039520      -1.097920      -1.157760      -1.210720    
  -1.258400      -1.308000      -1.364480      -1.399040      -1.400320    
  -1.354240      -1.256480      -1.141600      -1.013600     -0.8668801    
 -0.7014401     -0.5379200     -0.3921600     -0.2615600     -0.1474400    
 -0.4381000e-01  0.6438999e-01  0.1857200      0.3258800      0.4955199    
  0.6892799      0.8887999       1.089920       1.283520       1.434880    
   1.546240       1.606400       1.629440       1.630720       1.619200    
   1.603840       1.583360       1.553920       1.509120       1.438720    
   1.340160       1.234400       1.116320      0.9966400      0.8798399    
  0.7679999      0.6577599      0.5472000      0.4395199      0.3424000    
  0.2609600      0.2098800      0.2085200      0.2510000      0.3180000    
  0.4006400      0.5033599      0.6262399      0.7611200      0.9062399    
   1.070400       1.251520       1.424640       1.597440       1.768960    
   1.939200       2.096640       2.229760       2.335999       2.421760    
