   1.000004      -10.48448       10.48576      -12345.00       1.000005    
   199.9622       1600.968      -12345.00      -12345.00       2.000000    
  -12345.00      -12345.00      -12345.00      -12345.00      -12345.00    
  -12345.00      -12345.00      -12345.00      -12345.00      -12345.00    
  -12345.00      -12345.00      -12345.00      -12345.00      -12345.00    
  -12345.00      -12345.00      -12345.00      -12345.00      -12345.00    
  -12345.00       44.54832      -74.53001      -12345.00      -12345.00    
   40.30000      -127.0000             0.             0.      -12345.00    
  -12345.00      -12345.00      -12345.00      -12345.00      -12345.00    
  -12345.00      -12345.00      -12345.00      -12345.00      -12345.00    
   4269.287       65.86439       282.5425       38.41450      -12345.00    
  -12345.00      0.4200603e-03   90.00000       90.00000      -12345.00    
  -12345.00      -12345.00      -12345.00      -12345.00      -12345.00    
  -12345.00      -12345.00      -12345.00      -12345.00      -12345.00    
      1984       254         3        14         7
         0         6         0         0      1402
    -12345    -12345    -12345    -12345    -12345
         1        50        11    -12345    -12345
    -12345    -12345        40    -12345    -12345
    -12345    -12345    -12345    -12345    -12345
    -12345    -12345    -12345    -12345    -12345
         1         0         1         1         0
RSNY    EUREKA          
-12345  -12345  -12345  
-12345  -12345  -12345  
-12345  -12345  -12345  
-12345  -12345  -12345  
-12345  -12345  -12345  
-12345  -12345  KL.E    
RSTN-SAR10/12/84KS-36000
[...]
  0.7900000e-03  0.1680000e-02  0.2230000e-02  0.2510000e-02  0.2550000e-02
  0.2150000e-02  0.1170000e-02 -0.7000001e-04 -0.1270000e-02 -0.2120000e-02
 -0.2610000e-02 -0.3070000e-02 -0.3440000e-02 -0.3180000e-02 -0.2210000e-02
 -0.1340000e-02 -0.8500001e-03 -0.3400000e-03  0.4600000e-03  0.1380000e-02
  0.2010000e-02  0.2130000e-02  0.1900000e-02  0.1640000e-02  0.1310000e-02
  0.6400000e-03 -0.2700000e-03 -0.1090000e-02 -0.1630000e-02 -0.1910000e-02
 -0.1720000e-02 -0.9600000e-03  0.1000000e-04  0.9099999e-03  0.2000000e-02
  0.5170000e-02  0.1358000e-01  0.2729000e-01  0.4182000e-01  0.5631000e-01
  0.7350999e-01  0.8607998e-01  0.8107999e-01  0.5300000e-01  0.6929999e-02
 -0.4422000e-01 -0.8396001e-01 -0.1055200     -0.1176400     -0.1310400    
 -0.1466400     -0.1593200     -0.1611600     -0.1437600     -0.1067600    
 -0.5872000e-01 -0.7100000e-02  0.4499000e-01  0.9351999e-01  0.1324000    
  0.1554000      0.1591600      0.1462800      0.1244800      0.1003200    
  0.7710999e-01  0.5475999e-01  0.3099000e-01  0.4530000e-02 -0.1886000e-01
 -0.2822000e-01 -0.1728000e-01  0.7819999e-02  0.3203999e-01  0.4110999e-01
  0.2856000e-01 -0.1200000e-03 -0.2938000e-01 -0.4426000e-01 -0.4150000e-01
 -0.3062000e-01 -0.2442000e-01 -0.2830000e-01 -0.3840000e-01 -0.4549000e-01
 -0.4185000e-01 -0.2745000e-01 -0.9290000e-02  0.4430000e-02  0.9279998e-02
  0.5369999e-02 -0.4620001e-02 -0.1612000e-01 -0.2450000e-01 -0.2764000e-01
 -0.2536000e-01 -0.1849000e-01 -0.9290000e-02 -0.1390000e-02  0.1260000e-02
 -0.2760000e-02 -0.1138000e-01 -0.1959000e-01 -0.2173000e-01 -0.1534000e-01
 -0.2160000e-02  0.1517000e-01  0.3442000e-01  0.5248000e-01  0.6592000e-01
  0.7129999e-01  0.6546000e-01  0.4815000e-01  0.2432000e-01  0.2940000e-02
 -0.9070002e-02 -0.1125000e-01 -0.7020000e-02  0.3400000e-03  0.1010000e-01
  0.2183000e-01  0.3312000e-01  0.3984000e-01  0.4002000e-01  0.4279000e-01
  0.6129999e-01  0.9071998e-01  0.1141600      0.1218800      0.1047200    
  0.4687999e-01 -0.5811000e-01 -0.1967600     -0.3448000     -0.4726400    
 -0.5532800     -0.5684800     -0.5168000     -0.4083200     -0.2582000    
 -0.8260001e-01  0.1052800      0.2903600      0.4529600      0.5742400    
  0.6411200      0.6460799      0.5900799      0.4827200      0.3392000    
  0.1770800      0.1583000e-01 -0.1243200     -0.2305600     -0.2979600    
 -0.3251200     -0.3154000     -0.2770400     -0.2196000     -0.1521200    
 -0.8320001e-01 -0.2026000e-01  0.3126000e-01  0.6716999e-01  0.8532000e-01
  0.8583999e-01  0.6952000e-01  0.3894000e-01 -0.1000000e-03 -0.4072000e-01
 -0.7483001e-01 -0.9496000e-01 -0.9616001e-01 -0.7736000e-01 -0.4289000e-01
  0.6000000e-04  0.4483999e-01  0.8591999e-01  0.1195200      0.1426000    
  0.1520400      0.1451200      0.1210400      0.8207999e-01  0.3331000e-01
 -0.1977000e-01 -0.7015000e-01 -0.1110800     -0.1387200     -0.1510000    
 -0.1462400     -0.1252800     -0.9212001e-01 -0.5149000e-01 -0.8550001e-02
  0.3139000e-01  0.6343000e-01  0.8439998e-01  0.9507999e-01  0.9791999e-01
  0.9531999e-01  0.8839999e-01  0.7687999e-01  0.6020000e-01  0.4060999e-01
  0.2209000e-01  0.7689999e-02 -0.2150000e-02 -0.9360000e-02 -0.1819000e-01
 -0.3283000e-01 -0.5413000e-01 -0.7826000e-01 -0.9848000e-01 -0.1088000    
 -0.1074400     -0.9584001e-01 -0.7831001e-01 -0.5935000e-01 -0.4189000e-01
 -0.2752000e-01 -0.1667000e-01 -0.9120001e-02 -0.4580000e-02 -0.1960000e-02
  0.5000000e-03  0.4140000e-02  0.9399999e-02  0.1566000e-01  0.2174000e-01
  0.2611000e-01  0.2748000e-01  0.2583000e-01  0.2217000e-01  0.1853000e-01
  0.1693000e-01  0.1757000e-01  0.1863000e-01  0.1842000e-01  0.1636000e-01
  0.1303000e-01  0.9289999e-02  0.5739999e-02  0.3710000e-02  0.4799999e-02
  0.8959999e-02  0.1349000e-01  0.1521000e-01  0.1272000e-01  0.7559999e-02
  0.3070000e-02  0.2350000e-02  0.6519999e-02  0.1496000e-01  0.2535000e-01
  0.3534000e-01  0.4543000e-01  0.5834000e-01  0.7448000e-01  0.8904000e-01
  0.9527999e-01  0.8839999e-01  0.6754999e-01  0.3516000e-01 -0.2280000e-02
 -0.3662001e-01 -0.6126000e-01 -0.7333000e-01 -0.7356000e-01 -0.6533000e-01
 -0.5288000e-01 -0.3959000e-01 -0.2826000e-01 -0.2028000e-01 -0.1491000e-01
 -0.1125000e-01 -0.9530000e-02 -0.1018000e-01 -0.1354000e-01 -0.1972000e-01
 -0.2720000e-01 -0.3369001e-01 -0.3772000e-01 -0.3937000e-01 -0.4102001e-01
 -0.4480001e-01 -0.4936000e-01 -0.5119000e-01 -0.4808000e-01 -0.4029001e-01
 -0.2916000e-01 -0.1590000e-01 -0.1540000e-02  0.1333000e-01  0.2819000e-01
  0.4127999e-01  0.4983000e-01  0.5206999e-01  0.4843000e-01  0.3993999e-01
  0.2702000e-01  0.1079000e-01 -0.6120000e-02 -0.2139000e-01 -0.3299000e-01
 -0.3826001e-01 -0.3606001e-01 -0.2729000e-01 -0.1293000e-01  0.6669999e-02
  0.3091000e-01  0.5823000e-01  0.8508000e-01  0.1064400      0.1162000    
  0.1111600      0.9339999e-01  0.6866999e-01  0.4127000e-01  0.1433000e-01
 -0.1065000e-01 -0.3358001e-01 -0.5360001e-01 -0.6827001e-01 -0.7523000e-01
 -0.7329001e-01 -0.6384000e-01 -0.5075000e-01 -0.3849000e-01 -0.3035000e-01
 -0.2667000e-01 -0.2470000e-01 -0.2088000e-01 -0.1354000e-01 -0.3890000e-02
  0.6229999e-02  0.1663000e-01  0.2711000e-01  0.3613000e-01  0.4165000e-01
  0.4195999e-01  0.3659000e-01  0.2800000e-01  0.2086000e-01  0.1734000e-01
  0.1494000e-01  0.9669999e-02 -0.4900000e-03 -0.1391000e-01 -0.2659000e-01
 -0.3490000e-01 -0.3681000e-01 -0.3226000e-01 -0.2285000e-01 -0.1200000e-01
 -0.4600001e-02 -0.3310000e-02 -0.7590001e-02 -0.1647000e-01 -0.2917000e-01
 -0.4349000e-01 -0.5498000e-01 -0.5927000e-01 -0.5390000e-01 -0.3932000e-01
 -0.1978000e-01 -0.1770000e-02  0.1028000e-01  0.1614000e-01  0.1889000e-01
  0.2276000e-01  0.2891000e-01  0.3364000e-01  0.3230999e-01  0.2369000e-01
  0.9720000e-02 -0.6440001e-02 -0.2031000e-01 -0.2727000e-01 -0.2601000e-01
 -0.1926000e-01 -0.1059000e-01 -0.1300000e-02  0.1038000e-01  0.2816000e-01
  0.5484000e-01  0.8935998e-01  0.1271200      0.1604000      0.1805600    
  0.1808400      0.1583200      0.1142000      0.5180000e-01 -0.2891000e-01
 -0.1318000     -0.2608000     -0.4134400     -0.5748800     -0.7166400    
 -0.7921600     -0.7451200     -0.5337601     -0.1508800      0.3633600    
  0.9321599       1.454080       1.857280       2.080000       2.096640    
   1.909760       1.546240       1.060000      0.5054399     -0.5090000e-01
 -0.5769601      -1.065120      -1.524480      -1.954560      -2.339840    
  -2.647040      -2.837760      -2.874880      -2.736640      -2.420480    
  -1.954560      -1.388800     -0.7926401     -0.2295200      0.2585599    
  0.6630399      0.9990399       1.294560       1.570560       1.849600    
   2.123520       2.375679       2.571520       2.680320       2.670080    
   2.531840       2.280960       1.949440       1.568000       1.162240    
  0.7271999      0.2682800     -0.2130400     -0.7046400      -1.178400    
  -1.598720      -1.931520      -2.156800      -2.273280      -2.295040    
  -2.246400      -2.152960      -2.024960      -1.857280      -1.633280    
  -1.333760     -0.9542401     -0.5174401     -0.5810000e-01  0.3801600    
  0.7654399       1.077280       1.310560       1.461760       1.551360    
   1.580800       1.555200       1.475840       1.344000       1.163520    
  0.9286399      0.6572800      0.3718399      0.1001200     -0.1311600    
 -0.3012800     -0.4040000     -0.4499200     -0.4646400     -0.4724800    
 -0.4894400     -0.5176001     -0.5488000     -0.5734401     -0.5846400    
 -0.5811200     -0.5664001     -0.5451200     -0.5182401     -0.4803200    
 -0.4232000     -0.3400000     -0.2264800     -0.8752000e-01  0.6444000e-01
  0.2116000      0.3388799      0.4339200      0.4878399      0.4966400    
  0.4670399      0.4140800      0.3564799      0.3090799      0.2785200    
  0.2607599      0.2425200      0.2118800      0.1660800      0.1115200    
  0.5840000e-01  0.1712000e-01 -0.4470000e-02 -0.7240000e-02 -0.1630000e-02
 -0.1390000e-02 -0.1596000e-01 -0.4830001e-01 -0.9628001e-01 -0.1534800    
 -0.2117600     -0.2632800     -0.3008400     -0.3192400     -0.3178800    
 -0.3012000     -0.2745600     -0.2401200     -0.1964400     -0.1412400    
 -0.7440001e-01  0.6199999e-03  0.7541999e-01  0.1358000      0.1672000    
  0.1631600      0.1307600      0.8600000e-01  0.4678000e-01  0.2959000e-01
  0.4535999e-01  0.9288000e-01  0.1594800      0.2266800      0.2782000    
  0.3039600      0.3012000      0.2741200      0.2308800      0.1786400    
  0.1201200      0.5481000e-01 -0.1840000e-01 -0.9784001e-01 -0.1796800    
 -0.2573200     -0.3213600     -0.3617600     -0.3704000     -0.3468800    
 -0.2976000     -0.2356800     -0.1749600     -0.1296800     -0.1100400    
 -0.1178800     -0.1438000     -0.1692000     -0.1730000     -0.1376800    
 -0.5556000e-01  0.6645998e-01  0.2082400      0.3427200      0.4446400    
  0.4980800      0.5031999      0.4696000      0.4129599      0.3499200    
  0.2909999      0.2375600      0.1870400      0.1370000      0.8787999e-01
  0.4257999e-01  0.9799998e-03 -0.4179000e-01 -0.9288001e-01 -0.1549200    
 -0.2244800     -0.2946000     -0.3579200     -0.4057600     -0.4339200    
 -0.4424000     -0.4332800     -0.4068800     -0.3635200     -0.3046000    
 -0.2346400     -0.1594800     -0.8712001e-01 -0.2337000e-01  0.3017000e-01
  0.7528999e-01  0.1153600      0.1541200      0.1934800      0.2352400    
  0.2803200      0.3271599      0.3700799      0.4000000      0.4036800    
  0.3681599      0.2878799      0.1670800      0.2197000e-01 -0.1250000    
 -0.2489600     -0.3296000     -0.3532800     -0.3182400     -0.2366400    
 -0.1268000     -0.1045000e-01  0.9103999e-01  0.1594400      0.1818400    
  0.1564000      0.9279999e-01  0.7149999e-02 -0.8324000e-01 -0.1600000    
 -0.2074800     -0.2153600     -0.1800800     -0.1057200     -0.3200000e-02
  0.1129200      0.2288000      0.3284799      0.3956800      0.4180800    
  0.3923200      0.3226799      0.2170800      0.8947998e-01 -0.4306000e-01
 -0.1643600     -0.2630800     -0.3345600     -0.3771200     -0.3924800    
 -0.3827200     -0.3507200     -0.2989600     -0.2306000     -0.1473600    
 -0.5254000e-01  0.4824000e-01  0.1460400      0.2282800      0.2822000    
  0.3005599      0.2838799      0.2403200      0.1834800      0.1273200    
  0.8050999e-01  0.4324000e-01  0.1122000e-01 -0.2104000e-01 -0.5671000e-01
 -0.9472001e-01 -0.1300000     -0.1552000     -0.1621600     -0.1449200    
 -0.1049200     -0.5398000e-01 -0.1079000e-01  0.7529999e-02 -0.9750001e-02
 -0.6512001e-01 -0.1502800     -0.2464800     -0.3304000     -0.3792000    
 -0.3782400     -0.3240801     -0.2267200     -0.1001200      0.4343999e-01
  0.1970800      0.3596799      0.5307199      0.7039999      0.8636799    
  0.9871999       1.053760       1.051040      0.9751999      0.8313599    
  0.6337600      0.4017600      0.1573600     -0.7857001e-01 -0.2834800    
 -0.4353600     -0.5174401     -0.5267200     -0.4758400     -0.3907200    
 -0.3014000     -0.2324000     -0.1964000     -0.1971200     -0.2309200    
 -0.2903200     -0.3670400     -0.4518400     -0.5392001     -0.6257601    
 -0.7070401     -0.7787200     -0.8382400     -0.8873601     -0.9300801    
 -0.9702400      -1.010880      -1.051360      -1.083840      -1.094080    
  -1.067520     -0.9940801     -0.8716800     -0.7059201     -0.5060800    
 -0.2805600     -0.3617001e-01  0.2256000      0.5031999      0.7899200    
   1.072160       1.326080       1.538560       1.692160       1.777920    
   1.803520       1.785600       1.742080       1.693440       1.647360    
   1.605120       1.564160       1.524480       1.480960       1.427200    
   1.354240       1.259680       1.119680      0.9311999      0.6923199    
  0.4081600      0.9199999e-01 -0.2400000     -0.5705601     -0.8840001    
  -1.171360      -1.428480      -1.648640      -1.832960      -1.978880    
  -2.091520      -2.168320      -2.213120      -2.223360      -2.202880    
  -2.155520      -2.083840      -1.985280      -1.864960      -1.712640    
  -1.520640      -1.280800     -0.9980800     -0.6803200     -0.3432000    
 -0.2940000e-02  0.3305600      0.6619200       1.003520       1.363200    
   1.758720       2.167040       2.558720       2.887680       3.112960    
   3.214080       3.188480       3.060480       2.860800       2.615040    
   2.337280       2.027520       1.672960       1.261760      0.7675200    
  0.1906800     -0.4584000      -1.149440      -1.841920      -2.487040    
  -3.048960      -3.505920      -3.852800      -4.097281      -4.248321    
  -4.300800      -4.240641      -4.032001      -3.641600      -3.047680    
  -2.255360      -1.309440     -0.2825200      0.7364799       1.662720    
   2.452480       3.079679       3.552000       3.884799       4.092159    
   4.181760       4.154880       4.011519       3.751680       3.402240    
   2.997760       2.577919       2.156800       1.730560       1.275840    
  0.7412800      0.1085200     -0.6177601      -1.399040      -2.168320    
  -2.868480      -3.457280      -3.928320      -4.298241      -4.595201    
  -4.830720      -4.992001      -5.039360      -4.915200      -4.564481    
  -3.944960      -3.052800      -1.912320     -0.5780801      0.8651199    
   2.321920       3.708159       4.934400       5.927679       6.648319    
   7.070720       7.179520       6.958079       6.401279       5.520639    
   4.353279       2.965760       1.450240     -0.8580001e-01  -1.562880    
  -2.903040      -4.074241      -5.054720      -5.827841      -6.361600    
  -6.613760      -6.545920      -6.147841      -5.443840      -4.503040    
  -3.399680      -2.214400      -1.007360      0.1804800       1.319680    
   2.397439       3.379200       4.218880       4.874239       5.311999    
   5.511680       5.471999       5.203199       4.729599       4.078079    
   3.284480       2.376960       1.381120      0.3324800     -0.7588800    
  -1.861120      -2.941440      -3.961600      -4.874240      -5.616640    
  -6.126081      -6.332160      -6.167040      -5.582080      -4.568320    
  -3.179520      -1.536000      0.1884800       1.790720       3.105279    
   4.010240       4.473599       4.549119       4.349440       4.008960    
   3.660800       3.400959       3.271680       3.257600       3.296000    
   3.283200       3.098880       2.620160       1.752320      0.4715199    
  -1.178240      -3.045120      -4.915200      -6.542080      -7.715840    
  -8.282881      -8.172800      -7.398400      -6.046721      -4.268801    
  -2.252800     -0.1970000       1.720320       3.404799       4.812799    
   5.939199       6.794239       7.371519       7.637759       7.530239    
   6.977280       5.931520       4.392960       2.424320      0.1667200    
  -2.199040      -4.436481      -6.325760      -7.672320      -8.345600    
  -8.293121      -7.541760      -6.201600      -4.444160      -2.478080    
 -0.5142400       1.259680       2.711040       3.800320       4.528640    
   4.959999       5.171200       5.233919       5.169919       4.967679    
   4.584959       3.960320       3.036160       1.761280      0.1149200    
  -1.886720      -4.113920      -6.348801      -8.284161      -9.573120    
  -9.903360      -9.079041      -7.075840      -4.083200     -0.5249600    
   3.104000       6.469119       9.250559       10.48576       10.48576    
   10.48576       8.302078       5.000959       1.184640      -2.657280    
  -6.160641      -8.970242      -10.48448      -10.48448      -10.10176    
  -7.818240      -4.546560     -0.7760000       2.976000       6.264319    
   8.592638       9.580799       9.118719       7.371519       4.721919    
   1.696000      -1.133920      -3.319040      -4.574720      -4.856320    
  -4.332800      -3.294720      -2.067200     -0.9118401      0.6010000e-02
  0.6339200      0.9990399       1.159360       1.165920       1.044640    
  0.8008000      0.4395199     -0.1200000e-01 -0.4953600     -0.9217601    
  -1.198880      -1.260160      -1.093440     -0.7460800     -0.3042400    
  0.1388800      0.5158399      0.7955199      0.9755199       1.070080    
   1.099200       1.087840       1.066240       1.063680       1.092800    
   1.134720       1.133120       1.011680      0.7059200      0.2000000    
 -0.4576000      -1.156800      -1.758720      -2.132480      -2.196480    
  -1.944320      -1.436160     -0.7913600     -0.1514000      0.3558400    
  0.6457599      0.6915200      0.5295999      0.2511200     -0.2700000e-01
 -0.1965600     -0.1877600      0.1330000e-01  0.3641599      0.7830399    
   1.167040       1.413120       1.459200       1.260000      0.8081599    
  0.1650400     -0.5608001      -1.223680      -1.680640      -1.827840    
  -1.644800      -1.198720     -0.6180800     -0.4283001e-01  0.4216000    
  0.7361599      0.9182400       1.016000       1.072320       1.098240    
   1.068320      0.9414399      0.6908799      0.3300800     -0.8564000e-01
 -0.4846400     -0.8089601      -1.042400      -1.204640      -1.326080    
  -1.405440      -1.410560      -1.270240     -0.9292800     -0.3801600    
  0.3070800      0.9972799       1.530880       1.800960       1.771520    
   1.505280       1.133600      0.7668799      0.4867200      0.2926400    
  0.1214400     -0.1049200     -0.4259200     -0.8096000      -1.165120    
  -1.386240      -1.392640      -1.177120     -0.8096000     -0.4017600    
 -0.6551000e-01  0.1321600      0.1949600      0.1845600      0.1857600    
  0.2635199      0.4339200      0.6596799      0.8659199      0.9702399    
  0.9185599      0.7103999      0.3993599      0.6911999e-01 -0.2050000    
 -0.3828800     -0.4694400     -0.5041600     -0.5339200     -0.5843201    
 -0.6465601     -0.6843201     -0.6606400     -0.5622400     -0.4072000    
 -0.2345600     -0.8264001e-01  0.3523999e-01  0.1339200      0.2425600    
  0.3785599      0.5326400      0.6737599      0.7667199      0.7924799    
  0.7518399      0.6577599      0.5243199      0.3620800      0.1810400    
 -0.8630000e-02 -0.1964000    
