   1.000004      -10.48448       10.48576      -12345.00       1.000005    
   199.9622       1600.968      -12345.00      -12345.00       2.000000    
  -12345.00      -12345.00      -12345.00      -12345.00      -12345.00    
  -12345.00      -12345.00      -12345.00      -12345.00      -12345.00    
  -12345.00      -12345.00      -12345.00      -12345.00      -12345.00    
  -12345.00      -12345.00      -12345.00      -12345.00      -12345.00    
  -12345.00       44.54832      -74.53001      -12345.00      -12345.00    
   40.30000      -127.0000             0.             0.      -12345.00    
  -12345.00      -12345.00      -12345.00      -12345.00      -12345.00    
  -12345.00      -12345.00      -12345.00      -12345.00      -12345.00    
   4269.287       65.86439       282.5425       38.41450      -12345.00    
  -12345.00     -0.1219476e-03         0.       90.00000      -12345.00    
  -12345.00      -12345.00      -12345.00      -12345.00      -12345.00    
  -12345.00      -12345.00      -12345.00      -12345.00      -12345.00    
      1984       254         3        14         7
         0         6         0         0      1402
    -12345    -12345    -12345    -12345    -12345
         1        50        11    -12345    -12345
    -12345    -12345        40    -12345    -12345
    -12345    -12345    -12345    -12345    -12345
    -12345    -12345    -12345    -12345    -12345
         1         0         1         1         0
RSNY    EUREKA          
-12345  -12345  -12345  
-12345  -12345  -12345  
-12345  -12345  -12345  
-12345  -12345  -12345  
-12345  -12345  -12345  
-12345  -12345  KL.N    
RSTN-SAR10/12/84KS-36000
[...]
 -0.2000000e-03 -0.8000000e-04  0.2000000e-04  0.1000000e-04 -0.1700000e-03
 -0.3700000e-03 -0.3700000e-03 -0.2300000e-03 -0.6000000e-04  0.6000000e-04
  0.2100000e-03  0.3000000e-03  0.2599999e-03  0.2100000e-03  0.4100000e-03
  0.7600000e-03  0.8500000e-03  0.4899999e-03  0.5000000e-04 -0.1000000e-03
 -0.6000000e-04 -0.1200000e-03 -0.3600000e-03 -0.6100000e-03 -0.8100000e-03
 -0.1000000e-02 -0.1040000e-02 -0.7300001e-03 -0.7000001e-04  0.4800000e-03
  0.6700000e-03  0.8099999e-03  0.1400000e-02  0.2180000e-02  0.2499999e-02
  0.2340000e-02  0.2140000e-02  0.1940000e-02  0.1440000e-02  0.5900000e-03
 -0.2900000e-03 -0.1090000e-02 -0.1760000e-02 -0.2380000e-02 -0.2900000e-02
 -0.3240000e-02 -0.3380000e-02 -0.2930000e-02 -0.1800000e-02 -0.9900001e-03
 -0.6200001e-03  0.8799999e-03  0.3779999e-02  0.6049999e-02  0.5999999e-02
  0.3700000e-02  0.7600000e-03 -0.1110000e-02 -0.2030000e-02 -0.3680000e-02
 -0.6520000e-02 -0.9250000e-02 -0.1013000e-01 -0.8340001e-02 -0.4320000e-02
  0.4300000e-03  0.4469999e-02  0.7769999e-02  0.9819999e-02  0.8849999e-02
  0.5480000e-02  0.2050000e-02 -0.2000000e-03 -0.2800000e-03  0.1890000e-02
  0.4399999e-02  0.5309999e-02  0.4729999e-02  0.3290000e-02  0.7699999e-03
 -0.2360000e-02 -0.4340000e-02 -0.3770000e-02 -0.1300000e-02  0.1270000e-02
  0.2690000e-02  0.2020000e-02 -0.7100001e-03 -0.4440000e-02 -0.7380000e-02
 -0.8330001e-02 -0.7910000e-02 -0.7290000e-02 -0.6280000e-02 -0.4400000e-02
 -0.1360000e-02  0.2989999e-02  0.8509999e-02  0.1415000e-01  0.1749000e-01
  0.1641000e-01  0.1046000e-01  0.1250000e-02 -0.8070001e-02 -0.1417000e-01
 -0.1545000e-01 -0.1277000e-01 -0.7580000e-02 -0.1140000e-02  0.4579999e-02
  0.7800000e-02  0.8459998e-02  0.7949999e-02  0.7009999e-02  0.4840000e-02
  0.7000000e-03 -0.4350000e-02 -0.7810000e-02 -0.7740000e-02 -0.4380001e-02
  0.3400000e-03  0.4509999e-02  0.6669999e-02  0.6219999e-02  0.3630000e-02
  0.1400000e-03 -0.2830000e-02 -0.4510000e-02 -0.4920000e-02 -0.4530001e-02
 -0.4010000e-02 -0.3690000e-02 -0.3630000e-02 -0.4080000e-02 -0.4650000e-02
 -0.3600000e-02 -0.1200000e-03  0.3380000e-02  0.3890000e-02  0.1320000e-02
 -0.2320000e-02 -0.5380000e-02 -0.7120000e-02 -0.7520000e-02 -0.6820001e-02
 -0.5240001e-02 -0.3480000e-02 -0.3330000e-02 -0.5460001e-02 -0.8570001e-02
 -0.1128000e-01 -0.1214000e-01 -0.8730000e-02  0.4300000e-03  0.1395000e-01
  0.2948000e-01  0.4533999e-01  0.5716000e-01  0.5949000e-01  0.5035000e-01
  0.3080000e-01  0.3860000e-02 -0.2496000e-01 -0.4884000e-01 -0.6279001e-01
 -0.6469001e-01 -0.5490001e-01 -0.3646000e-01 -0.1443000e-01  0.5700000e-02
  0.1997000e-01  0.2594000e-01  0.2302000e-01  0.1390000e-01  0.3180000e-02
 -0.4980001e-02 -0.8370001e-02 -0.7080000e-02 -0.2920000e-02  0.1910000e-02
  0.6039999e-02  0.9109998e-02  0.1106000e-01  0.1199000e-01  0.1226000e-01
  0.1216000e-01  0.1172000e-01  0.1028000e-01  0.7029999e-02  0.2800000e-02
 -0.4300000e-03 -0.1660000e-02 -0.1540000e-02 -0.1560000e-02 -0.3330000e-02
 -0.7630000e-02 -0.1402000e-01 -0.2073000e-01 -0.2560000e-01 -0.2714000e-01
 -0.2466000e-01 -0.1874000e-01 -0.1108000e-01 -0.3130000e-02  0.4209999e-02
  0.1034000e-01  0.1581000e-01  0.2101000e-01  0.2521000e-01  0.2719000e-01
  0.2562000e-01  0.1970000e-01  0.1009000e-01 -0.1040000e-02 -0.1107000e-01
 -0.1772000e-01 -0.1898000e-01 -0.1442000e-01 -0.6100000e-02  0.3040000e-02
  0.1074000e-01  0.1533000e-01  0.1563000e-01  0.1145000e-01  0.4690000e-02
 -0.1630000e-02 -0.6360000e-02 -0.9940000e-02 -0.1306000e-01 -0.1719000e-01
 -0.2265000e-01 -0.2694000e-01 -0.2713000e-01 -0.2255000e-01 -0.1433000e-01
 -0.3690000e-02  0.7939998e-02  0.1828000e-01  0.2483000e-01  0.2674000e-01
  0.2485000e-01  0.2017000e-01  0.1386000e-01  0.7449999e-02  0.2530000e-02
 -0.2200000e-03 -0.6500001e-03  0.7399999e-03  0.2620000e-02  0.3779999e-02
  0.3939999e-02  0.3390000e-02  0.2280000e-02  0.5199999e-03 -0.2370000e-02
 -0.6340000e-02 -0.1029000e-01 -0.1276000e-01 -0.1281000e-01 -0.1089000e-01
 -0.7720000e-02 -0.3400000e-02  0.1900000e-02  0.7900000e-02  0.1377000e-01
  0.1830000e-01  0.2044000e-01  0.1939000e-01  0.1548000e-01  0.9799998e-02
  0.2940000e-02 -0.4320000e-02 -0.1100000e-01 -0.1615000e-01 -0.1872000e-01
 -0.1871000e-01 -0.1733000e-01 -0.1601000e-01 -0.1575000e-01 -0.1635000e-01
 -0.1658000e-01 -0.1585000e-01 -0.1435000e-01 -0.1222000e-01 -0.9230001e-02
 -0.5160000e-02  0.9999999e-04  0.7169999e-02  0.1594000e-01  0.2395000e-01
  0.2789000e-01  0.2629000e-01  0.2012000e-01  0.1156000e-01  0.2840000e-02
 -0.3980001e-02 -0.7100000e-02 -0.6190000e-02 -0.2810000e-02  0.1670000e-02
  0.6639999e-02  0.1011000e-01  0.9429999e-02  0.4559999e-02 -0.2200000e-02
 -0.8350002e-02 -0.1200000e-01 -0.1216000e-01 -0.8640001e-02 -0.2850000e-02
  0.3109999e-02  0.8169999e-02  0.1181000e-01  0.1329000e-01  0.1166000e-01
  0.5910000e-02 -0.3090000e-02 -0.1230000e-01 -0.1887000e-01 -0.2126000e-01
 -0.1915000e-01 -0.1276000e-01 -0.3330000e-02  0.6580000e-02  0.1450000e-01
  0.1881000e-01  0.1893000e-01  0.1554000e-01  0.1038000e-01  0.5279999e-02
  0.1040000e-02 -0.2230000e-02 -0.4430001e-02 -0.5490000e-02 -0.5700001e-02
 -0.5350000e-02 -0.4260001e-02 -0.2200000e-02 -0.1100000e-03  0.6799999e-03
 -0.3800000e-03 -0.3150000e-02 -0.6450000e-02 -0.8440001e-02 -0.7820001e-02
 -0.5030001e-02 -0.1380000e-02  0.2630000e-02  0.6359999e-02  0.8749999e-02
  0.9140000e-02  0.7409999e-02  0.3520000e-02 -0.3010000e-02 -0.1165000e-01
 -0.2125000e-01 -0.3033000e-01 -0.3683000e-01 -0.3928000e-01 -0.3675000e-01
 -0.2865000e-01 -0.1516000e-01  0.2280000e-02  0.2144000e-01  0.4047000e-01
  0.5598000e-01  0.6308000e-01  0.5914000e-01  0.4521000e-01  0.2681000e-01
  0.1082000e-01  0.2000000e-03 -0.5630000e-02 -0.8510001e-02 -0.1043000e-01
 -0.1196000e-01 -0.1175000e-01 -0.8860001e-02 -0.4170001e-02  0.1010000e-02
  0.6659999e-02  0.1236000e-01  0.1441000e-01  0.8359998e-02 -0.5660000e-02
 -0.2383000e-01 -0.4217000e-01 -0.5688000e-01 -0.6409000e-01 -0.6193000e-01
 -0.5221000e-01 -0.3778000e-01 -0.2008000e-01 -0.7800000e-03  0.1852000e-01
  0.3795999e-01  0.5697999e-01  0.7207999e-01  0.7884999e-01  0.7498999e-01
  0.5999000e-01  0.3665999e-01  0.1505000e-01  0.1214000e-01  0.4605000e-01
  0.1264800      0.2486800      0.3939199      0.5355200      0.6339200    
  0.6407999      0.5175999      0.2615600     -0.9036000e-01 -0.4750400    
 -0.8260801      -1.094560      -1.249600      -1.274720      -1.171040    
 -0.9654400     -0.7091200     -0.4649600     -0.2833600     -0.1911200    
 -0.1819600     -0.2237600     -0.2634800     -0.2422000     -0.1156000    
  0.1322400      0.4833599      0.8899199       1.283360       1.588480    
   1.770240       1.797120       1.670400       1.418240       1.092960    
  0.7227199      0.3571200      0.3023000e-01 -0.2402400     -0.4502400    
 -0.6035200     -0.7064000     -0.7608000     -0.7680000     -0.7328000    
 -0.6665601     -0.5875200     -0.5123200     -0.4500800     -0.4016000    
 -0.3656000     -0.3443200     -0.3393600     -0.3468800     -0.3552000    
 -0.3480000     -0.3103600     -0.2392000     -0.1403200     -0.2785000e-01
  0.8161999e-01  0.1721600      0.2294400      0.2463200      0.2281600    
  0.1883200      0.1426800      0.1040400      0.8071999e-01  0.7578999e-01
  0.8819999e-01  0.1163200      0.1596800      0.2159600      0.2782000    
  0.3348799      0.3776000      0.3990400      0.3940800      0.3591999    
  0.2927999      0.1964000      0.7826999e-01 -0.5311000e-01 -0.1878800    
 -0.3132401     -0.4176000     -0.4881600     -0.5168000     -0.4998400    
 -0.4393600     -0.3427200     -0.2215600     -0.9492001e-01  0.1966000e-01
  0.1064800      0.1557600      0.1650400      0.1418000      0.9983999e-01
  0.5396999e-01  0.1733000e-01 -0.9600000e-03  0.7799999e-03  0.1645000e-01
  0.3508999e-01  0.4691000e-01  0.4680000e-01  0.3451999e-01  0.1602000e-01
  0.3200000e-02  0.6870000e-02  0.2822000e-01  0.6028000e-01  0.9587999e-01
  0.1302800      0.1591600      0.1806800      0.1933200      0.1926400    
  0.1721200      0.1283200      0.6221999e-01 -0.2073000e-01 -0.1091200    
 -0.1874800     -0.2400800     -0.2522800     -0.2164800     -0.1387600    
 -0.3783000e-01  0.6265000e-01  0.1410400      0.1817200      0.1798400    
  0.1399600      0.6992999e-01 -0.2336000e-01 -0.1319200     -0.2426400    
 -0.3382400     -0.3984000     -0.4092800     -0.3659200     -0.2735201    
 -0.1451600      0.6839999e-02  0.1670400      0.3203599      0.4537600    
  0.5611199      0.6393600      0.6895999      0.7147199      0.7139199    
  0.6803199      0.5987200      0.4505600      0.2265600     -0.6804000e-01
 -0.4131200     -0.7793601      -1.138880      -1.468160      -1.726720    
  -1.899520      -1.973760      -1.948160      -1.824000      -1.606400    
  -1.295040     -0.9076800     -0.4510400      0.5648000e-01  0.5888000    
   1.119200       1.601280       2.014719       2.318079       2.493440    
   2.535680       2.456320       2.287360       2.063360       1.811200    
   1.546240       1.282720      0.9976000      0.6939199      0.3672000    
  0.2332000e-01 -0.3258400     -0.6572801     -0.9488001      -1.193600    
  -1.400320      -1.566720      -1.697280      -1.792000      -1.839360    
  -1.825280      -1.731840      -1.544960      -1.263200     -0.9102401    
 -0.5052800     -0.7592000e-01  0.3473600      0.7431999       1.086720    
   1.344000       1.506560       1.557760       1.500160       1.351680    
   1.138080      0.8689599      0.5766399      0.2814400     -0.7490001e-02
 -0.2866400     -0.5547200     -0.8059200      -1.029920      -1.211200    
  -1.341440      -1.402880      -1.410560      -1.376000      -1.308960    
  -1.225760      -1.118880     -0.9825600     -0.8105600     -0.5995201    
 -0.3574400     -0.1112800      0.9400000e-01  0.2178400      0.2391200    
  0.1635200      0.1964000e-01 -0.1503600     -0.3035200     -0.4100800    
 -0.4542400     -0.4376000     -0.3683200     -0.2551200     -0.1049200    
  0.8162999e-01  0.3018799      0.5486399      0.8116800       1.077440    
   1.322240       1.543680       1.711360       1.809920       1.835520    
   1.789440       1.685760       1.550080       1.400320       1.266560    
   1.139840       1.029760      0.9342399      0.8499199      0.7766399    
  0.7204800      0.6911999      0.6955199      0.7308799      0.7823999    
  0.8239999      0.8198400      0.7331200      0.5359999      0.2249600    
 -0.1790800     -0.6315200      -1.076640      -1.473280      -1.779200    
  -1.990400      -2.115840      -2.179840      -2.213120      -2.246400    
  -2.309120      -2.416640      -2.567680      -2.745600      -2.920960    
  -3.054080      -3.107840      -3.052800      -2.885120      -2.616320    
  -2.266880      -1.862400      -1.425920     -0.9688001     -0.4974400    
  0.1328000e-01  0.5873599       1.248000       1.989120       2.801919    
   3.633920       4.421120       5.090559       5.573119       5.818879    
   5.807360       5.552639       5.090559       4.478720       3.783679    
   3.073280       2.408960       1.825280       1.329920      0.9035199    
  0.4870400      0.4036999e-01 -0.4787200      -1.088800      -1.797120    
  -2.572800      -3.390720      -4.206080      -4.966400      -5.605121    
  -6.068480      -6.314240      -6.333441      -6.149120      -5.809920    
  -5.361920      -4.835840      -4.226561      -3.514880      -2.682880    
  -1.734400     -0.6883200      0.4000000       1.480960       2.524160    
   3.487999       4.351999       5.107200       5.747199       6.286079    
   6.736639       7.101439       7.362559       7.476480       7.377919    
   7.013120       6.347519       5.386239       4.168960       2.762239    
   1.259040     -0.2736400      -1.762560      -3.142400      -4.392961    
  -5.511681      -6.503680      -7.375360      -8.121601      -8.715521    
  -9.111040      -9.251841      -9.090561      -8.590080      -7.738880    
  -6.538240      -5.004801      -3.185920      -1.145440      0.9972799    
   3.114240       5.099520       6.844159       8.276480       9.346560    
   10.02880       10.31168       10.21056       9.766399       9.035519    
   8.063999       6.877439       5.459199       3.790080       1.854720    
 -0.3113200      -2.644480      -4.984321      -7.156480      -8.980480    
  -10.30400      -10.48448      -10.48448      -10.48448      -9.927681    
  -8.682241      -7.105280      -5.231360      -3.105280     -0.7937601    
   1.584640       3.933440       6.124800       8.021759       9.475840    
   10.34368       10.48576       9.967360       8.723198       6.900479    
   4.670719       2.229760     -0.2178400      -2.502400      -4.428801    
  -5.861120      -6.693120      -6.880000      -6.446080      -5.468161    
  -4.062720      -2.379520     -0.5964800       1.058880       2.366720    
   3.165440       3.349760       2.931200       2.022400      0.8247999    
 -0.4667200      -1.661440      -2.615040      -3.258880      -3.553280    
  -3.480320      -3.032320      -2.216960      -1.054080      0.3848000    
   1.989120       3.592960       4.948480       5.797119       5.944320    
   5.311999       3.978240       2.154240      0.1384400      -1.783040    
  -3.315200      -4.264960      -4.512000      -4.046081      -2.969600    
  -1.491200      0.1267600       1.574400       2.620160       3.064320    
   2.809600       1.882880      0.4598399      -1.189280      -2.711040    
  -3.770880      -4.144640      -3.768320      -2.743040      -1.288640    
  0.3026400       1.748480       2.840320       3.421440       3.431680    
   2.895360       1.912320      0.6407999     -0.7326400      -1.964800    
  -2.792960      -3.025920      -2.572800      -1.500160     -0.1656000e-01
   1.557760       2.938879       3.866879       4.189440       3.863039    
   2.945280       1.600000      0.6111000e-01  -1.447680      -2.703360    
  -3.598080      -4.094721      -4.217601      -3.994880      -3.444480    
  -2.588160      -1.482240     -0.2350800      0.9751999       1.973760    
   2.634240       2.883840       2.766080       2.407680       1.982720    
   1.638400       1.451520       1.419520       1.477120       1.527040    
   1.474560       1.264960      0.8571199      0.2508399     -0.5636801    
  -1.592320      -2.792960      -4.078080      -5.264641      -6.101760    
  -6.309120      -5.656321      -4.043520      -1.578240       1.381120    
   4.326400       6.663679       7.859200       7.619840       6.042879    
   3.567359      0.8524799      -1.446400      -2.812160      -3.078400    
  -2.412800      -1.244160     -0.1121600      0.5475199      0.5318400    
 -0.9164001e-01  -1.044960      -1.967360      -2.540800      -2.604800    
  -2.158080      -1.324800     -0.2910400      0.7278399       1.555200    
   2.082560       2.245120       2.062080       1.614080       1.024640    
  0.4131200     -0.8840001e-01 -0.3942400     -0.4752000     -0.3793600    
 -0.2119600     -0.1005200     -0.1414800     -0.3710400     -0.7456000    
  -1.150560      -1.428480      -1.401600     -0.9664000     -0.1492800    
  0.8835199       1.831680       2.376960       2.259200       1.420800    
  0.6181999e-01  -1.448960      -2.632960      -3.144960      -2.856960    
  -1.876480     -0.4776000      0.9870399       2.210560       3.008000    
   3.288320       3.079679       2.479360       1.623040      0.6654400    
 -0.2794400      -1.103200      -1.743360      -2.165760      -2.385920    
  -2.430720      -2.321920      -2.065920      -1.652480      -1.065600    
 -0.3300800      0.5017599       1.317120       1.999360       2.410240    
   2.464000       2.146560       1.521920      0.7204800     -0.1249200    
 -0.8710400      -1.406720      -1.648640      -1.579520      -1.228480    
 -0.6915201     -0.8288001e-01  0.4694400      0.8641599       1.039360    
  0.9886400      0.7614399      0.4457600      0.1378000     -0.9336001e-01
 -0.2243200     -0.2784800     -0.3034000     -0.3404800     -0.3987200    
 -0.4588800     -0.4891200     -0.4694400     -0.4027200     -0.3055600    
 -0.1939600     -0.6762001e-01  0.8017999e-01  0.2511200      0.4329600    
  0.6052799      0.7399999      0.8062400      0.7673600      0.5919999    
  0.2787600     -0.1243600     -0.5164801     -0.7776001     -0.8294400    
 -0.6728001     -0.3894400     -0.1038000      0.6689999e-01  0.6043000e-01
 -0.1167200     -0.3963200     -0.6676800     -0.8134401     -0.7456000    
 -0.4403200      0.4805999e-01  0.5972799       1.071200       1.356800    
   1.437440       1.338880       1.141440      0.8897599      0.6256000    
  0.3556800      0.7439999e-01 -0.2338800     -0.5870401     -0.9950401    
  -1.445120      -1.856000      -2.103040      -2.046720      -1.601280    
 -0.7904000      0.2166400       1.175360       1.829120       2.030080    
   1.758720       1.164320      0.4684799     -0.8616000e-01 -0.3630400    
 -0.3622400     -0.2085600     -0.7489000e-01 -0.8664000e-01 -0.2614400    
 -0.5091200     -0.6828800     -0.6656001     -0.4297600     -0.5240000e-01
  0.3168399      0.5331199      0.5235199      0.3187200      0.3367999e-01
 -0.1920800     -0.2637200     -0.1681600      0.3636000e-01  0.2603199    
  0.4276800      0.5027199      0.4849600      0.3905600      0.2313200    
  0.6320000e-02 -0.2791600     -0.5947200     -0.8740801      -1.033440    
  -1.003360     -0.7664001     -0.3763200      0.5857000e-01  0.4124799    
  0.6046399      0.6265600      0.5475199      0.4782400      0.5159999    
  0.6918399      0.9431999       1.129440       1.085120      0.7004799    
 -0.1351000e-01 -0.9088000      -1.740800      -2.243840      -2.259200    
  -1.771520     -0.9011201      0.1133200       1.029120       1.649920    
   1.894400       1.758720       1.313280      0.6844800     -0.4160000e-02
 -0.6056000      -1.001920      -1.134880      -1.019680     -0.7374400    
 -0.4032000     -0.1197600      0.5091999e-01  0.1037600      0.7561000e-01
