   1.000004      -10.48448       10.48576      -12345.00       1.000005    
   199.9622       1600.968      -12345.00      -12345.00       2.000000    
  -12345.00      -12345.00      -12345.00      -12345.00      -12345.00    
  -12345.00      -12345.00      -12345.00      -12345.00      -12345.00    
  -12345.00      -12345.00      -12345.00      -12345.00      -12345.00    
  -12345.00      -12345.00      -12345.00      -12345.00      -12345.00    
  -12345.00       44.54832      -74.53001      -12345.00      -12345.00    
   40.30000      -127.0000             0.             0.      -12345.00    
  -12345.00      -12345.00      -12345.00      -12345.00      -12345.00    
  -12345.00      -12345.00      -12345.00      -12345.00      -12345.00    
   4269.287       65.86439       282.5425       38.41450      -12345.00    
  -12345.00     -0.1697883e-02         0.             0.      -12345.00    
  -12345.00      -12345.00      -12345.00      -12345.00      -12345.00    
  -12345.00      -12345.00      -12345.00      -12345.00      -12345.00    
      1984       254         3        14         7
         0         6         0         0      1402
    -12345    -12345    -12345    -12345    -12345
         1        50        11    -12345    -12345
    -12345    -12345        40    -12345    -12345
    -12345    -12345    -12345    -12345    -12345
    -12345    -12345    -12345    -12345    -12345
         1         0         1         1         0
RSNY    EUREKA          
-12345  -12345  -12345  
-12345  -12345  -12345  
-12345  -12345  -12345  
-12345  -12345  -12345  
-12345  -12345  -12345  
-12345  -12345  KL.Z    
RSTN-SAR10/12/84KS-36000
[...]
 -0.1610000e-02 -0.2000000e-02 -0.2330000e-02 -0.2430000e-02 -0.1990000e-02
 -0.1310000e-02 -0.9500000e-03 -0.7300001e-03 -0.1500000e-03  0.5399999e-03
  0.7499999e-03  0.4400000e-03  0.3000000e-04 -0.1700000e-03 -0.4200000e-03
 -0.7800000e-03 -0.1050000e-02 -0.1200000e-02 -0.1320000e-02 -0.1460000e-02
 -0.1510000e-02 -0.1420000e-02 -0.1220000e-02 -0.8800001e-03 -0.4200000e-03
 -0.9000000e-04  0.8000000e-04  0.3599999e-03  0.7000000e-03  0.6400000e-03
  0.2000000e-03 -0.1900000e-03 -0.4600000e-03 -0.8200001e-03 -0.7100001e-03
  0.2600000e-02  0.1382000e-01  0.3340000e-01  0.5471999e-01  0.7547998e-01
  0.9939998e-01  0.1162400      0.1040000      0.5366000e-01 -0.2410000e-01
 -0.1053600     -0.1645600     -0.1903200     -0.1925600     -0.1874800    
 -0.1801200     -0.1675600     -0.1462000     -0.1128000     -0.6810001e-01
 -0.1610000e-01  0.4192000e-01  0.1051600      0.1661600      0.2118800    
  0.2326000      0.2253200      0.1939600      0.1475600      0.9599999e-01
  0.4837999e-01  0.8719999e-02 -0.2385000e-01 -0.5064000e-01 -0.6747000e-01
 -0.6523001e-01 -0.3895000e-01  0.2330000e-02  0.3788999e-01  0.4798000e-01
  0.2521000e-01 -0.1982000e-01 -0.6372000e-01 -0.8564000e-01 -0.7883000e-01
 -0.5165000e-01 -0.1984000e-01  0.4079999e-02  0.1578000e-01  0.1685000e-01
  0.1189000e-01  0.4969999e-02 -0.3020000e-02 -0.1272000e-01 -0.2299000e-01
 -0.3095000e-01 -0.3518000e-01 -0.3566001e-01 -0.3060000e-01 -0.1845000e-01
 -0.7900001e-03  0.1812000e-01  0.3243999e-01  0.3609999e-01  0.2644000e-01
  0.6820000e-02 -0.1437000e-01 -0.2818000e-01 -0.2931000e-01 -0.1913000e-01
 -0.3370000e-02  0.1416000e-01  0.3302000e-01  0.5116999e-01  0.6305999e-01
  0.6284998e-01  0.4776999e-01  0.1980000e-01 -0.1370000e-01 -0.4236000e-01
 -0.5820000e-01 -0.5870000e-01 -0.4493000e-01 -0.2006000e-01  0.1113000e-01
  0.4200999e-01  0.6474999e-01  0.7268000e-01  0.6394999e-01  0.4939000e-01
  0.4741000e-01  0.6086999e-01  0.7665999e-01  0.8576000e-01  0.7989000e-01
  0.3931999e-01 -0.5089001e-01 -0.1824800     -0.3265600     -0.4468800    
 -0.5115200     -0.4990400     -0.4076800     -0.2544800     -0.6694001e-01
  0.1268000      0.3043600      0.4444799      0.5310400      0.5563200    
  0.5228800      0.4358400      0.3091199      0.1630400      0.2081000e-01
 -0.1012800     -0.1891200     -0.2335200     -0.2373200     -0.2132000    
 -0.1744800     -0.1326800     -0.9664001e-01 -0.7001001e-01 -0.5066000e-01
 -0.3433000e-01 -0.1701000e-01  0.3450000e-02  0.2482000e-01  0.4177999e-01
  0.5107000e-01  0.5339999e-01  0.5041000e-01  0.4224999e-01  0.3007000e-01
  0.1720000e-01  0.6349999e-02 -0.5000001e-03 -0.9400001e-03  0.5759999e-02
  0.1656000e-01  0.2697000e-01  0.3428999e-01  0.3676999e-01  0.3363000e-01
  0.2493000e-01  0.9269999e-02 -0.1537000e-01 -0.4795000e-01 -0.8272001e-01
 -0.1104800     -0.1216400     -0.1114800     -0.8312000e-01 -0.4327000e-01
  0.1150000e-02  0.4238000e-01  0.7373999e-01  0.9307998e-01  0.1013200    
  0.9959999e-01  0.8991998e-01  0.7406999e-01  0.5327000e-01  0.3010000e-01
  0.7970000e-02 -0.1123000e-01 -0.2730000e-01 -0.3908000e-01 -0.4563000e-01
 -0.4815000e-01 -0.4780000e-01 -0.4425000e-01 -0.3825000e-01 -0.3354000e-01
 -0.3458000e-01 -0.4349000e-01 -0.5821000e-01 -0.7123001e-01 -0.7395001e-01
 -0.6237000e-01 -0.3814001e-01 -0.7610001e-02  0.2049000e-01  0.3873000e-01
  0.4452000e-01  0.4086000e-01  0.3199000e-01  0.2192000e-01  0.1456000e-01
  0.1180000e-01  0.1426000e-01  0.2259000e-01  0.3552999e-01  0.4859000e-01
  0.5564000e-01  0.5364999e-01  0.4388999e-01  0.3017000e-01  0.1699000e-01
  0.6519999e-02 -0.2790000e-02 -0.1375000e-01 -0.2635000e-01 -0.3748000e-01
 -0.4491001e-01 -0.4833000e-01 -0.4776000e-01 -0.4287000e-01 -0.3309000e-01
 -0.2002000e-01 -0.7340000e-02  0.2410000e-02  0.9179998e-02  0.1467000e-01
  0.2159000e-01  0.3116000e-01  0.4162999e-01  0.4982000e-01  0.5333000e-01
  0.5124000e-01  0.4407000e-01  0.3515000e-01  0.2888000e-01  0.2663000e-01
  0.2590000e-01  0.2276000e-01  0.1388000e-01 -0.1960000e-02 -0.2261000e-01
 -0.4324000e-01 -0.5893000e-01 -0.6576000e-01 -0.6177000e-01 -0.4905000e-01
 -0.3348000e-01 -0.2074000e-01 -0.1425000e-01 -0.1513000e-01 -0.2166000e-01
 -0.2971000e-01 -0.3538001e-01 -0.3588000e-01 -0.3001000e-01 -0.1923000e-01
 -0.5800000e-02  0.9749999e-02  0.2720000e-01  0.4369999e-01  0.5518000e-01
  0.5966000e-01  0.5824000e-01  0.5272000e-01  0.4424000e-01  0.3393000e-01
  0.2218000e-01  0.9119999e-02 -0.4200000e-02 -0.1609000e-01 -0.2536000e-01
 -0.3133000e-01 -0.3438000e-01 -0.3492000e-01 -0.3117000e-01 -0.2137000e-01
 -0.8450001e-02  0.1780000e-02  0.6630000e-02  0.6460000e-02  0.2030000e-02
 -0.5250000e-02 -0.1260000e-01 -0.1834000e-01 -0.2229000e-01 -0.2243000e-01
 -0.1470000e-01  0.3370000e-02  0.2902000e-01  0.5458000e-01  0.7246999e-01
  0.7907999e-01  0.7414000e-01  0.5933999e-01  0.3919999e-01  0.1974000e-01
  0.4779999e-02 -0.5940001e-02 -0.1502000e-01 -0.2365000e-01 -0.3138001e-01
 -0.3825000e-01 -0.4505000e-01 -0.5212000e-01 -0.5740000e-01 -0.5777000e-01
 -0.5220000e-01 -0.4178000e-01 -0.2845000e-01 -0.1413000e-01 -0.9400001e-03
  0.8789999e-02  0.1473000e-01  0.1871000e-01  0.2184000e-01  0.2246000e-01
  0.1768000e-01  0.6829999e-02 -0.7690000e-02 -0.2179000e-01 -0.3127000e-01
 -0.3355000e-01 -0.2802000e-01 -0.1607000e-01 -0.5000001e-03  0.1502000e-01
  0.2687000e-01  0.3354999e-01  0.3601000e-01  0.3675000e-01  0.3893000e-01
  0.4295000e-01  0.4555000e-01  0.4279999e-01  0.3302000e-01  0.1850000e-01
  0.3930000e-02 -0.7000000e-02 -0.1291000e-01 -0.1394000e-01 -0.1102000e-01
 -0.6260000e-02 -0.3710000e-02 -0.7420001e-02 -0.1875000e-01 -0.3435000e-01
 -0.4776000e-01 -0.5450000e-01 -0.5411001e-01 -0.4831000e-01 -0.3998000e-01
 -0.3268000e-01 -0.2819000e-01 -0.2315000e-01 -0.1114000e-01  0.1092000e-01
  0.4127000e-01  0.7686000e-01  0.1128800      0.1410400      0.1522000    
  0.1434000      0.1187600      0.8631998e-01  0.5440000e-01  0.2892000e-01
  0.1202000e-01  0.1020000e-02 -0.6530000e-02 -0.8900000e-02 -0.2160000e-02
  0.1450000e-01  0.3670000e-01  0.5992000e-01  0.8355999e-01  0.1066400    
  0.1216800      0.1170400      0.8379999e-01  0.2093000e-01 -0.6623000e-01
 -0.1698000     -0.2838400     -0.4027200     -0.5156801     -0.6022401    
 -0.6465601     -0.6532800     -0.6427200     -0.6292801     -0.6121601    
 -0.5841601     -0.5403200     -0.4784000     -0.3961600     -0.2904800    
 -0.1549200      0.1557000e-01  0.2185600      0.4444799      0.6822399    
  0.9182400       1.139840       1.320960       1.472000       1.571840    
   1.619200       1.611520       1.546240       1.420800       1.247680    
   1.007840      0.7254399      0.4177600      0.1027600     -0.2090400    
 -0.5113600     -0.8022400      -1.076800      -1.322240      -1.530880    
  -1.690880      -1.793280      -1.836800      -1.825280      -1.767680    
  -1.662720      -1.511680      -1.317120      -1.087360     -0.8192000    
 -0.5206400     -0.1995600      0.1308000      0.4545600      0.7579199    
   1.026080       1.247680       1.402880       1.511680       1.551360    
   1.521920       1.423360       1.276640       1.072480      0.8412799    
  0.6007999      0.3656000      0.1479600     -0.4426000e-01 -0.2050400    
 -0.3350400     -0.4401600     -0.5260800     -0.5955200     -0.6475201    
 -0.6779200     -0.6804800     -0.6518401     -0.5955200     -0.5204800    
 -0.4358400     -0.3494400     -0.2656000     -0.1839600     -0.1004800    
 -0.1054000e-01  0.8423999e-01  0.1755200      0.2518800      0.3038800    
  0.3270800      0.3233200      0.2980400      0.2586800      0.2139600    
  0.1712800      0.1355600      0.1088000      0.8987999e-01  0.7493000e-01
  0.5679999e-01  0.2888000e-01 -0.1122000e-01 -0.5989000e-01 -0.1086000    
 -0.1478800     -0.1717200     -0.1793200     -0.1730400     -0.1546000    
 -0.1253200     -0.8844000e-01 -0.4866000e-01 -0.9510001e-02  0.2595000e-01
  0.5552000e-01  0.8142999e-01  0.1086000      0.1382800      0.1645200    
  0.1786800      0.1728400      0.1418800      0.8663999e-01  0.1810000e-01
 -0.4715000e-01 -0.9704000e-01 -0.1286400     -0.1429600     -0.1404000    
 -0.1227600     -0.9160000e-01 -0.4537001e-01  0.1711000e-01  0.8904000e-01
  0.1539200      0.1924400      0.1912400      0.1459200      0.6169000e-01
 -0.4764000e-01 -0.1615200     -0.2578400     -0.3183200     -0.3320000    
 -0.2969600     -0.2186000     -0.1111200      0.6440000e-02  0.1143200    
  0.1935600      0.2276800      0.2096800      0.1474400      0.6255999e-01
 -0.1687000e-01 -0.6426001e-01 -0.6399001e-01 -0.1283000e-01  0.8307999e-01
  0.2082400      0.3385600      0.4507200      0.5198399      0.5230399    
  0.4416000      0.2745200      0.3765000e-01 -0.2371200     -0.5128001    
 -0.7540801     -0.9329600      -1.033600      -1.054240      -1.003680    
 -0.8940800     -0.7372800     -0.5428801     -0.3142800     -0.5285000e-01
  0.2329200      0.5238400      0.7974399       1.028640       1.197120    
   1.290400       1.304000       1.237280       1.092320      0.8748800    
  0.5993599      0.2910799     -0.1942000e-01 -0.2956401     -0.5084801    
 -0.6454401     -0.7083200     -0.7080001     -0.6592001     -0.5755200    
 -0.4652800     -0.3345600     -0.1959600     -0.7070000e-01  0.1812000e-01
  0.5400000e-01  0.3067000e-01 -0.4585000e-01 -0.1564800     -0.2711600    
 -0.3544000     -0.3752000     -0.3163200     -0.1803600      0.7979998e-02
  0.2088400      0.3755199      0.4678400      0.4609600      0.3588800    
  0.1956800      0.1947000e-01 -0.1226800     -0.1995200     -0.2019600    
 -0.1419600     -0.4470000e-01  0.6212000e-01  0.1566800      0.2258800    
  0.2624400      0.2597200      0.2081200      0.9791999e-01 -0.7131000e-01
 -0.2819200     -0.4972800     -0.6716801     -0.7630401     -0.7448001    
 -0.6110400     -0.3748800     -0.6873001e-01  0.2614800      0.5608000    
  0.7801600      0.8833599      0.8588799      0.7236799      0.5171199    
  0.2878399      0.7649998e-01 -0.8992000e-01 -0.2049200     -0.2797200    
 -0.3339200     -0.3838400     -0.4323200     -0.4697600     -0.4790400    
 -0.4438400     -0.3537600     -0.2077200     -0.1885000e-01  0.1850800    
  0.3710400      0.5142399      0.5995200      0.6233599      0.5948800    
  0.5308800      0.4451200      0.3428800      0.2227600      0.8109999e-01
 -0.7844001e-01 -0.2438000     -0.3944000     -0.5075201     -0.5654401    
 -0.5596801     -0.4944000     -0.3864000     -0.2627600     -0.1522800    
 -0.7973000e-01 -0.5916000e-01 -0.8888000e-01 -0.1500800     -0.2102800    
 -0.2333600     -0.1939600     -0.9168001e-01  0.4649000e-01  0.1758000    
  0.2513599      0.2447200      0.1552000      0.6709999e-02 -0.1647200    
 -0.3229200     -0.4390400     -0.4945600     -0.4808000     -0.3980800    
 -0.2531200     -0.5712000e-01  0.1699200      0.4001600      0.6078399    
  0.7729599      0.8886399      0.9595199      0.9977599       1.018240    
   1.028960       1.030080       1.017280      0.9860799      0.9355199    
  0.8697599      0.7964799      0.7243199      0.6563200      0.5859200    
  0.4984000      0.3801600      0.2240000      0.3060000e-01 -0.1896800    
 -0.4246400     -0.6670400     -0.9155201      -1.167200      -1.408000    
  -1.621760      -1.785600      -1.880320      -1.904640      -1.868800    
  -1.797120      -1.715200      -1.639680      -1.582080      -1.537280    
  -1.489920      -1.419520      -1.313280      -1.163200     -0.9652801    
 -0.7332801     -0.4827200     -0.2273600      0.2276000e-01  0.2597600    
  0.4779199      0.6775999      0.8615999       1.036960       1.212480    
   1.386240       1.592320       1.817600       2.050560       2.266880    
   2.444800       2.571520       2.641920       2.659840       2.634240    
   2.565120       2.453760       2.295040       2.087680       1.831680    
   1.528320       1.190560      0.7964799      0.3665600     -0.9136000e-01
 -0.5702400      -1.057600      -1.533440      -1.985280      -2.396160    
  -2.753280      -3.048960      -3.270400      -3.416320      -3.484160    
  -3.488000      -3.450880      -3.392000      -3.320320      -3.217920    
  -3.043840      -2.750720      -2.298880      -1.685760     -0.9395200    
 -0.1143600      0.7193599       1.495040       2.209280       2.837759    
   3.381760       3.845119       4.223999       4.519679       4.727039    
   4.826880       4.788480       4.587520       4.204800       3.656960    
   2.978559       2.225920       1.443840      0.6745600     -0.9500000e-01
 -0.8628800      -1.642240      -2.448640      -3.267840      -4.056320    
  -4.744961      -5.255680      -5.542400      -5.591041      -5.433600    
  -5.123840      -4.710401      -4.216320      -3.632640      -2.936320    
  -2.109440      -1.161440     -0.1184400      0.9460800       1.940480    
   2.835200       3.605760       4.272639       4.869120       5.405439    
   5.854719       6.151679       6.211840       5.983999       5.466880    
   4.710400       3.799040       2.813440       1.811200      0.8065599    
 -0.2422800      -1.338880      -2.480640      -3.627520      -4.714240    
  -5.665280      -6.423040      -6.947841      -7.226880      -7.255040    
  -7.029760      -6.548480      -5.821441      -4.864000      -3.687680    
  -2.301440     -0.7216001       1.023360       2.831360       4.627199    
   6.265599       7.619840       8.586239       9.114880       9.199358    
   8.866558       8.129278       7.004159       5.518080       3.731200    
   1.738240     -0.3199600      -2.304000      -4.071680      -5.533441    
  -6.658561      -7.456000      -7.961600      -8.202240      -8.181761    
  -7.887361      -7.294721      -6.385921      -5.166080      -3.667200    
  -1.963520     -0.1392000       1.685760       3.426559       4.986879    
   6.301439       7.322880       8.008959       8.316158       8.218880    
   7.706880       6.799359       5.548800       4.032000       2.348800    
  0.6028799      -1.144640      -2.800640      -4.311040      -5.596160    
  -6.571520      -7.152640      -7.280641      -6.946560      -6.206720    
  -5.182720      -4.019200      -2.851840      -1.772800     -0.8195200    
  0.1926000e-01  0.7764800       1.495040       2.246400       3.052800    
   3.912960       4.799999       5.644799       6.346239       6.780159    
   6.822399       6.384640       5.434879       4.015360       2.220800    
  0.1962400      -1.921280      -3.953920      -5.748481      -7.159040    
  -8.074242      -8.442881      -8.277761      -7.641601      -6.617600    
  -5.291520      -3.733760      -1.991680     -0.1009200       1.885440    
   3.916800       5.879040       7.621120       8.956160       9.695999    
   9.717758       8.926720       7.294720       4.954880       2.172160    
 -0.7193600      -3.404800      -5.619201      -7.192320      -8.055040    
  -8.244480      -7.874560      -7.102720      -6.082561      -4.928000    
  -3.704320      -2.429440      -1.092160      0.3420799       1.868800    
   3.507200       5.212159       6.895359       8.405758       9.525759    
   10.02240       9.708799       8.349440       5.848319       2.479360    
  -1.224640      -4.812800      -8.043520      -10.48448      -10.48448    
  -10.48448      -10.48448      -7.898880      -4.116481     -0.1012400    
   3.727360       7.124479       9.756159       10.48576       10.48576    
   9.795839       6.965759       3.256320     -0.6915201      -4.473600    
  -7.808001      -10.29504      -10.48448      -10.48448      -8.697601    
  -5.374721      -1.561600       2.225920       5.506559       7.672319    
   8.303358       7.420159       5.336319       2.600960     -0.1314000    
  -2.316800      -3.619840      -3.988480      -3.591680      -2.734080    
  -1.738240     -0.8499200     -0.1913600      0.2274000      0.4721600    
  0.6238400      0.7263999      0.7785599      0.7505599      0.6155199    
  0.3763199      0.7749999e-01 -0.2078400     -0.4009600     -0.4518400    
 -0.3520000     -0.1336000      0.1422000      0.3992000      0.5625600    
  0.5681599      0.3833600      0.3127000e-01 -0.4006400     -0.7681600    
 -0.9182401     -0.7480000     -0.2560800      0.4388800       1.132000    
   1.589760       1.687040       1.377280      0.7540799     -0.3181000e-01
 -0.7660800      -1.272480      -1.443840      -1.274880     -0.8310400    
 -0.2482000      0.3198000      0.7323200      0.8988799      0.7944000    
  0.4638399      0.6200000e-02 -0.4584000     -0.8179201     -0.9980800    
 -0.9713601     -0.7459201     -0.3526400      0.1599600      0.7175999    
   1.222400       1.543680       1.611520       1.368320      0.8827199    
  0.2662799     -0.3029600     -0.6988801     -0.8870400     -0.9179200    
 -0.8833600     -0.8582400     -0.8601600     -0.8476801     -0.7547201    
 -0.5382401     -0.2111600      0.1564400      0.4687999      0.6550399    
  0.7024000      0.6620799      0.6139200      0.6070399      0.6243199    
  0.5881599      0.4131200      0.6980999e-01 -0.3803200     -0.7916801    
  -1.001600     -0.9070400     -0.5216000      0.2075000e-01  0.5175999    
  0.7934399      0.7756799      0.5256000      0.1985200     -0.4195000e-01
 -0.1033200     -0.8760002e-02  0.1226000      0.1478800     -0.1708000e-01
 -0.3491200     -0.7257600     -0.9822401     -0.9846400     -0.6916801    
 -0.1756400      0.4035200      0.8620800       1.063680      0.9676799    
  0.6343999      0.1893200     -0.2317600     -0.5254401     -0.6524800    
 -0.6382401     -0.5475200     -0.4444800     -0.3579200     -0.2677600    
 -0.1240800      0.1144000      0.4420800      0.7940799       1.062720    
   1.146560      0.9987199      0.6536000      0.2112000     -0.2085200    
 -0.5134400     -0.6744001     -0.7192000     -0.6992000     -0.6515200    
 -0.5774400     -0.4558400     -0.2703200     -0.3307001e-01  0.2096800    
  0.3942400      0.4672000      0.4064000      0.2365200      0.2230000e-01
 -0.1489200     -0.2019600    
