  0.2500010      -4.875521       4.976640      -12345.00      0.2500011    
   199.8622       1600.118      -12345.00      -12345.00       2.000000    
  -12345.00      -12345.00      -12345.00      -12345.00      -12345.00    
  -12345.00      -12345.00      -12345.00      -12345.00      -12345.00    
  -12345.00      -12345.00      -12345.00      -12345.00      -12345.00    
  -12345.00      -12345.00      -12345.00      -12345.00      -12345.00    
  -12345.00       44.54832      -74.53001      -12345.00      -12345.00    
   40.30000      -127.0000             0.             0.      -12345.00    
  -12345.00      -12345.00      -12345.00      -12345.00      -12345.00    
  -12345.00      -12345.00      -12345.00      -12345.00      -12345.00    
   4269.287       65.86439       282.5425       38.41450      -12345.00    
  -12345.00     -0.8851129e-03   90.00000       90.00000      -12345.00    
  -12345.00      -12345.00      -12345.00      -12345.00      -12345.00    
  -12345.00      -12345.00      -12345.00      -12345.00      -12345.00    
      1984       254         3        14         7
         0         6         0         0      5602
    -12345    -12345    -12345    -12345    -12345
         1        50        11    -12345    -12345
    -12345    -12345        40    -12345    -12345
    -12345    -12345    -12345    -12345    -12345
    -12345    -12345    -12345    -12345    -12345
         1         0         1         1         0
RSNY    EUREKA          
-12345  -12345  -12345  
-12345  -12345  -12345  
-12345  -12345  -12345  
-12345  -12345  -12345  
-12345  -12345  -12345  
-12345  -12345  KM.E    
RSTN-SAR10/12/84KS-36000
[...]
  0.1395200      0.1565200      0.1663600      0.1733600      0.1863200    
  0.2135200      0.2592400      0.3214800      0.3934399      0.4684799    
  0.5403199      0.6028799      0.6518400      0.6878399      0.7123200    
  0.7294400      0.7427199      0.7548800      0.7649599      0.7679999    
  0.7548800      0.7228799      0.6774399      0.6248000      0.5647999    
  0.4966400      0.4243200      0.3494400      0.2720000      0.1924800    
  0.1122800      0.3369000e-01 -0.3624000e-01 -0.9112000e-01 -0.1309600    
 -0.1557200     -0.1656000     -0.1654400     -0.1592000     -0.1466000    
 -0.1272800     -0.1003600     -0.6398001e-01 -0.1718000e-01  0.3839000e-01
  0.9955999e-01  0.1620400      0.2186400      0.2625600      0.2905999    
  0.3054799      0.3116800      0.3102400      0.3015200      0.2884800    
  0.2721599      0.2494000      0.2151600      0.1655600      0.1019200    
  0.3074000e-01 -0.4188000e-01 -0.1108000     -0.1699200     -0.2172000    
 -0.2590400     -0.3026400     -0.3476800     -0.3912000     -0.4374400    
 -0.4886400     -0.5404800     -0.5896001     -0.6363200     -0.6817601    
 -0.7259201     -0.7654400     -0.7956800     -0.8140800     -0.8198401    
 -0.8150400     -0.8041600     -0.7900801     -0.7726400     -0.7502401    
 -0.7198400     -0.6785600     -0.6296000     -0.5796801     -0.5323200    
 -0.4875200     -0.4448000     -0.4060800     -0.3700800     -0.3368000    
 -0.3106800     -0.2955600     -0.2868800     -0.2789200     -0.2715600    
 -0.2683600     -0.2710800     -0.2804800     -0.2980800     -0.3244800    
 -0.3590400     -0.3982400     -0.4387200     -0.4785600     -0.5158401    
 -0.5472001     -0.5692800     -0.5790401     -0.5760001     -0.5617601    
 -0.5382401     -0.5048001     -0.4616000     -0.4110400     -0.3526400    
 -0.2846400     -0.2084000     -0.1249600     -0.3808000e-01  0.5027000e-01
  0.1436800      0.2454800      0.3540800      0.4683200      0.5855999    
  0.7009599      0.8083199      0.9023999      0.9790399       1.034560    
   1.068800       1.083040       1.078560       1.057120       1.023840    
  0.9841599      0.9382399      0.8825599      0.8159999      0.7411200    
  0.6600000      0.5764799      0.4937599      0.4121600      0.3310400    
  0.2537200      0.1844000      0.1257200      0.7701999e-01  0.3587999e-01
  0.3290000e-02 -0.1569000e-01 -0.1551000e-01  0.5179999e-02  0.4373000e-01
  0.9735999e-01  0.1638400      0.2381600      0.3164400      0.3955200    
  0.4699200      0.5319999      0.5790399      0.6129600      0.6343999    
  0.6406399      0.6302400      0.6060799      0.5735999      0.5345600    
  0.4891199      0.4374400      0.3817599      0.3259600      0.2731600    
  0.2245600      0.1785600      0.1338000      0.9203999e-01  0.5469000e-01
  0.1899000e-01 -0.1994000e-01 -0.6468001e-01 -0.1120800     -0.1576400    
 -0.1982000     -0.2278400     -0.2374400     -0.2188800     -0.1721200    
 -0.1053600     -0.2683000e-01  0.5739000e-01  0.1416800      0.2214800    
  0.2892799      0.3350400      0.3555200      0.3524799      0.3286400    
  0.2891600      0.2373200      0.1719200      0.9195998e-01  0.4240000e-02
 -0.8404000e-01 -0.1736000     -0.2692800     -0.3729600     -0.4817600    
 -0.5940801     -0.7067200     -0.8164800     -0.9196800      -1.011040    
  -1.087520      -1.147520      -1.185280      -1.196320      -1.183200    
  -1.150880      -1.101120      -1.034240     -0.9528000     -0.8600000    
 -0.7598400     -0.6561600     -0.5540800     -0.4590400     -0.3734400    
 -0.2950400     -0.2233600     -0.1628400     -0.1184800     -0.8940001e-01
 -0.7394001e-01 -0.7313001e-01 -0.8928001e-01 -0.1252800     -0.1832800    
 -0.2611200     -0.3536000     -0.4547200     -0.5609601     -0.6662401    
 -0.7635200     -0.8464000     -0.9110401     -0.9550400     -0.9774400    
 -0.9792000     -0.9654400     -0.9425601     -0.9121600     -0.8699200    
 -0.8110400     -0.7334400     -0.6390400     -0.5328001     -0.4169600    
 -0.2911200     -0.1568400     -0.1673000e-01  0.1250800      0.2660000    
  0.4033599      0.5358399      0.6620799      0.7792000      0.8836799    
  0.9731200       1.048320       1.109280       1.156640       1.193600    
   1.224000       1.249920       1.272960       1.292960       1.307840    
   1.308160       1.306240       1.288320       1.260960       1.224800    
   1.184480       1.144320       1.107680       1.077120       1.052960    
   1.033920       1.015360      0.9932799      0.9651200      0.9318399    
  0.8928000      0.8457599      0.7913599      0.7319999      0.6694399    
  0.6071999      0.5494399      0.4984000      0.4571199      0.4272000    
  0.4059200      0.3900800      0.3785599      0.3710400      0.3673599    
  0.3640000      0.3584000      0.3489600      0.3324800      0.3041599    
  0.2616000      0.2052800      0.1362800      0.5375999e-01 -0.4521000e-01
 -0.1584800     -0.2779200     -0.3963200     -0.5097600     -0.6172800    
 -0.7164800     -0.8064001     -0.8875201     -0.9596801      -1.021600    
  -1.073760      -1.115680      -1.145760      -1.164000      -1.169920    
  -1.162560      -1.143680      -1.114080      -1.072320      -1.017280    
 -0.9497601     -0.8745600     -0.7988800     -0.7264000     -0.6571200    
 -0.5947200     -0.5467200     -0.5152000     -0.4974400     -0.4891200    
 -0.4872000     -0.4920000     -0.5056001     -0.5296000     -0.5646400    
 -0.6115201     -0.6689601     -0.7320000     -0.7942400     -0.8518400    
 -0.9025600     -0.9420800     -0.9649600     -0.9678401     -0.9483200    
 -0.9046401     -0.8384000     -0.7520001     -0.6491201     -0.5326401    
 -0.4027200     -0.2587200     -0.1076400      0.4232000e-01  0.1868000    
  0.3267599      0.4603199      0.5830399      0.6900799      0.7775999    
  0.8409599      0.8791999      0.8929600      0.8822399      0.8468800    
  0.7907199      0.7204800      0.6428800      0.5635200      0.4862400    
  0.4124799      0.3475199      0.2993200      0.2718000      0.2628800    
  0.2666399      0.2770000      0.2927999      0.3162000      0.3459200    
  0.3807999      0.4240000      0.4780800      0.5408000      0.6084800    
  0.6788800      0.7503999      0.8195199      0.8835199      0.9404799    
  0.9876800       1.024320       1.048800       1.058240       1.046880    
   1.013440      0.9615999      0.8953599      0.8183999      0.7327999    
  0.6411200      0.5472000      0.4563200      0.3720000      0.2986000    
  0.2390400      0.1930000      0.1564000      0.1262000      0.1001600    
  0.7411999e-01  0.4405999e-01  0.1140000e-01 -0.2027000e-01 -0.4840000e-01
 -0.7017000e-01 -0.8408001e-01 -0.9216000e-01 -0.9704000e-01 -0.1005600    
 -0.1052000     -0.1146000     -0.1324800     -0.1581600     -0.1882000    
 -0.2204000     -0.2534800     -0.2864000     -0.3180000     -0.3460800    
 -0.3689600     -0.3904000     -0.4128000     -0.4353600     -0.4588800    
 -0.4849600     -0.5145601     -0.5502400     -0.5916801     -0.6336000    
 -0.6732800     -0.7131200     -0.7528000     -0.7900801     -0.8273600    
 -0.8659201     -0.9009601     -0.9300801     -0.9544001     -0.9756800    
 -0.9947200      -1.009280      -1.017280      -1.021920      -1.027520    
  -1.033280      -1.037440      -1.039520      -1.038560      -1.031680    
  -1.016000     -0.9920000     -0.9617600     -0.9248000     -0.8793601    
 -0.8236800     -0.7571200     -0.6804800     -0.5968001     -0.5072000    
 -0.4113600     -0.3096800     -0.2065200     -0.1050400     -0.7970002e-02
  0.8435999e-01  0.1758800      0.2719200      0.3767999      0.4934400    
  0.6235199      0.7694399      0.9307200       1.102720       1.277920    
   1.441280       1.593600       1.717760       1.807360       1.859840    
   1.877760       1.863680       1.820160       1.754880       1.669120    
   1.565440       1.443840       1.305920       1.146880      0.9782399    
  0.8012799      0.6174399      0.4308800      0.2449200      0.5851000e-01
 -0.1291200     -0.3144400     -0.4915200     -0.6536001     -0.7958400    
 -0.9129601     -0.9987201      -1.047840      -1.057920      -1.030720    
 -0.9704000     -0.8816000     -0.7697600     -0.6377600     -0.4870400    
 -0.3248000     -0.1599200      0.4050000e-02  0.1630400      0.3128400    
  0.4511999      0.5785599      0.6956799      0.8033599      0.9015999    
  0.9883199       1.060160       1.118080       1.164640       1.198720    
   1.217760       1.223200       1.214080       1.189760       1.152800    
   1.105760       1.048000      0.9793599      0.9000000      0.8072000    
  0.6990399      0.5782399      0.4478400      0.3110800      0.1708800    
  0.2913000e-01 -0.1136800     -0.2554801     -0.3984000     -0.5454401    
 -0.6961601     -0.8494400      -1.008160      -1.175200      -1.351680    
  -1.532160      -1.715200      -1.895680      -2.071040      -2.238720    
  -2.388480      -2.515200      -2.612480      -2.680320      -2.717440    
  -2.720000      -2.688000      -2.617600      -2.513920      -2.383360    
  -2.227200      -2.041600      -1.827840      -1.588480      -1.328640    
  -1.052160     -0.7688000     -0.4849600     -0.2060800      0.5847999e-01
  0.3035200      0.5272000      0.7284800      0.9059199       1.058880    
   1.187360       1.291680       1.365760       1.422080       1.461760    
   1.486080       1.500160       1.507840       1.512960       1.515520    
   1.515520       1.507840       1.492480       1.475840       1.456640    
   1.432320       1.402880       1.365760       1.315840       1.257760    
   1.182240       1.094400      0.9916799      0.8734399      0.7427199    
  0.6070399      0.4742399      0.3497599      0.2381600      0.1457200    
  0.7938999e-01  0.4365999e-01  0.4314999e-01  0.8036000e-01  0.1518400    
  0.2506000      0.3683200      0.4974400      0.6310400      0.7625599    
  0.8859199      0.9950399       1.083680       1.149440       1.192960    
   1.214880       1.214560       1.189440       1.137760       1.061280    
  0.9649599      0.8519999      0.7228799      0.5788800      0.4216000    
  0.2506000      0.6546000e-01 -0.1325200     -0.3433600     -0.5667200    
 -0.7982401      -1.030400      -1.258720      -1.479680      -1.680640    
  -1.859840      -2.012160      -2.141440      -2.247680      -2.334720    
  -2.401280      -2.447360      -2.475520      -2.480640      -2.462720    
  -2.416640      -2.342400      -2.242560      -2.122240      -1.987840    
  -1.844480      -1.694720      -1.532160      -1.358080      -1.169440    
 -0.9763200     -0.7830400     -0.5902400     -0.3974400     -0.2056000    
 -0.1527000e-01  0.1743600      0.3603200      0.5379199      0.7038399    
  0.8551999      0.9899199       1.106560       1.206720       1.294720    
   1.367040       1.434880       1.489920       1.536000       1.569280    
   1.588480       1.592320       1.583360       1.562880       1.527040    
   1.479680       1.413120       1.333760       1.249280       1.150080    
   1.042240      0.9259199      0.8027200      0.6750399      0.5462400    
  0.4204800      0.3008000      0.1890800      0.8591999e-01 -0.9540001e-02
 -0.9664001e-01 -0.1730800     -0.2376000     -0.2877600     -0.3201200    
 -0.3332800     -0.3250800     -0.2974401     -0.2533600     -0.1962000    
 -0.1269200     -0.4650000e-01  0.4262000e-01  0.1376000      0.2364000    
  0.3369600      0.4384000      0.5391999      0.6382400      0.7319999    
  0.8177599      0.8913599      0.9486399      0.9859200       1.003520    
   1.001120      0.9758400      0.9257599      0.8494399      0.7475200    
  0.6230400      0.4822400      0.3305600      0.1706400      0.3560000e-02
 -0.1676800     -0.3395200     -0.5088000     -0.6732800     -0.8272001    
 -0.9644800      -1.084160      -1.189600      -1.290240      -1.396480    
  -1.506560      -1.620480      -1.739520      -1.868800      -2.004480    
  -2.147840      -2.296320      -2.448640      -2.598400      -2.735360    
  -2.856960      -2.955520      -3.029760      -3.069440      -3.072000    
  -3.029760      -2.938880      -2.798080      -2.604800      -2.360320    
  -2.064640      -1.726720      -1.346560     -0.9313600     -0.4923200    
 -0.3380001e-01  0.4395199      0.9241599       1.408000       1.896960    
   2.375679       2.836480       3.266560       3.660800       4.015360    
   4.325119       4.583679       4.778239       4.908799       4.974079    
   4.976640       4.916479       4.801279       4.636159       4.427520    
   4.183040       3.907840       3.605760       3.278080       2.928640    
   2.561280       2.181120       1.788160       1.382400      0.9814399    
  0.5796800      0.1899200     -0.1875600     -0.5552001     -0.9110401    
  -1.256320      -1.592320      -1.914880      -2.227200      -2.531840    
  -2.828800      -3.118080      -3.395840      -3.658240      -3.896320    
  -4.106240      -4.280320      -4.416000      -4.510720      -4.559361    
  -4.563200      -4.524800      -4.446720      -4.327681      -4.166400    
  -3.961600      -3.714560      -3.424000      -3.100160      -2.745600    
  -2.368000      -1.975040      -1.571840      -1.163840     -0.7632000    
 -0.3764800     -0.7710001e-02  0.3398399      0.6668799      0.9711999    
   1.255040       1.516800       1.766400       2.001920       2.223360    
   2.434560       2.631680       2.826240       3.019520       3.207680    
   3.394560       3.576320       3.745280       3.898880       4.029439    
   4.135679       4.209919       4.247040       4.240640       4.185599    
   4.081920       3.929600       3.728640       3.479040       3.183360    
   2.840320       2.453760       2.021120       1.547520       1.046400    
  0.5092800     -0.4492000e-01 -0.6052800      -1.164160      -1.716480    
  -2.250240      -2.754560      -3.221760      -3.640320      -4.006400    
  -4.312321      -4.552960      -4.728320      -4.837120      -4.875521    
  -4.843520      -4.738561      -4.563200      -4.320001      -4.011520    
  -3.644160      -3.225600      -2.764800      -2.272000      -1.756160    
  -1.222240     -0.6816001     -0.1437600      0.3771200      0.8758399    
   1.345280       1.793280       2.204160       2.570240       2.887680    
   3.150080       3.353600       3.495680       3.567359       3.566080    
   3.493120       3.348480       3.138560       2.868480       2.551040    
   2.188800       1.794560       1.376000      0.9539199      0.5278399    
  0.1168800     -0.2682400     -0.6206400     -0.9305600      -1.189760    
  -1.397760      -1.551360      -1.653760      -1.706240      -1.713920    
  -1.678080      -1.598720      -1.483520      -1.337600      -1.172000    
 -0.9953600     -0.8096000     -0.6179200     -0.4244800     -0.2330800    
 -0.4979000e-01  0.1211200      0.2754000      0.4062400      0.5079999    
  0.5766399      0.6092799      0.6062399      0.5721599      0.5129600    
  0.4329600      0.3353600      0.2219200      0.9543999e-01 -0.3907000e-01
 -0.1762800     -0.3105600     -0.4379200     -0.5545601     -0.6585600    
 -0.7473600     -0.8185600     -0.8694401     -0.8976001     -0.9011201    
 -0.8761600     -0.8217601     -0.7425600     -0.6435200     -0.5265601    
 -0.3950400     -0.2540800     -0.1072400      0.4443000e-01  0.1980000    
  0.3516800      0.5046400      0.6523199      0.7891200      0.9105599    
   1.015200       1.100000       1.158720       1.185120       1.176960    
   1.134720       1.058720      0.9515200      0.8182399      0.6647999    
  0.4984000      0.3271999      0.1592000      0.1110000e-02 -0.1428800    
 -0.2683600     -0.3726400     -0.4534400     -0.5113600     -0.5465600    
 -0.5593600     -0.5497601     -0.5171200     -0.4646400     -0.3968000    
 -0.3170800     -0.2292800     -0.1356400     -0.4051001e-01  0.4802000e-01
  0.1202800      0.1712800      0.2031200      0.2202400      0.2255200    
  0.2212400      0.2104000      0.1952400      0.1763200      0.1549200    
  0.1347600      0.1197200      0.1144800      0.1220400      0.1414400    
  0.1700000      0.2056800      0.2470400      0.2926400      0.3411199    
  0.3923200      0.4425600      0.4848000      0.5120000      0.5204799    
  0.5095999      0.4761599      0.4177600      0.3361599      0.2330800    
  0.1084800     -0.3610000e-01 -0.1989200     -0.3764800     -0.5608001    
 -0.7441601     -0.9200001      -1.083200      -1.229120      -1.354240    
  -1.448960      -1.512960      -1.541120      -1.534720      -1.486080    
  -1.402880      -1.286880      -1.146560     -0.9849601     -0.8059200    
 -0.6129601     -0.4080000     -0.1932800      0.2552000e-01  0.2433200    
  0.4552000      0.6566399      0.8419199       1.006080       1.144000    
   1.253920       1.328640       1.381120       1.402880       1.396480    
   1.365760       1.312000       1.244320       1.153120       1.045760    
  0.9241599      0.7910399      0.6478399      0.4955199      0.3355200    
  0.1687200     -0.3280000e-02 -0.1750800     -0.3401600     -0.4928000    
 -0.6304001     -0.7480000     -0.8433601     -0.9179200     -0.9736000    
  -1.011840      -1.033920      -1.041760      -1.037920      -1.024000    
 -0.9984001     -0.9582400     -0.9012800     -0.8281600     -0.7403201    
 -0.6393601     -0.5240000     -0.3939200     -0.2513600     -0.9904000e-01
  0.6108999e-01  0.2234800      0.3841600      0.5408000      0.6889600    
  0.8252800      0.9438399       1.039520       1.111360       1.161120    
   1.188960       1.195840       1.182560       1.149600       1.097600    
   1.029280      0.9476799      0.8550400      0.7513599      0.6387199    
  0.5196799      0.3960000      0.2688000      0.1412400      0.1580000e-01
 -0.1054800     -0.2196800     -0.3273600     -0.4305600     -0.5278400    
 -0.6166401     -0.6916801     -0.7507200     -0.7969600     -0.8347200    
