  0.2500010      -6.871040       5.955839      -12345.00      0.2500011    
   199.8622       1600.118      -12345.00      -12345.00       2.000000    
  -12345.00      -12345.00      -12345.00      -12345.00      -12345.00    
  -12345.00      -12345.00      -12345.00      -12345.00      -12345.00    
  -12345.00      -12345.00      -12345.00      -12345.00      -12345.00    
  -12345.00      -12345.00      -12345.00      -12345.00      -12345.00    
  -12345.00       44.54832      -74.53001      -12345.00      -12345.00    
   40.30000      -127.0000             0.             0.      -12345.00    
  -12345.00      -12345.00      -12345.00      -12345.00      -12345.00    
  -12345.00      -12345.00      -12345.00      -12345.00      -12345.00    
   4269.287       65.86439       282.5425       38.41450      -12345.00    
  -12345.00     -0.2038036e-02         0.       90.00000      -12345.00    
  -12345.00      -12345.00      -12345.00      -12345.00      -12345.00    
  -12345.00      -12345.00      -12345.00      -12345.00      -12345.00    
      1984       254         3        14         7
         0         6         0         0      5602
    -12345    -12345    -12345    -12345    -12345
         1        50        11    -12345    -12345
    -12345    -12345        40    -12345    -12345
    -12345    -12345    -12345    -12345    -12345
    -12345    -12345    -12345    -12345    -12345
         1         0         1         1         0
RSNY    EUREKA          
-12345  -12345  -12345  
-12345  -12345  -12345  
-12345  -12345  -12345  
-12345  -12345  -12345  
-12345  -12345  -12345  
-12345  -12345  KM.N    
RSTN-SAR10/12/84KS-36000
[...]
 -0.4816000     -0.4283200     -0.3540800     -0.2572400     -0.1414800    
 -0.1150000e-01  0.1255200      0.2645600      0.4020799      0.5391999    
  0.6734400      0.7979199      0.9038399      0.9860799       1.044000    
   1.078240       1.090080       1.080960       1.054560       1.018240    
  0.9761599      0.9273599      0.8732799      0.8216000      0.7763199    
  0.7364799      0.7036799      0.6835200      0.6774399      0.6812799    
  0.6881599      0.6907200      0.6862400      0.6759999      0.6615999    
  0.6470399      0.6415999      0.6547199      0.6872000      0.7334399    
  0.7815999      0.8212799      0.8491199      0.8662399      0.8732799    
  0.8721600      0.8660799      0.8585600      0.8527999      0.8521600    
  0.8576000      0.8699199      0.8902400      0.9166399      0.9475199    
  0.9814399       1.017280       1.051680       1.079680       1.097920    
   1.104800       1.100480       1.086080       1.060480       1.022080    
  0.9703999      0.9052799      0.8246399      0.7235199      0.5988799    
  0.4511999      0.2870800      0.1157200     -0.5301000e-01 -0.2150800    
 -0.3697600     -0.5140800     -0.6457601     -0.7614400     -0.8568001    
 -0.9281601     -0.9768001      -1.005120      -1.015840      -1.014720    
  -1.009280      -1.003840     -0.9984001     -0.9892800     -0.9756800    
 -0.9576000     -0.9358400     -0.9110401     -0.8857601     -0.8630401    
 -0.8433601     -0.8270401     -0.8124801     -0.7947201     -0.7713600    
 -0.7473600     -0.7300800     -0.7240001     -0.7240001     -0.7232001    
 -0.7240001     -0.7323201     -0.7496001     -0.7752000     -0.8073601    
 -0.8408000     -0.8723201     -0.9028801     -0.9352001     -0.9715201    
  -1.015200      -1.068000      -1.127200      -1.188480      -1.247360    
  -1.301280      -1.355520      -1.396480      -1.427200      -1.443840    
  -1.448960      -1.443840      -1.431040      -1.413120      -1.386240    
  -1.342720      -1.276960      -1.202400      -1.117600      -1.027680    
 -0.9364800     -0.8424001     -0.7420801     -0.6356801     -0.5232000    
 -0.4020800     -0.2698800     -0.1324400      0.3160000e-02  0.1294800    
  0.2393200      0.3255200      0.3881599      0.4404799      0.4958400    
  0.5585599      0.6263999      0.6952000      0.7595199      0.8148799    
  0.8651199      0.9185599      0.9820799       1.056800       1.141600    
   1.234240       1.324800       1.425920       1.523200       1.611520    
   1.685760       1.749760       1.802240       1.841920       1.861120    
   1.853440       1.815040       1.745920       1.657600       1.562880    
   1.469440       1.383680       1.305600       1.237600       1.160480    
   1.084640       1.016320      0.9598399      0.9142399      0.8767999    
  0.8475199      0.8286399      0.8195199      0.8174399      0.8209599    
  0.8267199      0.8300799      0.8308799      0.8263999      0.8119999    
  0.7823999      0.7348800      0.6713599      0.5991999      0.5230399    
  0.4443200      0.3643200      0.2851999      0.2074400      0.1369200    
  0.7980999e-01  0.3919999e-01  0.1436000e-01  0.2780000e-02  0.4399999e-02
  0.2152000e-01  0.5283000e-01  0.8939999e-01  0.1208400      0.1410000    
  0.1470000      0.1380800      0.1145200      0.7302999e-01  0.8319998e-02
 -0.8300000e-01 -0.2036400     -0.3537600     -0.5259200     -0.7156800    
 -0.9179200      -1.128640      -1.346560      -1.555200      -1.751040    
  -1.927680      -2.081280      -2.218240      -2.341120      -2.449920    
  -2.540800      -2.611200      -2.650880      -2.658560      -2.632960    
  -2.576640      -2.492160      -2.382080      -2.255360      -2.114560    
  -1.964800      -1.802240      -1.623040      -1.431040      -1.226880    
  -1.023200     -0.8196801     -0.6211201     -0.4310400     -0.2523600    
 -0.9068000e-01  0.5363999e-01  0.1810800      0.2909999      0.3807999    
  0.4520000      0.5038400      0.5345600      0.5403199      0.5163199    
  0.4630399      0.3854399      0.2952800      0.2037200      0.1201200    
  0.4938000e-01 -0.5460001e-02 -0.4183000e-01 -0.5795000e-01 -0.5186000e-01
 -0.2088000e-01  0.3541999e-01  0.1164400      0.2254400      0.3627200    
  0.5228800      0.6971200      0.8807999       1.072160       1.272480    
   1.470720       1.670400       1.847040       1.990400       2.092800    
   2.156800       2.186240       2.183680       2.154240       2.105600    
   2.042880       1.969920       1.886720       1.794560       1.699840    
   1.615360       1.546240       1.495040       1.457920       1.431040    
   1.410560       1.387520       1.349120       1.299840       1.217920    
   1.108960      0.9692799      0.7971200      0.5927999      0.3591999    
  0.1046400     -0.1617200     -0.4267200     -0.6779200     -0.9104000    
  -1.120160      -1.303680      -1.461760      -1.582080      -1.674240    
  -1.743360      -1.794560      -1.835520      -1.866240      -1.885440    
  -1.889280      -1.868800      -1.824000      -1.756160      -1.665280    
  -1.562880      -1.456640      -1.358080      -1.262720      -1.184320    
  -1.117120      -1.057440      -1.001760     -0.9500800     -0.9035200    
 -0.8627200     -0.8246400     -0.7822400     -0.7292800     -0.6662401    
 -0.5945600     -0.5136000     -0.4238400     -0.3246400     -0.2161600    
 -0.9612000e-01  0.3501000e-01  0.1748400      0.3219600      0.4740800    
  0.6297599      0.7833599      0.9286399       1.058560       1.167200    
   1.251520       1.309600       1.332480       1.336320       1.315840    
   1.286720       1.241760       1.193920       1.149920       1.115680    
   1.092480       1.079040       1.075840       1.084480       1.104480    
   1.130720       1.151360       1.152480       1.126880       1.070560    
  0.9763199      0.8396800      0.6660799      0.4656000      0.2482000    
  0.1977000e-01 -0.2165600     -0.4606400     -0.7094400     -0.9600000    
  -1.203680      -1.434880      -1.634560      -1.807360      -1.952000    
  -2.063360      -2.138880      -2.178560      -2.178560      -2.141440    
  -2.068480      -1.959680      -1.820160      -1.656320      -1.473280    
  -1.268800      -1.060320     -0.8443201     -0.6251200     -0.4073600    
 -0.1950000      0.3370000e-02  0.1786000      0.3264400      0.4468800    
  0.5379199      0.5947199      0.6179199      0.6131200      0.5859200    
  0.5430399      0.4889600      0.4260800      0.3608000      0.3011200    
  0.2488400      0.2077600      0.1839200      0.1820000      0.2027600    
  0.2457200      0.3102000      0.3948799      0.4999999      0.6214399    
  0.7527999      0.8867199       1.018560       1.146400       1.265280    
   1.360640       1.445120       1.514240       1.570560       1.619200    
   1.669120       1.720320       1.772800       1.818880       1.856000    
   1.880320       1.888000       1.868800       1.817600       1.725440    
   1.587200       1.400320       1.165600      0.8705599      0.5294399    
  0.1523600     -0.2530400     -0.6776000      -1.107680      -1.534720    
  -1.932800      -2.291200      -2.597120      -2.844160      -3.031040    
  -3.157760      -3.224320      -3.234560      -3.192320      -3.096320    
  -2.949120      -2.755840      -2.521600      -2.256640      -1.966080    
  -1.656320      -1.336320      -1.003200     -0.6782401     -0.3635200    
 -0.6315000e-01  0.2146400      0.4611199      0.6710399      0.8438399    
  0.9847999       1.099680       1.196000       1.284160       1.361920    
   1.447680       1.534720       1.623040       1.710080       1.792000    
   1.868800       1.946880       2.019840       2.085120       2.137600    
   2.170880       2.172160       2.132480       2.049280       1.914880    
   1.730560       1.505280       1.256000      0.9811199      0.7007999    
  0.4227200      0.1525600     -0.1091200     -0.3598400     -0.5942401    
 -0.8096000      -1.005600      -1.186880      -1.364480      -1.530880    
  -1.692160      -1.843200      -1.984000      -2.113280      -2.237440    
  -2.353920      -2.460160      -2.554880      -2.632960      -2.691840    
  -2.722560      -2.721280      -2.677760      -2.584320      -2.432000    
  -2.218240      -1.943040      -1.617920      -1.249760     -0.8609600    
 -0.4552000     -0.3770000e-01  0.3814400      0.7966399       1.199200    
   1.575680       1.932800       2.255360       2.538239       2.772480    
   2.959360       3.095040       3.176960       3.202559       3.170560    
   3.079679       2.929920       2.726400       2.474240       2.176000    
   1.847040       1.498880       1.153760      0.8075199      0.4811199    
  0.1859600     -0.7388000e-01 -0.2986400     -0.4916800     -0.6548800    
 -0.7948800     -0.9190401      -1.030080      -1.128000      -1.212640    
  -1.284800      -1.351680      -1.405440      -1.447680      -1.483520    
  -1.515520      -1.541120      -1.561600      -1.575680      -1.580800    
  -1.570560      -1.544960      -1.502720      -1.446400      -1.377280    
  -1.293920      -1.209600      -1.124320      -1.044960     -0.9760001    
 -0.9174401     -0.8657601     -0.8121600     -0.7459201     -0.6553600    
 -0.5297600     -0.3654400     -0.1618400      0.8054999e-01  0.3606400    
  0.6727999       1.004800       1.337600       1.674240       1.998080    
   2.301440       2.575360       2.809600       2.999040       3.130880    
   3.201280       3.210240       3.153920       3.028480       2.835200    
   2.583040       2.277120       1.928960       1.551360       1.159520    
  0.7476799      0.3320000     -0.7217000e-01 -0.4521600     -0.7944001    
  -1.094880      -1.355520      -1.565440      -1.734400      -1.864960    
  -1.958400      -2.018560      -2.050560      -2.060800      -2.053120    
  -2.031360      -1.999360      -1.963520      -1.928960      -1.895680    
  -1.861120      -1.826560      -1.784320      -1.733120      -1.661440    
  -1.565440      -1.436160      -1.265920      -1.067840     -0.8416001    
 -0.5939200     -0.3342400     -0.7212001e-01  0.1786800      0.4064000    
  0.6046399      0.7686399      0.8956800      0.9841599       1.033920    
   1.043520       1.012160      0.9431999      0.8449600      0.7283199    
  0.5987200      0.4593599      0.3170400      0.1784800      0.5268999e-01
 -0.5222000e-01 -0.1284800     -0.1692800     -0.1708400     -0.1318400    
 -0.5328000e-01  0.6180999e-01  0.2118400      0.3931199      0.5988799    
  0.8164799       1.033120       1.238880       1.414400       1.560320    
   1.658880       1.697280       1.670400       1.580800       1.440000    
   1.262240       1.044320      0.8076799      0.5620799      0.3147600    
  0.6937999e-01 -0.1701600     -0.3995200     -0.6118400     -0.8052801    
 -0.9798400      -1.134400      -1.267840      -1.383680      -1.466880    
  -1.521920      -1.541120      -1.512960      -1.432320      -1.297280    
  -1.121600     -0.9078400     -0.6672001     -0.4084800     -0.1348800    
  0.1479600      0.4344000      0.7153599      0.9780799       1.210880    
   1.395200       1.543680       1.638400       1.678080       1.661440    
   1.589760       1.475840       1.333760       1.176480      0.9979199    
  0.8127999      0.6262399      0.4414400      0.2611200      0.8431999e-01
 -0.8628000e-01 -0.2483600     -0.4014400     -0.5424000     -0.6715200    
 -0.7883201     -0.8910401     -0.9780800      -1.049920      -1.104800    
  -1.138240      -1.145120      -1.122880      -1.073760      -1.003840    
 -0.9225601     -0.8416001     -0.7718401     -0.7240001     -0.7078401    
 -0.7286401     -0.7860800     -0.8739201     -0.9848000      -1.114560    
  -1.256640      -1.408000      -1.552640      -1.690880      -1.815040    
  -1.917440      -1.998080      -2.045440      -2.054400      -2.022400    
  -1.939200      -1.800960      -1.606400      -1.359360      -1.059040    
 -0.7201600     -0.3428800      0.6512000e-01  0.4932799      0.9393599    
   1.390080       1.852160       2.307840       2.750720       3.174400    
   3.569920       3.930880       4.250879       4.524799       4.748799    
   4.915199       5.011199       5.031679       4.975359       4.837119    
   4.618239       4.318720       3.936000       3.470080       2.919680    
   2.287360       1.578240      0.8083199     -0.2611000e-01 -0.9046401    
  -1.806080      -2.688000      -3.537920      -4.331520      -5.048321    
  -5.666560      -6.170880      -6.547200      -6.784000      -6.871040    
  -6.803201      -6.584320      -6.215680      -5.707520      -5.073920    
  -4.334081      -3.503360      -2.604800      -1.661440     -0.6910400    
  0.2752799       1.218240       2.108160       2.941440       3.696640    
   4.360959       4.924159       5.373440       5.699840       5.895679    
   5.955839       5.882879       5.679359       5.350399       4.906240    
   4.360959       3.724800       3.011840       2.237440       1.420800    
  0.5871999     -0.2594000      -1.094400      -1.900800      -2.648320    
  -3.328000      -3.921920      -4.413441      -4.791040      -5.043200    
  -5.167360      -5.164801      -5.041921      -4.803841      -4.458241    
  -4.014080      -3.484160      -2.886400      -2.241280      -1.565440    
 -0.8705601     -0.1831200      0.4812800       1.107840       1.671680    
   2.176000       2.603520       2.940160       3.180799       3.324160    
   3.377920       3.342080       3.230720       3.054080       2.824960    
   2.554880       2.252800       1.932800       1.606400       1.292160    
  0.9815999      0.6880000      0.4159999      0.1711200     -0.4387000e-01
 -0.2276400     -0.3819200     -0.5065601     -0.6059201     -0.6838400    
 -0.7446400     -0.7921600     -0.8307201     -0.8648001     -0.8979200    
 -0.9323200     -0.9686401      -1.005440      -1.040000      -1.068320    
  -1.086080      -1.088640      -1.072800      -1.036800     -0.9803200    
 -0.9048001     -0.8147200     -0.7115201     -0.5972800     -0.4776000    
 -0.3572800     -0.2386400     -0.1269600     -0.2301000e-01  0.7365999e-01
  0.1635600      0.2488000      0.3320000      0.4150400      0.4972799    
  0.5782399      0.6566399      0.7335999      0.8105599      0.8854399    
  0.9534400       1.007520       1.038880       1.042080       1.014560    
  0.9572799      0.8715199      0.7576000      0.6151999      0.4457600    
  0.2546800      0.4624999e-01 -0.1754800     -0.4067200     -0.6368001    
 -0.8552001      -1.052320      -1.220640      -1.358080      -1.452800    
  -1.510400      -1.532160      -1.521920      -1.482240      -1.413120    
  -1.319680      -1.201920      -1.072000     -0.9254401     -0.7617600    
 -0.5812800     -0.3844800     -0.1710000      0.5605000e-01  0.2956800    
  0.5459199      0.8055999       1.071840       1.331200       1.591040    
   1.838080       2.063360       2.261760       2.429440       2.559999    
   2.645760       2.685440       2.667520       2.584320       2.429440    
   2.201600       1.903360       1.537280       1.115520      0.6332799    
  0.1119600     -0.4372800      -1.001440      -1.574400      -2.132480    
  -2.661120      -3.151360      -3.587840      -3.960320      -4.256001    
  -4.463361      -4.572161      -4.576000      -4.472321      -4.256001    
  -3.928320      -3.486720      -2.941440      -2.302720      -1.589760    
 -0.8142401     -0.6320001e-02  0.8132799       1.611520       2.375679    
   3.072000       3.680000       4.177919       4.552959       4.798719    
   4.911360       4.888319       4.734719       4.463360       4.090879    
   3.633920       3.120640       2.570240       2.000640       1.431040    
  0.8867199      0.3641599     -0.1176800     -0.5524801     -0.9329600    
  -1.259040      -1.534720      -1.752320      -1.909760      -2.010880    
  -2.058240      -2.063360      -2.028800      -1.962240      -1.868800    
  -1.753600      -1.623040      -1.479680      -1.332480      -1.182080    
  -1.040960     -0.9057601     -0.7782401     -0.6593601     -0.5488000    
 -0.4470400     -0.3566400     -0.2788400     -0.2146800     -0.1631200    
 -0.1235200     -0.9212001e-01 -0.6245000e-01 -0.3080000e-01  0.3740000e-02
  0.3997000e-01  0.7395999e-01  0.1012000      0.1207600      0.1338400    
  0.1438800      0.1549600      0.1686000      0.1822400      0.1928400    
  0.2002800      0.2050400      0.2051600      0.1974000      0.1791600    
  0.1502000      0.1124400      0.6715000e-01  0.1375000e-01 -0.4579000e-01
 -0.1062400     -0.1612000     -0.2040800     -0.2286400     -0.2319200    
 -0.2127600     -0.1727600     -0.1164800     -0.4705000e-01  0.3335000e-01
  0.1228400      0.2200400      0.3232800      0.4299200      0.5398400    
  0.6516799      0.7641599      0.8753599      0.9804800       1.075040    
   1.154240       1.211520       1.242880       1.247200       1.224960    
   1.176000       1.099200      0.9939200      0.8622400      0.7057599    
  0.5276799      0.3332800      0.1295600     -0.8045000e-01 -0.2916800    
 -0.4976000     -0.6916801     -0.8729601      -1.039520      -1.188160    
  -1.320960      -1.425920      -1.506560      -1.562880      -1.589760    
  -1.588480      -1.555200      -1.489920      -1.392640      -1.260480    
  -1.106880     -0.9320000     -0.7440001     -0.5508801     -0.3596800    
 -0.1778800     -0.1355000e-01  0.1308000      0.2523200      0.3481600    
  0.4228799      0.4806399      0.5259199      0.5617599      0.5939199    
  0.6315199      0.6788800      0.7318399      0.7846400      0.8342400    
  0.8785599      0.9169599      0.9480000      0.9692799      0.9796799    
  0.9774399      0.9628799      0.9348799      0.8900800      0.8271999    
  0.7475200      0.6503999      0.5366399      0.4099200      0.2750400    
  0.1344000     -0.5810000e-02 -0.1404000     -0.2655200     -0.3806400    
