  0.2500010      -6.374400       6.240000      -12345.00      0.2500011    
   199.8622       1600.118      -12345.00      -12345.00       2.000000    
  -12345.00      -12345.00      -12345.00      -12345.00      -12345.00    
  -12345.00      -12345.00      -12345.00      -12345.00      -12345.00    
  -12345.00      -12345.00      -12345.00      -12345.00      -12345.00    
  -12345.00      -12345.00      -12345.00      -12345.00      -12345.00    
  -12345.00       44.54832      -74.53001      -12345.00      -12345.00    
   40.30000      -127.0000             0.             0.      -12345.00    
  -12345.00      -12345.00      -12345.00      -12345.00      -12345.00    
  -12345.00      -12345.00      -12345.00      -12345.00      -12345.00    
   4269.287       65.86439       282.5425       38.41450      -12345.00    
  -12345.00      0.2678339e-03         0.             0.      -12345.00    
  -12345.00      -12345.00      -12345.00      -12345.00      -12345.00    
  -12345.00      -12345.00      -12345.00      -12345.00      -12345.00    
      1984       254         3        14         7
         0         6         0         0      5602
    -12345    -12345    -12345    -12345    -12345
         1        50        11    -12345    -12345
    -12345    -12345        40    -12345    -12345
    -12345    -12345    -12345    -12345    -12345
    -12345    -12345    -12345    -12345    -12345
         1         0         1         1         0
RSNY    EUREKA          
-12345  -12345  -12345  
-12345  -12345  -12345  
-12345  -12345  -12345  
-12345  -12345  -12345  
-12345  -12345  -12345  
-12345  -12345  KM.Z    
RSTN-SAR10/12/84KS-36000
[...]
 -0.2070000     -0.2765200     -0.3523200     -0.4323200     -0.5134400    
 -0.5944000     -0.6763201     -0.7579200     -0.8345600     -0.9014400    
 -0.9580801      -1.007680      -1.056160      -1.108160      -1.166240    
  -1.228160      -1.286720      -1.328640      -1.347840      -1.336320    
  -1.291520      -1.214880      -1.118240      -1.008480     -0.8875201    
 -0.7587200     -0.6252800     -0.4920000     -0.3649600     -0.2450400    
 -0.1314000     -0.2471000e-01  0.7509999e-01  0.1662400      0.2422400    
  0.2967200      0.3276800      0.3385600      0.3292800      0.3004799    
  0.2504799      0.1818400      0.9703998e-01 -0.9600000e-03 -0.1087600    
 -0.2204000     -0.3289600     -0.4272000     -0.5062400     -0.5600001    
 -0.5867200     -0.5897601     -0.5737600     -0.5406400     -0.4868800    
 -0.4068800     -0.2974800     -0.1602400     -0.2840000e-02  0.1625600    
  0.3261600      0.4823999      0.6308799      0.7656000      0.8830400    
  0.9827199       1.064000       1.124000       1.160960       1.173600    
   1.164960       1.141920       1.112640       1.081760       1.048640    
   1.012640      0.9718399      0.9241599      0.8667200      0.7963200    
  0.7089599      0.6049600      0.4867200      0.3582399      0.2312400    
  0.1220000      0.4390000e-01  0.2420000e-02  0.2660000e-02  0.4681999e-01
  0.1325200      0.2561600      0.4075199      0.5716799      0.7332799    
  0.8830400       1.017120       1.134880       1.235680       1.304320    
   1.364480       1.402880       1.419520       1.410560       1.376000    
   1.314560       1.241760       1.128800      0.9855999      0.8152000    
  0.6214399      0.4060799      0.1743200     -0.6444001e-01 -0.2984000    
 -0.5169600     -0.7094400     -0.8678401     -0.9852800      -1.056160    
  -1.080640      -1.065280      -1.017440     -0.9449600     -0.8566400    
 -0.7601601     -0.6592001     -0.5532800     -0.4419200     -0.3276800    
 -0.2145200     -0.1054800     -0.4160000e-02  0.8712000e-01  0.1646000    
  0.2203200      0.2472000      0.2412400      0.2033600      0.1367600    
  0.4115999e-01 -0.8528000e-01 -0.2399200     -0.4144000     -0.5996801    
 -0.7902400     -0.9790400      -1.154880      -1.309920      -1.437440    
  -1.541120      -1.617920      -1.671680      -1.698560      -1.701120    
  -1.679360      -1.635840      -1.574400      -1.496320      -1.402880    
  -1.295840      -1.175040      -1.047040     -0.9184000     -0.7952000    
 -0.6822400     -0.5819200     -0.4929600     -0.4161600     -0.3542400    
 -0.3112400     -0.2879600     -0.2808800     -0.2847600     -0.2975600    
 -0.3147600     -0.3288000     -0.3385600     -0.3483200     -0.3608000    
 -0.3764800     -0.3939200     -0.4073600     -0.4067200     -0.3830400    
 -0.3337600     -0.2604000     -0.1654800     -0.5523000e-01  0.6164999e-01
  0.1774400      0.2878799      0.3889599      0.4782400      0.5502399    
  0.6014400      0.6320000      0.6468799      0.6542399      0.6625599    
  0.6798400      0.7126399      0.7633599      0.8299199      0.9113599    
   1.008640       1.121120       1.244960       1.361920       1.491200    
   1.615360       1.730560       1.829120       1.908480       1.964800    
   1.998080       2.007040       1.992960       1.959680       1.905920    
   1.834240       1.740800       1.632000       1.515520       1.395200    
   1.281920       1.151200       1.017440      0.8828800      0.7518399    
  0.6256000      0.5006399      0.3771200      0.2562000      0.1345600    
  0.1648000e-01 -0.8900000e-01 -0.1745200     -0.2376000     -0.2762000    
 -0.2883200     -0.2756000     -0.2433600     -0.1983200     -0.1499200    
 -0.1078000     -0.7955000e-01 -0.7070000e-01 -0.8356000e-01 -0.1186400    
 -0.1766800     -0.2595600     -0.3665600     -0.4912000     -0.6267201    
 -0.7740800     -0.9348800      -1.103520      -1.270080      -1.422080    
  -1.556480      -1.664000      -1.747200      -1.807360      -1.838080    
  -1.839360      -1.812480      -1.758720      -1.676800      -1.570560    
  -1.447680      -1.315840      -1.177920      -1.032800     -0.8865601    
 -0.7454400     -0.6155200     -0.4995200     -0.3969600     -0.3072400    
 -0.2321600     -0.1767600     -0.1471200     -0.1449200     -0.1674800    
 -0.2138800     -0.2839600     -0.3729600     -0.4728000     -0.5758400    
 -0.6771201     -0.7720001     -0.8566400     -0.9292800     -0.9888000    
  -1.033920      -1.059520      -1.059680      -1.033760     -0.9835200    
 -0.9092801     -0.8110400     -0.6908801     -0.5545601     -0.4096000    
 -0.2605600     -0.1076800      0.4625999e-01  0.1954400      0.3363200    
  0.4689600      0.5939199      0.7126399      0.8259199      0.9345599    
   1.040320       1.142560       1.236000       1.303040       1.367040    
   1.416960       1.450240       1.465600       1.466880       1.455360    
   1.440000       1.422080       1.401600       1.377280       1.347840    
   1.310720       1.280160       1.231680       1.181760       1.133760    
   1.090720       1.051520       1.012000      0.9708799      0.9297599    
  0.8892800      0.8489599      0.8113599      0.7817600      0.7635199    
  0.7551999      0.7548800      0.7619200      0.7758399      0.7927999    
  0.8055999      0.8075199      0.7950399      0.7649599      0.7119999    
  0.6342399      0.5311999      0.4056000      0.2620000      0.1033600    
 -0.6144000e-01 -0.2216000     -0.3684800     -0.4990400     -0.6118400    
 -0.7040000     -0.7752000     -0.8300800     -0.8763200     -0.9192001    
 -0.9582400     -0.9907200      -1.015360      -1.032800      -1.043040    
  -1.047040      -1.047360      -1.045440      -1.039040      -1.026560    
  -1.010080     -0.9929600     -0.9771200     -0.9606401     -0.9387200    
 -0.9108801     -0.8804801     -0.8516800     -0.8305601     -0.8219200    
 -0.8281600     -0.8512000     -0.8915200     -0.9484800      -1.020320    
  -1.099360      -1.173280      -1.230880      -1.264640      -1.267680    
  -1.233600      -1.164320      -1.067520     -0.9516801     -0.8240000    
 -0.6889601     -0.5480001     -0.4035200     -0.2571600     -0.1084000    
  0.4328000e-01  0.1972400      0.3510399      0.5023999      0.6465600    
  0.7792000      0.8974400      0.9999999       1.084160       1.143360    
   1.170080       1.162560       1.120800       1.045920      0.9404799    
  0.8083199      0.6559999      0.4897600      0.3149199      0.1380000    
 -0.3194001e-01 -0.1906000     -0.3324800     -0.4499200     -0.5360000    
 -0.5868801     -0.6022401     -0.5824001     -0.5308801     -0.4558400    
 -0.3662400     -0.2686000     -0.1630800     -0.5166000e-01  0.6009000e-01
  0.1700800      0.2773600      0.3772799      0.4699200      0.5583999    
  0.6467199      0.7369599      0.8291199      0.9206399       1.008640    
   1.092480       1.172480       1.246720       1.301760       1.359360    
   1.404160       1.434880       1.457920       1.473280       1.479680    
   1.475840       1.463040       1.442560       1.415680       1.384960    
   1.351680       1.312000       1.278720       1.222400       1.156160    
   1.079840      0.9912000      0.8875200      0.7668799      0.6283200    
  0.4707199      0.2932000      0.9407999e-01 -0.1218400     -0.3475200    
 -0.5782400     -0.8104000      -1.035520      -1.245600      -1.433600    
  -1.603840      -1.745920      -1.857280      -1.937920      -1.989120    
  -2.014720      -2.016000      -1.995520      -1.957120      -1.905920    
  -1.845760      -1.780480      -1.712640      -1.640960      -1.569280    
  -1.496320      -1.427200      -1.364480      -1.310720      -1.269920    
  -1.233280      -1.202080      -1.172960      -1.142880      -1.108320    
  -1.065760      -1.012000     -0.9468800     -0.8710400     -0.7804800    
 -0.6710401     -0.5424000     -0.3961600     -0.2360000     -0.6749001e-01
  0.1015200      0.2642800      0.4124799      0.5414399      0.6471999    
  0.7257599      0.7723199      0.7852799      0.7678399      0.7262399    
  0.6707200      0.6102400      0.5499200      0.4939200      0.4467199    
  0.4116800      0.3899199      0.3780800      0.3750399      0.3827199    
  0.4046400      0.4422399      0.4964799      0.5673599      0.6539199    
  0.7539200      0.8660799      0.9859200       1.108160       1.228960    
   1.332480       1.442560       1.543680       1.638400       1.731840    
   1.825280       1.917440       2.005760       2.086400       2.155519    
   2.209280       2.241280       2.247680       2.223360       2.168320    
   2.086400       1.976320       1.835520       1.670400       1.487360    
   1.301440       1.086080      0.8553599      0.6089599      0.3435200    
  0.6243999e-01 -0.2307200     -0.5291201     -0.8289601      -1.127520    
  -1.419520      -1.707520      -1.989120      -2.260480      -2.520320    
  -2.755840      -2.961920      -3.130880      -3.257600      -3.336960    
  -3.370240      -3.353600      -3.285760      -3.164160      -2.991360    
  -2.771200      -2.508800      -2.213120      -1.900800      -1.582080    
  -1.267200     -0.9587201     -0.6667200     -0.3968000     -0.1542800    
  0.5385999e-01  0.2240400      0.3620800      0.4776000      0.5732800    
  0.6516799      0.7148799      0.7649599      0.8033599      0.8310399    
  0.8486400      0.8561599      0.8526399      0.8366399      0.8054399    
  0.7587199      0.6988800      0.6267200      0.5403199      0.4416000    
  0.3334399      0.2183200      0.9823999e-01 -0.1919000e-01 -0.1321600    
 -0.2394400     -0.3356800     -0.4161600     -0.4769600     -0.5136000    
 -0.5198400     -0.4907200     -0.4291200     -0.3424000     -0.2343200    
 -0.1050800      0.3897999e-01  0.1877600      0.3368000      0.4860799    
  0.6320000      0.7715199      0.9076799       1.041120       1.169920    
   1.293920       1.401600       1.518080       1.628160       1.729280    
   1.816320       1.888000       1.946880       1.998080       2.045440    
   2.088960       2.127360       2.160640       2.186240       2.205440    
   2.215680       2.214400       2.201600       2.170880       2.126080    
   2.059520       1.967360       1.848320       1.697280       1.511680    
   1.302240       1.044960      0.7537600      0.4267200      0.6568000e-01
 -0.3265200     -0.7433600      -1.180640      -1.629440      -2.088960    
  -2.552320      -3.009280      -3.452160      -3.870720      -4.259840    
  -4.619520      -4.949760      -5.242880      -5.489921      -5.687040    
  -5.825280      -5.900801      -5.912320      -5.853440      -5.717760    
  -5.500160      -5.201921      -4.824321      -4.373760      -3.856640    
  -3.279360      -2.656000      -2.004480      -1.336320     -0.6624000    
  0.5870000e-02  0.6609600       1.300480       1.899520       2.474240    
   3.008000       3.496960       3.939840       4.335360       4.680960    
   4.974079       5.212159       5.393919       5.519360       5.592319    
   5.616639       5.597440       5.538559       5.448959       5.332479    
   5.192960       5.029119       4.843519       4.634879       4.403199    
   4.144639       3.857920       3.537920       3.184639       2.799360    
   2.383360       1.937920       1.469440      0.9972799      0.5012800    
 -0.3130000e-02 -0.5155201      -1.033120      -1.548800      -2.059520    
  -2.560000      -3.040000      -3.486720      -3.891200      -4.248321    
  -4.554240      -4.808960      -5.008640      -5.154560      -5.248000    
  -5.292800      -5.291520      -5.248000      -5.167360      -5.049601    
  -4.903681      -4.734720      -4.544001      -4.327681      -4.085760    
  -3.822080      -3.535360      -3.230720      -2.906880      -2.566400    
  -2.206720      -1.832960      -1.446400      -1.046720     -0.6276801    
 -0.1881600      0.2722400      0.7518399       1.253280       1.757440    
   2.282240       2.805760       3.317760       3.816960       4.291840    
   4.733439       5.130239       5.473279       5.761279       5.987840    
   6.146560       6.231039       6.240000       6.173439       6.024960    
   5.797119       5.489920       5.107200       4.651520       4.124160    
   3.531520       2.878720       2.173440       1.425920      0.6528000    
 -0.1550000     -0.9705601      -1.771520      -2.548480      -3.284480    
  -3.966720      -4.587521      -5.130240      -5.585920      -5.944321    
  -6.197761      -6.342401      -6.374400      -6.293760      -6.110721    
  -5.829121      -5.455360      -4.997120      -4.459520      -3.851520    
  -3.185920      -2.476800      -1.733120     -0.9704000     -0.1971200    
  0.5635200       1.294400       1.962240       2.574080       3.109120    
   3.553280       3.905280       4.158719       4.313600       4.368639    
   4.326400       4.191999       3.970560       3.673600       3.307520    
   2.883840       2.420480       1.931520       1.433600      0.9476799    
  0.4625599      0.3740000e-02 -0.4216000     -0.8070401      -1.146880    
  -1.432320      -1.670400      -1.856000      -1.989120      -2.068480    
  -2.091520      -2.060800      -1.980160      -1.852160      -1.683200    
  -1.479680      -1.249760     -0.9910400     -0.7153600     -0.4320000    
 -0.1508800      0.1186800      0.3692800      0.5968000      0.7936000    
  0.9523199       1.067040       1.133120       1.150240       1.121280    
   1.047840      0.9347199      0.7900800      0.6214399      0.4335999    
  0.2352400      0.3371999e-01 -0.1612400     -0.3400000     -0.4984000    
 -0.6348801     -0.7475201     -0.8348800     -0.8948801     -0.9259200    
 -0.9283201     -0.9040000     -0.8568001     -0.7912000     -0.7072001    
 -0.6035200     -0.4811200     -0.3422400     -0.1870400     -0.1851000e-01
  0.1544400      0.3222399      0.4764799      0.6143999      0.7324799    
  0.8271999      0.8931199      0.9286399      0.9355199      0.9172800    
  0.8779199      0.8198400      0.7454399      0.6596799      0.5699199    
  0.4785600      0.3841600      0.2866800      0.1882800      0.9400000e-01
  0.5949999e-02 -0.7501000e-01 -0.1500400     -0.2201600     -0.2835600    
 -0.3414400     -0.4003200     -0.4635200     -0.5276800     -0.5894400    
 -0.6492801     -0.7105601     -0.7763200     -0.8438400     -0.9083201    
 -0.9660801      -1.015520      -1.053280      -1.073440      -1.069920    
  -1.038080     -0.9748800     -0.8777601     -0.7444800     -0.5756800    
 -0.3710400     -0.1321600      0.1339600      0.4156799      0.7027199    
  0.9840000       1.251360       1.484800       1.706240       1.895680    
   2.050560       2.164480       2.229760       2.240000       2.193920    
   2.091520       1.932800       1.717760       1.450240       1.148960    
  0.7966399      0.4148800      0.1239000e-01 -0.4016000     -0.8126401    
  -1.204640      -1.559040      -1.871360      -2.132480      -2.333440    
  -2.470400      -2.540800      -2.544640      -2.487040      -2.373120    
  -2.208000      -2.001920      -1.763840      -1.496320      -1.212480    
 -0.9097600     -0.5971200     -0.2840400      0.1993000e-01  0.3090799    
  0.5771199      0.8207999       1.036480       1.220480       1.356800    
   1.474560       1.557760       1.612800       1.643520       1.655040    
   1.642240       1.605120       1.546240       1.465600       1.358080    
   1.243360       1.094080      0.9238399      0.7391999      0.5468799    
  0.3510399      0.1583600     -0.2698000e-01 -0.2003600     -0.3606400    
 -0.5089600     -0.6452800     -0.7681600     -0.8787200     -0.9787201    
  -1.067360      -1.141920      -1.198880      -1.238240      -1.261600    
  -1.270720      -1.263520      -1.235840      -1.186880      -1.117120    
  -1.026240     -0.9145601     -0.7849600     -0.6398400     -0.4814400    
 -0.3169200     -0.1532400      0.4620000e-02  0.1536400      0.2919599    
  0.4182400      0.5348799      0.6401600      0.7287999      0.7988799    
  0.8526399      0.8921599      0.9174399      0.9273599      0.9201599    
  0.8928000      0.8447999      0.7767999      0.6929599      0.6040000    
  0.5206399      0.4511999      0.4022400      0.3763199      0.3716800    
  0.3854399      0.4128000      0.4492800      0.4876800      0.5182400    
  0.5355200      0.5377599      0.5212799      0.4822400      0.4193600    
  0.3332800      0.2286800      0.1084000     -0.2410000e-01 -0.1688800    
 -0.3286400     -0.5044800     -0.6940800     -0.8916800      -1.088320    
  -1.275040      -1.440000      -1.579520      -1.680640      -1.735680    
  -1.740800      -1.689600      -1.579520      -1.411840      -1.191520    
 -0.9176000     -0.6057601     -0.2724000      0.6685999e-01  0.3987200    
  0.7153599       1.006080       1.256160       1.438720       1.574400    
   1.642240       1.638400       1.565440       1.431040       1.254560    
   1.021440      0.7564800      0.4736000      0.1881200     -0.9056000e-01
 -0.3563200     -0.6043200     -0.8251201      -1.008640      -1.146240    
  -1.234080      -1.272320      -1.261760      -1.201280      -1.093920    
 -0.9440000     -0.7556801     -0.5363201     -0.2946400     -0.3738000e-01
  0.2234800      0.4719999      0.6983999      0.8969599       1.062400    
   1.189600       1.275360       1.305600       1.305600       1.277600    
   1.195520       1.072480      0.9113599      0.7172799      0.4995199    
  0.2683200      0.3121000e-01 -0.2047200     -0.4297600     -0.6318400    
 -0.8030400     -0.9385600      -1.034560      -1.092000      -1.113440    
  -1.097600      -1.042240     -0.9478401     -0.8142401     -0.6420801    
 -0.4353600     -0.2022800      0.4749999e-01  0.3016800      0.5475199    
  0.7750399      0.9711999       1.123520       1.220160       1.253920    
   1.222880       1.129760      0.9790399      0.7766399      0.5300800    
