   1.000004      -10.48448       10.48576      -12345.00       1.000005    
   199.6184       1600.624      -12345.00      -12345.00       2.000000    
  -12345.00      -12345.00      -12345.00      -12345.00      -12345.00    
  -12345.00      -12345.00      -12345.00      -12345.00      -12345.00    
  -12345.00      -12345.00      -12345.00      -12345.00      -12345.00    
  -12345.00      -12345.00      -12345.00      -12345.00      -12345.00    
  -12345.00       50.85889      -93.70222      -12345.00      -12345.00    
   40.30000      -127.0000             0.             0.      -12345.00    
  -12345.00      -12345.00      -12345.00      -12345.00      -12345.00    
  -12345.00      -12345.00      -12345.00      -12345.00      -12345.00    
   2820.338       54.26952       258.4055       25.37985      -12345.00    
  -12345.00     -0.6125177e-02   90.00000       90.00000      -12345.00    
  -12345.00      -12345.00      -12345.00      -12345.00      -12345.00    
  -12345.00      -12345.00      -12345.00      -12345.00      -12345.00    
      1984       254         3        14         7
         0         6         0         0      1402
    -12345    -12345    -12345    -12345    -12345
         1        50        11    -12345    -12345
    -12345    -12345        40    -12345    -12345
    -12345    -12345    -12345    -12345    -12345
    -12345    -12345    -12345    -12345    -12345
         1         0         1         1         0
RSON    EUREKA          
-12345  -12345  -12345  
-12345  -12345  -12345  
-12345  -12345  -12345  
-12345  -12345  -12345  
-12345  -12345  -12345  
-12345  -12345  KL.E    
RSTN-SAR10/12/84KS-36000
 -0.6200001e-03 -0.9700001e-03 -0.6000000e-03 -0.3400000e-03 -0.5700000e-03
 -0.6300000e-03  0.1000000e-04  0.8699999e-03  0.1310000e-02  0.1370000e-02
  0.1400000e-02  0.1430000e-02  0.1180000e-02  0.7399999e-03  0.4600000e-03
  0.2400000e-03 -0.1600000e-03 -0.5500000e-03 -0.6400000e-03 -0.6400000e-03
 -0.6900000e-03 -0.4800000e-03 -0.1100000e-03  0.8999999e-04  0.4499999e-03
  0.1260000e-02  0.1960000e-02  0.1860000e-02  0.1110000e-02  0.5900000e-03
  0.3800000e-03 -0.1000000e-03 -0.9800000e-03 -0.1720000e-02 -0.2130000e-02
 -0.2180000e-02 -0.1600000e-02 -0.3500000e-03  0.7699999e-03  0.1360000e-02
  0.1790000e-02  0.2520000e-02  0.3320000e-02  0.3779999e-02  0.3650000e-02
  0.3109999e-02  0.2430000e-02  0.1710000e-02  0.8399999e-03 -0.2100000e-03
 -0.1170000e-02 -0.1780000e-02 -0.2060000e-02 -0.2160000e-02 -0.2180000e-02
 -0.2060000e-02 -0.1560000e-02 -0.6600000e-03  0.1400000e-03  0.4400000e-03
  0.3500000e-03  0.1500000e-03 -0.2200000e-03 -0.8500001e-03 -0.1470000e-02
 -0.1940000e-02 -0.2600000e-02 -0.3630000e-02 -0.4520000e-02 -0.4660000e-02
 -0.4150000e-02 -0.3380000e-02 -0.2580000e-02 -0.1750000e-02 -0.8400000e-03
  0.4000000e-04  0.4700000e-03  0.4600000e-03  0.5799999e-03  0.9499999e-03
  0.9799998e-03  0.6400000e-03  0.4800000e-03  0.6400000e-03  0.7699999e-03
  0.7099999e-03  0.5699999e-03  0.3500000e-03 -0.3000000e-04 -0.6200001e-03
 -0.1210000e-02 -0.1490000e-02 -0.1430000e-02 -0.1250000e-02 -0.8700000e-03
 -0.1000000e-03  0.8099999e-03  0.1610000e-02  0.2210000e-02  0.2710000e-02
  0.3109999e-02  0.3180000e-02  0.2720000e-02  0.2010000e-02  0.1320000e-02
  0.6099999e-03  0.8000000e-04 -0.2000000e-04 -0.1000000e-03 -0.5900001e-03
 -0.1190000e-02 -0.1370000e-02 -0.1160000e-02 -0.9300000e-03 -0.8700000e-03
 -0.7700000e-03 -0.3100000e-03  0.4600000e-03  0.1280000e-02  0.1880000e-02
  0.2160000e-02  0.2300000e-02  0.2460000e-02  0.2580000e-02  0.2590000e-02
  0.2460000e-02  0.2160000e-02  0.1630000e-02  0.9699999e-03  0.1500000e-03
 -0.8800001e-03 -0.1940000e-02 -0.2750000e-02 -0.3210000e-02 -0.3060000e-02
 -0.1800000e-03  0.1354000e-01  0.5229999e-01  0.1210400      0.2065200    
  0.3042800      0.4179199      0.5084800      0.5062399      0.3716800    
  0.1197600     -0.1983600     -0.5150400     -0.7587200     -0.8913600    
 -0.9264001     -0.9046401     -0.8540801     -0.7700801     -0.6355201    
 -0.4438400     -0.2034000      0.5623999e-01  0.2890400      0.4540800    
  0.5401599      0.5688000      0.5735999      0.5760000      0.5772799    
  0.5697600      0.5524800      0.5351999      0.5367999      0.5708799    
  0.6251199      0.6633599      0.6484799      0.5574399      0.3896000    
  0.1638800     -0.9808001e-01 -0.3761600     -0.6473601     -0.8857601    
  -1.065760      -1.166240      -1.172640      -1.074240     -0.8732800    
 -0.5948801     -0.2869200     -0.1260000e-02  0.2299600      0.3943999    
  0.4959999      0.5406399      0.5291200      0.4622400      0.3472000    
  0.2049600      0.6619999e-01 -0.4285000e-01 -0.1056000     -0.1166400    
 -0.8816001e-01 -0.4662000e-01 -0.1154000e-01  0.1355000e-01  0.3075000e-01
  0.4498000e-01  0.6545000e-01  0.9503999e-01  0.1229200      0.1322000    
  0.1135600      0.6896999e-01  0.9199999e-02 -0.4991000e-01 -0.9388000e-01
 -0.1160400     -0.1191600     -0.1093600     -0.8912000e-01 -0.5622000e-01
 -0.6670000e-02  0.5875000e-01  0.1318800      0.2063600      0.2781600    
  0.3377600      0.3744000      0.3799999      0.3507200      0.2848800    
  0.1870400      0.6958999e-01 -0.5274000e-01 -0.1656400     -0.2614400    
 -0.3329600     -0.3681600     -0.3633600     -0.3278400     -0.2738000    
 -0.2129200     -0.1546400     -0.1057600     -0.6998001e-01 -0.4895000e-01
 -0.3780000e-01 -0.2623000e-01 -0.1317000e-01 -0.8050000e-02 -0.1634000e-01
 -0.3432000e-01 -0.5377001e-01 -0.6708001e-01 -0.7193001e-01 -0.7251000e-01
 -0.7590000e-01 -0.8856000e-01 -0.1127600     -0.1460800     -0.1826800    
 -0.2094400     -0.2077200     -0.1702000     -0.1099600     -0.4559001e-01
  0.1472000e-01  0.7246000e-01  0.1306000      0.1908000      0.2494000    
  0.2987199      0.3348799      0.3606400      0.3766400      0.3817599    
  0.3718399      0.3447999      0.3034000      0.2522399      0.1945200    
  0.1333600      0.7697999e-01  0.3523000e-01  0.1251000e-01  0.3919999e-02
 -0.1160000e-02 -0.1129000e-01 -0.2928000e-01 -0.5759000e-01 -0.9800000e-01
 -0.1473200     -0.2019600     -0.2612400     -0.3201200     -0.3692800    
 -0.4019200     -0.4145600     -0.4024000     -0.3654400     -0.3072400    
 -0.2318000     -0.1436400     -0.5056001e-01  0.4159000e-01  0.1294000    
  0.2106800      0.2807199      0.3307199      0.3534400      0.3472000    
  0.3152400      0.2629600      0.1988800      0.1311600      0.6321999e-01
 -0.4490000e-02 -0.6761001e-01 -0.1226800     -0.1686800     -0.2002000    
 -0.2084400     -0.1898400     -0.1473600     -0.8952001e-01 -0.3015000e-01
  0.1821000e-01  0.5017000e-01  0.6720999e-01  0.7299998e-01  0.7081999e-01
  0.6468000e-01  0.5875000e-01  0.5442999e-01  0.5024999e-01  0.4461999e-01
  0.4023000e-01  0.4164000e-01  0.4736000e-01  0.4900999e-01  0.3962000e-01
  0.1503000e-01 -0.2961000e-01 -0.9372000e-01 -0.1651200     -0.2262000    
 -0.2628800     -0.2700800     -0.2523600     -0.2188400     -0.1758800    
 -0.1237200     -0.5932000e-01  0.1619000e-01  0.9247999e-01  0.1574800    
  0.2069600      0.2436800      0.2683600      0.2797199      0.2765599    
  0.2587600      0.2282400      0.1894800      0.1484400      0.1078000    
  0.6721999e-01  0.2789000e-01 -0.5100001e-02 -0.2680000e-01 -0.3535000e-01
 -0.3253000e-01 -0.2271000e-01 -0.1079000e-01 -0.6000000e-04  0.7219999e-02
  0.9550000e-02  0.8369999e-02  0.9079998e-02  0.1682000e-01  0.3057000e-01
  0.4189000e-01  0.3851999e-01  0.9159999e-02 -0.4989000e-01 -0.1314000    
 -0.2199600     -0.2980000     -0.3510400     -0.3700800     -0.3528000    
 -0.3024400     -0.2282400     -0.1442000     -0.6648001e-01 -0.9450000e-02
  0.1853000e-01  0.1922000e-01  0.1600000e-02 -0.2293000e-01 -0.4223000e-01
 -0.4831000e-01 -0.4730000e-01 -0.6113000e-01 -0.1160400     -0.2329200    
 -0.4241600     -0.6833601     -0.9776000      -1.242880      -1.390080    
  -1.315840     -0.9425601     -0.2363600      0.7723199       1.987840    
   3.272960       4.447999       5.320959       5.681919       5.336319    
   4.188159       2.306560     -0.4944000e-01  -2.498560      -4.611840    
  -6.051841      -6.641920      -6.394880      -5.464320      -4.065280    
  -2.407680     -0.6780801      0.9503999       2.316800       3.276800    
   3.719680       3.610880       3.009280       2.042880      0.8948799    
 -0.2522000      -1.234240      -1.931520      -2.282240      -2.295040    
  -2.030080      -1.565440     -0.9844800     -0.3657600      0.2319200    
  0.7590399       1.172160       1.428480       1.505280       1.393920    
   1.124480      0.7518399      0.3705600      0.7907999e-01 -0.5659001e-01
 -0.2419000e-01  0.1360000      0.3585600      0.5787200      0.7431999    
  0.8158399      0.7750399      0.6118399      0.3345600     -0.1999000e-01
 -0.3876800     -0.6864001     -0.8452801     -0.8291200     -0.6553600    
 -0.3913600     -0.1348000      0.2096000e-01  0.2676000e-01 -0.1028400    
 -0.3020800     -0.4915200     -0.6128000     -0.6457601     -0.6067201    
 -0.5328001     -0.4561600     -0.3862400     -0.3132000     -0.2232800    
 -0.1117600      0.1371000e-01  0.1376400      0.2443600      0.3215600    
  0.3593600      0.3515199      0.3012800      0.2268400      0.1591600    
  0.1297200      0.1565200      0.2324000      0.3247600      0.3892800    
  0.3876799      0.3014399      0.1444800     -0.3573000e-01 -0.1782800    
 -0.2344800     -0.1860000     -0.4852000e-01  0.1366400      0.3196000    
  0.4572800      0.5214399      0.4976000      0.3868800      0.2061200    
 -0.1373000e-01 -0.2346400     -0.4228800     -0.5579201     -0.6336000    
 -0.6553600     -0.6331201     -0.5766400     -0.4904000     -0.3760000    
 -0.2395200     -0.9736000e-01  0.2483000e-01  0.9716000e-01  0.1021200    
  0.4764999e-01 -0.3728000e-01 -0.1213600     -0.1876800     -0.2330400    
 -0.2570800     -0.2570000     -0.2296000     -0.1757200     -0.1013600    
 -0.1280000e-01  0.8439998e-01  0.1835600      0.2757199      0.3519999    
  0.4033599      0.4195200      0.3974400      0.3459200      0.2851200    
  0.2379200      0.2255200      0.2654000      0.3695999      0.5406399    
  0.7622399      0.9982399       1.199040       1.315840       1.331200    
   1.244480       1.079680      0.8830400      0.7041600      0.5791999    
  0.5206399      0.5148799      0.5291200      0.5268799      0.4791999    
  0.3689600      0.1913200     -0.5033001e-01 -0.3464000     -0.6824000    
  -1.036640      -1.381120      -1.689600      -1.952000      -2.184960    
  -2.414080      -2.663680      -2.936320      -3.203840      -3.412480    
  -3.514880      -3.479040      -3.298560      -2.990080      -2.565120    
  -2.035200      -1.410560     -0.7148800      0.3520000e-02  0.6964799    
   1.333760       1.918720       2.465280       2.988800       3.489280    
   3.944960       4.325119       4.592639       4.714239       4.650239    
   4.378880       3.902719       3.265280       2.538239       1.797120    
   1.110880      0.5139199      0.2166000e-01 -0.3760000     -0.7076800    
  -1.019520      -1.350400      -1.698560      -2.021120      -2.270720    
  -2.426880      -2.506240      -2.557440      -2.611200      -2.670080    
  -2.691840      -2.625280      -2.455040      -2.205440      -1.937920    
  -1.717760      -1.578240      -1.497600      -1.408000      -1.219040    
 -0.8603201     -0.3072000      0.4079999       1.223040       2.082560    
   2.967040       3.852800       4.689919       5.387520       5.843200    
   5.986559       5.793280       5.276159       4.458240       3.354880    
   1.981440      0.3843200      -1.356800      -3.110400      -4.732161    
  -6.088961      -7.079680      -7.645440      -7.767040      -7.461121    
  -6.775041      -5.767680      -4.505600      -3.063040      -1.520640    
  0.3044000e-01   1.505280       2.849280       4.008960       4.942080    
   5.615359       6.019839       6.179839       6.145279       5.962239    
   5.660159       5.241599       4.679680       3.938560       2.968320    
   1.725440      0.1930800      -1.615360      -3.617280      -5.683200    
  -7.648001      -9.315840      -10.48448      -10.48448      -10.48448    
  -9.411840      -7.374081      -4.654080      -1.447680       1.994240    
   5.377279       8.389118       10.48576       10.48576       10.48576    
   10.48576       9.813759       7.380480       4.632319       1.907200    
 -0.5217600      -2.497280      -3.965440      -4.997120      -5.736960    
  -6.353920      -6.964480      -7.578880      -8.096001      -8.327681    
  -8.058880      -7.130880      -5.475841      -3.143680     -0.2859200    
   2.846720       5.950720       8.756479       10.48576       10.48576    
   10.48576       10.48576       10.16064       7.020800       3.141119    
 -0.9470401      -4.826880      -8.250881      -10.48448      -10.48448    
  -10.48448      -10.48448      -9.483521      -6.016001      -2.000640    
   2.036479       5.756160       8.899839       10.48576       10.48576    
   10.48576       8.340479       4.778239      0.8150399      -3.065600    
  -6.424320      -8.692480      -9.437441      -8.606720      -6.447360    
  -3.404800     -0.5558001e-01   3.005440       5.295360       6.501120    
   6.549759       5.615359       4.069119       2.356480      0.8759999    
 -0.1544400     -0.7347200      -1.050400      -1.363200      -1.870080    
  -2.607360      -3.432960      -4.088321      -4.300800      -3.884800    
  -2.812160      -1.243360      0.5151999       2.088960       3.137280    
   3.421440       2.894080       1.702400      0.1677600      -1.323520    
  -2.388480      -2.757120      -2.327040      -1.191520      0.3721600    
   1.967360       3.179520       3.673600       3.304960       2.176000    
  0.6118399     -0.9520000      -2.105600      -2.600960      -2.420480    
  -1.749760     -0.8803201     -0.1017200      0.3985600      0.5657599    
  0.4577600      0.1972000     -0.8444001e-01 -0.2834000     -0.3459200    
 -0.2776001     -0.1436000     -0.4284000e-01 -0.6840001e-01 -0.2622800    
 -0.5880001     -0.9353601      -1.163680      -1.160800     -0.8913600    
 -0.4108800      0.1594400      0.6819199       1.051680       1.215200    
   1.167040      0.9388800      0.5969599      0.2467200      0.1810000e-01
  0.2470000e-01  0.3067200      0.7903999       1.292160       1.576960    
   1.461760      0.9060799      0.4262999e-01 -0.8454400      -1.443840    
  -1.542400      -1.144480     -0.4745600      0.1203200      0.3239999    
  0.4209999e-02 -0.7203200      -1.527040      -2.036480      -1.998080    
  -1.397760     -0.4668800      0.4424000       1.032320       1.188960    
   1.002400      0.6820799      0.4321600      0.3590400      0.4494399    
  0.6108799      0.7383999      0.7707199      0.7071999      0.5886400    
  0.4542400      0.3077999      0.1117600     -0.1851600     -0.6121601    
  -1.142240      -1.680640      -2.069760      -2.144000      -1.784320    
 -0.9800000      0.1327200       1.296640       2.205440       2.617599    
   2.439680       1.766400      0.8339199     -0.7499000e-01 -0.7168001    
 -0.9625601     -0.8286400     -0.4564800     -0.5302000e-01  0.1893600    
  0.1659200     -0.1054000     -0.4964800     -0.8264000     -0.9422400    
 -0.7801601     -0.3889600      0.9356000e-01  0.4955199      0.6867199    
  0.6279999      0.3832000      0.8219999e-01 -0.1502800     -0.2546000    
 -0.2556400     -0.2292400     -0.2407200     -0.2976400     -0.3502400    
 -0.3331200     -0.2120000     -0.2900000e-03  0.2554399      0.5003200    
  0.6886399      0.7884799      0.7846400      0.6823999      0.5112000    
  0.3152000      0.1290000     -0.4016000e-01 -0.2124000     -0.4096000    
 -0.6219200     -0.7955201     -0.8532801     -0.7406400     -0.4630400    
 -0.8424000e-01  0.3031200      0.6129600      0.7782400      0.7495999    
  0.5027199      0.5289999e-01 -0.5233600      -1.082880      -1.451520    
  -1.475840      -1.091360     -0.3633600      0.5227200       1.310720    
   1.781760       1.811200       1.433600      0.8127999      0.1581600    
 -0.3512000     -0.6246400     -0.6694400     -0.5617601     -0.4038400    
 -0.2834800     -0.2455600     -0.2770400     -0.3182400     -0.2961200    
 -0.1707600      0.3185000e-01  0.2278800      0.3244399      0.2739199    
  0.1016400     -0.1086400     -0.2597200     -0.2859600     -0.1770400    
  0.2448000e-01  0.2440400      0.4040000      0.4510400      0.3742400    
  0.2118000      0.3414000e-01 -0.8636001e-01 -0.1107200     -0.5752000e-01
  0.2030000e-02 -0.1883000e-01 -0.1678400     -0.4150400     -0.6561600    
 -0.7628801     -0.6478400     -0.3124400      0.1446800      0.5718399    
  0.8286399      0.8383999      0.6107199      0.2299200     -0.1756000    
 -0.4720000     -0.5603200     -0.4139200     -0.9268001e-01  0.2742000    
  0.5447999      0.6308799      0.5371200      0.3518400      0.1874400    
  0.1076800      0.9019999e-01  0.4538000e-01 -0.1175200     -0.4184000    
 -0.7740800      -1.032960      -1.058560     -0.8128000     -0.3841600    
  0.5605000e-01  0.3420799      0.4032000      0.2929600      0.1513600    
  0.1232800      0.2762800      0.5654399      0.8609599       1.020480    
  0.9635199      0.7030399      0.3204399     -0.9332001e-01 -0.4763200    
 -0.7984000      -1.040000      -1.171040      -1.156000     -0.9750401    
 -0.6462400     -0.2280800      0.1958800      0.5439999      0.7566400    
  0.8043200      0.6910399      0.4552000      0.1642800     -0.9788001e-01
 -0.2539600     -0.2612400     -0.1273600      0.9443998e-01  0.3268400    
  0.4950399      0.5481600      0.4659200      0.2601600     -0.2880000e-01
 -0.3384000     -0.5996801     -0.7582400     -0.7886400     -0.6953601    
 -0.5030401     -0.2417200      0.5667999e-01  0.3542399      0.6043199    
  0.7547200      0.7691200      0.6412799      0.4033599      0.1133600    
 -0.1660400     -0.3836800     -0.5032001     -0.5056001     -0.3928000    
 -0.1984800      0.1107000e-01  0.1619600      0.2081600      0.1556800    
  0.5595999e-01 -0.3110000e-01 -0.7510000e-01 -0.8756000e-01 -0.1016800    
 -0.1408400     -0.2003600     -0.2524800     -0.2654400     -0.2211600    
 -0.1216800      0.1544000e-01  0.1650000      0.3006000      0.3966399    
  0.4367999      0.4174399      0.3515199      0.2617599      0.1702800    
  0.9091999e-01  0.2495000e-01 -0.3437001e-01 -0.9368001e-01 -0.1536400    
 -0.2076400     -0.2463200     -0.2630800     -0.2556400     -0.2249200    
 -0.1722000     -0.9864001e-01 -0.9460000e-02  0.8035000e-01  0.1467200    
  0.1640400      0.1148000      0.1900000e-02 -0.1452800     -0.2768400    
 -0.3424000     -0.3117200     -0.1898000     -0.1183000e-01  0.1722000    
  0.3180000      0.3964800      0.3961599      0.3215200      0.1914000    
  0.3882000e-01 -0.9636000e-01 -0.1752400     -0.1724000     -0.8632000e-01
  0.5652999e-01  0.2071200      0.3113199      0.3300800      0.2582800    
  0.1224000     -0.3085000e-01 -0.1576800     -0.2342400     -0.2652400    
 -0.2779200     -0.3020000     -0.3470400     -0.3902400     -0.3921600    
 -0.3270800     -0.2085600     -0.8520001e-01 -0.8090001e-02  0.4840000e-02
 -0.1959000e-01 -0.2960000e-01  0.1682000e-01  0.1271200      0.2748800    
  0.4185600      0.5254400      0.5817599      0.5908799      0.5614399    
  0.4999999      0.4067200      0.2797999      0.1245200     -0.3942000e-01
 -0.1813200     -0.2690400     -0.2858800     -0.2427200     -0.1766400    
 -0.1344400     -0.1514400     -0.2348400     -0.3604800     -0.4851200    
