   1.000004      -10.48448       10.48576      -12345.00       1.000005    
   199.6184       1600.624      -12345.00      -12345.00       2.000000    
  -12345.00      -12345.00      -12345.00      -12345.00      -12345.00    
  -12345.00      -12345.00      -12345.00      -12345.00      -12345.00    
  -12345.00      -12345.00      -12345.00      -12345.00      -12345.00    
  -12345.00      -12345.00      -12345.00      -12345.00      -12345.00    
  -12345.00       50.85889      -93.70222      -12345.00      -12345.00    
   40.30000      -127.0000             0.             0.      -12345.00    
  -12345.00      -12345.00      -12345.00      -12345.00      -12345.00    
  -12345.00      -12345.00      -12345.00      -12345.00      -12345.00    
   2820.338       54.26952       258.4055       25.37985      -12345.00    
  -12345.00      0.5032943e-02         0.             0.      -12345.00    
  -12345.00      -12345.00      -12345.00      -12345.00      -12345.00    
  -12345.00      -12345.00      -12345.00      -12345.00      -12345.00    
      1984       254         3        14         7
         0         6         0         0      1402
    -12345    -12345    -12345    -12345    -12345
         1        50        11    -12345    -12345
    -12345    -12345        40    -12345    -12345
    -12345    -12345    -12345    -12345    -12345
    -12345    -12345    -12345    -12345    -12345
         1         0         1         1         0
RSON    EUREKA          
-12345  -12345  -12345  
-12345  -12345  -12345  
-12345  -12345  -12345  
-12345  -12345  -12345  
-12345  -12345  -12345  
-12345  -12345  KL.Z    
RSTN-SAR10/12/84KS-36000
  0.4400000e-03 -0.2000000e-04 -0.7000001e-03 -0.2260000e-02 -0.3660000e-02
 -0.3640000e-02 -0.2580000e-02 -0.1700000e-02 -0.1210000e-02 -0.5900001e-03
  0.3400000e-03  0.1360000e-02  0.2360000e-02  0.3000000e-02  0.2680000e-02
  0.1500000e-02  0.5999999e-03  0.4199999e-03  0.2000000e-04 -0.1160000e-02
 -0.2460000e-02 -0.3280000e-02 -0.3490000e-02 -0.2810000e-02 -0.1190000e-02
  0.3700000e-03  0.1040000e-02  0.1260000e-02  0.1920000e-02  0.2860000e-02
  0.3210000e-02  0.2680000e-02  0.1460000e-02 -0.1300000e-03 -0.1770000e-02
 -0.3020000e-02 -0.3810000e-02 -0.4260001e-02 -0.4260001e-02 -0.3350000e-02
 -0.1490000e-02  0.3300000e-03  0.1310000e-02  0.1880000e-02  0.2830000e-02
  0.3969999e-02  0.4460000e-02  0.3790000e-02  0.2390000e-02  0.1080000e-02
  0.1900000e-03 -0.7400000e-03 -0.2050000e-02 -0.3370000e-02 -0.4000001e-02
 -0.3810000e-02 -0.3210000e-02 -0.2610000e-02 -0.1890000e-02 -0.5800000e-03
  0.1060000e-02  0.2400000e-02  0.3220000e-02  0.3630000e-02  0.3659999e-02
  0.3040000e-02  0.1660000e-02  0.1900000e-03 -0.7600001e-03 -0.1590000e-02
 -0.2870000e-02 -0.4210000e-02 -0.4550001e-02 -0.3600000e-02 -0.2020000e-02
 -0.5500000e-03  0.3000000e-03  0.8200000e-03  0.1460000e-02  0.2200000e-02
  0.2470000e-02  0.2060000e-02  0.1200000e-02  0.2800000e-03 -0.4200000e-03
 -0.7900001e-03 -0.1050000e-02 -0.1400000e-02 -0.1520000e-02 -0.1210000e-02
 -0.9100001e-03 -0.1010000e-02 -0.1060000e-02 -0.5600001e-03  0.2000000e-03
  0.4800000e-03  0.2200000e-03  0.5000000e-04  0.2300000e-03  0.3000000e-03
 -0.7000001e-04 -0.3100000e-03  0.3000000e-04  0.4199999e-03  0.2000000e-04
 -0.8600000e-03 -0.1170000e-02 -0.7900001e-03 -0.5000001e-03 -0.6200001e-03
 -0.5600001e-03 -0.8000000e-04  0.1800000e-03 -0.1000000e-03 -0.3800000e-03
 -0.6000000e-04  0.4600000e-03  0.4600000e-03 -0.1100000e-03 -0.8000000e-03
 -0.1070000e-02 -0.9100001e-03 -0.5300001e-03 -0.1000000e-03  0.3800000e-03
  0.9499999e-03  0.1460000e-02  0.1690000e-02  0.1750000e-02  0.1900000e-02
  0.1790000e-02  0.1020000e-02 -0.2100000e-03 -0.1250000e-02 -0.1710000e-02
  0.9600000e-03  0.1842000e-01  0.7042000e-01  0.1610400      0.2689999    
  0.3862399      0.5131199      0.5867199      0.5145600      0.2608799    
 -0.1410400     -0.6112001      -1.031040      -1.280800      -1.308000    
  -1.152640     -0.8993601     -0.6259201     -0.3726400     -0.1406800    
  0.8780000e-01  0.3292800      0.5777600      0.7897599      0.9123199    
  0.9286399      0.8623999      0.7531199      0.6375999      0.5316799    
  0.4345599      0.3452799      0.2667199      0.2079200      0.1822400    
  0.1797200      0.1628400      0.9687999e-01 -0.2630000e-01 -0.1927200    
 -0.3744000     -0.5401601     -0.6776000     -0.7875201     -0.8638400    
 -0.8894401     -0.8449601     -0.7144001     -0.4948800     -0.2072400    
  0.9827998e-01  0.3596799      0.5295999      0.5905600      0.5566399    
  0.4635199      0.3499200      0.2447600      0.1582800      0.9143999e-01
  0.3845999e-01 -0.6220000e-02 -0.3884000e-01 -0.5172000e-01 -0.4104000e-01
 -0.9300001e-02  0.3228000e-01  0.6344000e-01  0.6676999e-01  0.4051000e-01
 -0.3810000e-02 -0.5022001e-01 -0.8332001e-01 -0.9760000e-01 -0.1019200    
 -0.1072400     -0.1203200     -0.1435200     -0.1697600     -0.1817200    
 -0.1648400     -0.1177600     -0.4363000e-01  0.5454999e-01  0.1692000    
  0.2824399      0.3663999      0.3992000      0.3744000      0.3070000    
  0.2222400      0.1452000      0.8751999e-01  0.4379000e-01 -0.4710000e-02
 -0.7135001e-01 -0.1508400     -0.2222000     -0.2696400     -0.2912400    
 -0.2867200     -0.2583600     -0.2213200     -0.1896000     -0.1611200    
 -0.1262400     -0.8187000e-01 -0.3626000e-01 -0.3640000e-02  0.4100000e-02
 -0.1636000e-01 -0.5700000e-01 -0.1008400     -0.1324400     -0.1471600    
 -0.1463600     -0.1268800     -0.8046001e-01 -0.7610001e-02  0.8295999e-01
  0.1810400      0.2722000      0.3388799      0.3708799      0.3659199    
  0.3279999      0.2668400      0.1944000      0.1176000      0.3202999e-01
 -0.6017000e-01 -0.1397600     -0.1861600     -0.1901200     -0.1538400    
 -0.9512000e-01 -0.3889000e-01 -0.9100001e-03  0.1915000e-01  0.3252000e-01
  0.5018999e-01  0.7506999e-01  0.1024000      0.1264000      0.1428400    
  0.1464000      0.1327200      0.1016000      0.5423000e-01 -0.5890001e-02
 -0.6810001e-01 -0.1230800     -0.1663200     -0.1928800     -0.1981200    
 -0.1856800     -0.1667600     -0.1514000     -0.1392400     -0.1256400    
 -0.1101200     -0.9240000e-01 -0.7213001e-01 -0.5379000e-01 -0.4057001e-01
 -0.2766000e-01 -0.9950001e-02  0.8509999e-02  0.2195000e-01  0.3126000e-01
  0.4168999e-01  0.5985999e-01  0.8995999e-01  0.1316000      0.1782800    
  0.2226400      0.2574800      0.2754800      0.2732400      0.2500000    
  0.2033600      0.1334800      0.4557999e-01 -0.5440000e-01 -0.1592400    
 -0.2547600     -0.3227600     -0.3524800     -0.3427200     -0.2997200    
 -0.2350000     -0.1587600     -0.7977000e-01 -0.7680000e-02  0.4813000e-01
  0.8447999e-01  0.1064400      0.1210800      0.1340800      0.1444800    
  0.1459600      0.1374000      0.1236000      0.1039200      0.7473999e-01
  0.3867000e-01  0.1230000e-02 -0.3837001e-01 -0.7826000e-01 -0.1062800    
 -0.1117600     -0.9868000e-01 -0.7747000e-01 -0.5533000e-01 -0.3469000e-01
 -0.1781000e-01 -0.7660001e-02 -0.4530001e-02 -0.6210000e-02 -0.9390000e-02
 -0.7280000e-02  0.6669999e-02  0.3361999e-01  0.6862000e-01  0.1003200    
  0.1191200      0.1255600      0.1282800      0.1304000      0.1254000    
  0.1060000      0.7095999e-01  0.2312000e-01 -0.3066000e-01 -0.8067000e-01
 -0.1180000     -0.1390800     -0.1491600     -0.1549200     -0.1578800    
 -0.1559600     -0.1458400     -0.1228400     -0.8456001e-01 -0.3498001e-01
  0.1689000e-01  0.6282999e-01  0.9951998e-01  0.1279600      0.1482400    
  0.1583600      0.1543600      0.1319600      0.9063999e-01  0.3512000e-01
 -0.2435000e-01 -0.7402000e-01 -0.1048400     -0.1141600     -0.1052800    
 -0.8404000e-01 -0.5284000e-01 -0.8210002e-02  0.5577999e-01  0.1410400    
  0.2368800      0.3158000      0.3446400      0.3041199      0.1950400    
  0.5010000e-01 -0.7849000e-01 -0.1444800     -0.1393600     -0.9736000e-01
 -0.7239001e-01 -0.1117200     -0.2342400     -0.4254400     -0.6422400    
 -0.8347200     -0.9705601      -1.051680      -1.099040      -1.111680    
  -1.055360     -0.8843200     -0.5689601     -0.1091200      0.4627200    
   1.099200       1.739520       2.337280       2.816000       3.095040    
   3.092480       2.757120       2.095360       1.189600      0.1594000    
 -0.8390400      -1.676800      -2.254080      -2.539520      -2.543360    
  -2.310400      -1.904640      -1.384960     -0.8105600     -0.2528800    
  0.2381600      0.6071999      0.8016000      0.7827200      0.5481600    
  0.1428400     -0.3484800     -0.8153601      -1.155680      -1.294720    
  -1.201440     -0.8940800     -0.4331200      0.1012800      0.6276799    
   1.079520       1.395200       1.555200       1.551360       1.410560    
   1.184320      0.9155200      0.6571199      0.4292800      0.2270800    
  0.4059000e-01 -0.1315200     -0.2856800     -0.4214400     -0.5401601    
 -0.6516800     -0.7651200     -0.8792000     -0.9750401      -1.017120    
 -0.9667200     -0.7988800     -0.5176001     -0.1560400      0.2314400    
  0.5913600      0.8865600       1.098720       1.222400       1.255520    
   1.194560       1.032800      0.7673600      0.4119999      0.5559999e-02
 -0.4043200     -0.7713600      -1.068960      -1.280000      -1.393920    
  -1.383680      -1.242240      -1.001760     -0.6947200     -0.3734400    
 -0.8692001e-01  0.1257200      0.2476400      0.2855200      0.2658399    
  0.2256800      0.2028800      0.2252000      0.3029600      0.4299200    
  0.5896000      0.7516799      0.8819199      0.9513599      0.9447999    
  0.8631999      0.7215999      0.5475199      0.3723199      0.2207200    
  0.9991999e-01  0.8369999e-02 -0.5986000e-01 -0.1122800     -0.1600000    
 -0.2174800     -0.2978800     -0.4073600     -0.5361600     -0.6625600    
 -0.7558401     -0.7876800     -0.7443200     -0.6337601     -0.4838400    
 -0.3348800     -0.2219200     -0.1636400     -0.1532000     -0.1680800    
 -0.1812000     -0.1750800     -0.1498400     -0.1216000     -0.1136400    
 -0.1466000     -0.2330800     -0.3763200     -0.5633601     -0.7665601    
 -0.9464000      -1.063680      -1.092800      -1.028640     -0.8824000    
 -0.6729600     -0.4251200     -0.1650800      0.8204000e-01  0.3067200    
  0.5099199      0.6967999      0.8713599       1.040480       1.217280    
   1.410560       1.638400       1.885440       2.124800       2.324480    
   2.464000       2.536960       2.553600       2.531840       2.476799    
   2.398720       2.283520       2.122240       1.894400       1.592320    
   1.219360      0.7659199      0.2494000     -0.3176400     -0.9126401    
  -1.504000      -2.041600      -2.506240      -2.909440      -3.276800    
  -3.622400      -3.937280      -4.186880      -4.343040      -4.413441    
  -4.430080      -4.414721      -4.348161      -4.174080      -3.834880    
  -3.315200      -2.652160      -1.911040      -1.133600     -0.3608000    
  0.4067200       1.174400       1.943040       2.721280       3.482880    
   4.186879       4.794879       5.265920       5.582079       5.736959    
   5.726719       5.523199       5.114880       4.513279       3.776000    
   2.983680       2.190080       1.408000      0.6127999     -0.2522400    
  -1.183520      -2.127360      -2.982400      -3.677440      -4.170240    
  -4.480000      -4.674561      -4.826880      -4.970241      -5.075200    
  -5.068800      -4.876801      -4.459520      -3.836160      -3.074560    
  -2.234880      -1.327360     -0.3248800      0.7711999       1.931520    
   3.093760       4.181760       5.167359       6.051840       6.855680    
   7.537919       7.999999       8.098558       7.714560       6.798079    
   5.406719       3.673600       1.753600     -0.2174400      -2.170880    
  -4.033280      -5.766400      -7.310081      -8.578560      -9.475842    
  -9.930241      -9.902081      -9.384960      -8.398081      -6.987520    
  -5.236481      -3.249920      -1.132640       1.012160       3.116800    
   5.134079       6.991360       8.625919       9.954559       10.48576    
   10.48576       10.48576       10.48576       9.285118       7.429119    
   5.043200       2.204160     -0.9539200      -4.245760      -7.377920    
  -10.12096      -10.48448      -10.48448      -10.48448      -10.48448    
  -10.48448      -10.48448      -8.541441      -4.981760     -0.9689600    
   3.054080       6.744319       9.868799       10.48576       10.48576    
   10.48576       10.48576       10.48576       10.48576       8.693758    
   6.165759       3.307520      0.1660800      -3.166720      -6.420481    
  -9.337601      -10.48448      -10.48448      -10.48448      -10.48448    
  -10.48448      -10.48448      -8.953600      -5.045760     -0.7872001    
   3.363840       7.110399       10.29120       10.48576       10.48576    
   10.48576       10.48576       10.48576       7.687679       3.096320    
  -1.337600      -5.422080      -8.940802      -10.48448      -10.48448    
  -10.48448      -10.48448      -7.301121      -3.147520       1.066400    
   4.990720       8.359678       10.48576       10.48576       10.48192    
   7.820799       4.199679      0.2586800      -3.553280      -6.753281    
  -8.858881      -9.589760      -8.934401      -7.097600      -4.472321    
  -1.579520       1.048000       2.978559       4.049919       4.336639    
   4.115199       3.713280       3.356160       3.075840       2.727680    
   2.095360       1.036160     -0.4217600      -2.050560      -3.485440    
  -4.366080      -4.436481      -3.618560      -2.037760      0.2395000e-01
   2.147840       3.925760       4.967679       5.031679       4.071679    
   2.272000      0.2178000e-01  -2.188800      -3.820800      -4.490240    
  -4.044801      -2.613760     -0.5696000       1.527040       3.151360    
   3.915520       3.712000       2.717440       1.304640     -0.1149200    
  -1.209600      -1.827840      -1.973760      -1.788160      -1.442560    
  -1.077120     -0.7878400     -0.5793600     -0.4076800     -0.1950800    
  0.1311600      0.6035199       1.180480       1.729280       2.086400    
   2.090240       1.681920      0.9316800      0.6619999e-02 -0.8800000    
  -1.559040      -1.927680      -1.980160      -1.757440      -1.301760    
 -0.7016001     -0.5615000e-01  0.4854400      0.7774400      0.7359999    
  0.3964800     -0.7750000e-01 -0.4491200     -0.5032001     -0.1566800    
  0.4923199       1.198880       1.656320       1.660160       1.171520    
  0.3686399     -0.4112000     -0.8491200     -0.7958400     -0.3512000    
  0.1830400      0.4560000      0.2670000     -0.3206800      -1.003360    
  -1.411840      -1.292000     -0.6945601      0.1150400      0.7807999    
   1.062080      0.9310399      0.5502399      0.1527600     -0.8764000e-01
 -0.1260400     -0.4334000e-01  0.2747000e-01 -0.5900000e-02 -0.1400400    
 -0.2814000     -0.3053200     -0.1312000      0.2208400      0.6180799    
  0.8612800      0.7652799      0.2502800     -0.6024001      -1.553920    
  -2.260480      -2.440960      -1.963520     -0.9214400      0.3755199    
   1.551360       2.302720       2.475520       2.103040       1.376000    
  0.5590400     -0.1077200     -0.4536000     -0.4376000     -0.1574400    
  0.1859200      0.3678399      0.2337600     -0.2363200     -0.9086400    
  -1.553920      -1.913600      -1.836800      -1.318400     -0.5022401    
  0.3561600       1.030080       1.382400       1.437440       1.296160    
   1.063360      0.7945600      0.4652799      0.3337000e-01 -0.4913600    
  -1.006720      -1.369600      -1.437440      -1.173120     -0.6534400    
 -0.8930001e-02  0.6020799       1.053440       1.269440       1.236320    
   1.001280      0.6502399      0.2741600     -0.6852001e-01 -0.3644800    
 -0.6291200     -0.8748801      -1.080480      -1.196640      -1.180480    
  -1.027680     -0.7704000     -0.4459200     -0.6491001e-01  0.3801600    
  0.8897599       1.404160       1.821440       1.981440       1.761280    
   1.149920      0.2660000     -0.6363200      -1.277760      -1.480960    
  -1.222560     -0.6952001     -0.1585600      0.1598000      0.1745200    
 -0.3996000e-01 -0.3116800     -0.4704000     -0.4315200     -0.2318000    
  0.2540000e-02  0.1370800      0.1092800     -0.3154001e-01 -0.1511600    
 -0.1114800      0.1353600      0.5039999      0.8163199      0.8985599    
  0.6819199      0.2364000     -0.2742400     -0.6734401     -0.8425601    
 -0.7504001     -0.4422400     -0.1415000e-01  0.4044800      0.6894399    
  0.7497599      0.5699199      0.2276400     -0.1285600     -0.3398400    
 -0.3141200     -0.8460000e-01  0.2023200      0.3531200      0.2317600    
 -0.1711200     -0.7192000      -1.189760      -1.381120      -1.168320    
 -0.6084801      0.1432800      0.8619199       1.335040       1.441280    
   1.171840      0.6300799      0.3691000e-01 -0.3838400     -0.4944000    
 -0.3158400     -0.1355000e-01  0.1990400      0.1807200     -0.5874000e-01
 -0.3670400     -0.5377600     -0.4433600     -0.1176000      0.2541200    
  0.4460800      0.3273600     -0.5935000e-01 -0.5187200     -0.8035201    
 -0.7561600     -0.3846400      0.1488800      0.6134399      0.8299199    
  0.7446399      0.4385599      0.6930999e-01 -0.2152800     -0.3353601    
 -0.2898800     -0.1303600      0.8739999e-01  0.3198400      0.5273600    
  0.6592000      0.6536000      0.4652799      0.1041600     -0.3582400    
 -0.8032000      -1.117120      -1.229280      -1.129280     -0.8512000    
 -0.4483200      0.2244000e-01  0.4912000      0.8785599       1.099360    
   1.095520      0.8686399      0.4892800      0.7539000e-01 -0.2536400    
 -0.4180800     -0.4051200     -0.2693200     -0.1032800      0.1018000e-01
  0.3075000e-01 -0.2512000e-01 -0.1038400     -0.1519200     -0.1486800    
 -0.1114400     -0.7698001e-01 -0.7519001e-01 -0.1117600     -0.1702000    
 -0.2252800     -0.2514800     -0.2254800     -0.1270400      0.5121999e-01
  0.2842399      0.5094399      0.6484799      0.6422399      0.4846399    
  0.2234400     -0.6992000e-01 -0.3332800     -0.5286400     -0.6337601    
 -0.6216000     -0.4636800     -0.1582400      0.2394800      0.6212800    
  0.8662399      0.8937600      0.7001599      0.3550400     -0.3287000e-01
 -0.3625600     -0.5654401     -0.6232001     -0.5529600     -0.3920000    
 -0.1869600      0.5879999e-02  0.1326800      0.1571200      0.7565999e-01
 -0.7707001e-01 -0.2377600     -0.3425600     -0.3550400     -0.2844800    
 -0.1732800     -0.6609000e-01  0.1002000e-01  0.4992999e-01  0.5930000e-01
  0.4853000e-01  0.3621999e-01  0.4901999e-01  0.1096800      0.2217600    
  0.3598400      0.4780800      0.5244800      0.4681600      0.3187200    
  0.1263200     -0.3616000e-01 -0.1120400     -0.8720000e-01  0.6180000e-02
  0.1124400      0.1835200      0.1967600      0.1550000      0.7190000e-01
 -0.4217000e-01 -0.1808000     -0.3348800     -0.4835200     -0.5958401    
 -0.6355201     -0.5771201     -0.4219200     -0.2005200      0.3439000e-01
  0.2303200      0.3475199      0.3695999      0.3050399      0.1865600    
  0.6342000e-01 -0.2466000e-01 -0.6296000e-01 -0.6082001e-01 -0.3154001e-01
  0.2375000e-01  0.1095200      0.2148800      0.3019600      0.3214800    
  0.2456800      0.9215999e-01 -0.8328001e-01 -0.2205600     -0.2897600    
 -0.2984400     -0.2722400     -0.2310400     -0.1790000     -0.1108000    
 -0.2451000e-01  0.6891999e-01  0.1473200      0.1879200      0.1777200    
  0.1194400      0.2963000e-01 -0.6632000e-01 -0.1417600     -0.1790400    
 -0.1768800     -0.1460400     -0.9948000e-01 -0.4419000e-01  0.2182000e-01
