   1.000004      -10.48448       10.48576      -12345.00       1.000005    
   199.6184       1600.624      -12345.00      -12345.00       2.000000    
  -12345.00      -12345.00      -12345.00      -12345.00      -12345.00    
  -12345.00      -12345.00      -12345.00      -12345.00      -12345.00    
  -12345.00      -12345.00      -12345.00      -12345.00      -12345.00    
  -12345.00      -12345.00      -12345.00      -12345.00      -12345.00    
  -12345.00       50.85889      -93.70222      -12345.00      -12345.00    
   40.30000      -127.0000             0.             0.      -12345.00    
  -12345.00      -12345.00      -12345.00      -12345.00      -12345.00    
  -12345.00      -12345.00      -12345.00      -12345.00      -12345.00    
   2820.338       54.26952       258.4055       25.37985      -12345.00    
  -12345.00     -0.5881919e-02         0.       90.00000      -12345.00    
  -12345.00      -12345.00      -12345.00      -12345.00      -12345.00    
  -12345.00      -12345.00      -12345.00      -12345.00      -12345.00    
      1984       254         3        14         7
         0         6         0         0      1402
    -12345    -12345    -12345    -12345    -12345
         1        50        11    -12345    -12345
    -12345    -12345        40    -12345    -12345
    -12345    -12345    -12345    -12345    -12345
    -12345    -12345    -12345    -12345    -12345
         1         0         1         1         0
RSON    EUREKA          
-12345  -12345  -12345  
-12345  -12345  -12345  
-12345  -12345  -12345  
-12345  -12345  -12345  
-12345  -12345  -12345  
-12345  -12345  KL.N    
RSTN-SAR10/12/84KS-36000
 -0.5600001e-03 -0.9700001e-03 -0.1200000e-02 -0.1420000e-02 -0.1370000e-02
 -0.8700000e-03 -0.1300000e-03  0.3800000e-03  0.5799999e-03  0.6400000e-03
  0.8399999e-03  0.1150000e-02  0.1110000e-02  0.5499999e-03  0.4000000e-04
 -0.8000000e-04 -0.2200000e-03 -0.7700000e-03 -0.1260000e-02 -0.1050000e-02
 -0.4400000e-03 -0.2000000e-03 -0.4800000e-03 -0.5200000e-03  0.6999999e-04
  0.7000000e-03  0.6700000e-03  0.3599999e-03  0.3100000e-03  0.3899999e-03
  0.2800000e-03 -0.5000000e-04 -0.5000001e-03 -0.9300000e-03 -0.1300000e-02
 -0.1590000e-02 -0.1770000e-02 -0.1710000e-02 -0.1590000e-02 -0.1530000e-02
 -0.1270000e-02 -0.5800000e-03  0.6999999e-04  0.8000000e-04 -0.3900000e-03
 -0.7400000e-03 -0.6100000e-03 -0.2400000e-03 -0.2400000e-03 -0.7100001e-03
 -0.1080000e-02 -0.1000000e-02 -0.7100001e-03 -0.2800000e-03  0.2899999e-03
  0.4899999e-03  0.2200000e-03  0.5000000e-03  0.1730000e-02  0.2650000e-02
  0.2340000e-02  0.1480000e-02  0.1260000e-02  0.1640000e-02  0.1640000e-02
  0.1040000e-02  0.4499999e-03  0.2100000e-03  0.1000000e-04 -0.2100000e-03
 -0.3900000e-03 -0.5800000e-03 -0.8900000e-03 -0.1170000e-02 -0.1190000e-02
 -0.8900000e-03 -0.2400000e-03  0.4100000e-03  0.6599999e-03  0.6199999e-03
  0.6099999e-03  0.5300000e-03  0.2700000e-03  0.4000000e-04 -0.1400000e-03
 -0.3600000e-03 -0.5300001e-03 -0.5400000e-03 -0.4400000e-03 -0.2800000e-03
 -0.3000000e-04  0.1800000e-03  0.2100000e-03  0.5000000e-04 -0.1300000e-03
 -0.2700000e-03 -0.4600000e-03 -0.6300000e-03 -0.5600001e-03 -0.2400000e-03
 -0.4000000e-04 -0.1100000e-03 -0.2300000e-03 -0.3200000e-03 -0.5000001e-03
 -0.6600000e-03 -0.7400000e-03 -0.7300001e-03 -0.6100000e-03 -0.5200000e-03
 -0.6000000e-03 -0.5200000e-03 -0.2000000e-04  0.5999999e-03  0.8999999e-03
  0.9199999e-03  0.9099999e-03  0.8200000e-03  0.5499999e-03  0.3000000e-03
  0.3800000e-03  0.5499999e-03  0.3599999e-03  0.1200000e-03  0.2899999e-03
  0.5499999e-03  0.3000000e-03 -0.3300000e-03 -0.5600001e-03 -0.2700000e-03
 -0.1200000e-03 -0.4700000e-03 -0.1000000e-02 -0.1270000e-02 -0.1180000e-02
 -0.4100000e-03  0.2920000e-02  0.1206000e-01  0.2757000e-01  0.4612000e-01
  0.6680000e-01  0.8939999e-01  0.1046000      0.9743999e-01  0.6078000e-01
 -0.1610000e-02 -0.7750000e-01 -0.1486800     -0.1945600     -0.2077600    
 -0.1966000     -0.1736000     -0.1477200     -0.1200800     -0.8492000e-01
 -0.3614000e-01  0.2289000e-01  0.7999998e-01  0.1216000      0.1406400    
  0.1388000      0.1268800      0.1178800      0.1153600      0.1103600    
  0.9412000e-01  0.6831999e-01  0.4103000e-01  0.2505000e-01  0.3085000e-01
  0.5711000e-01  0.8695999e-01  0.1006400      0.9111999e-01  0.6017999e-01
  0.1170000e-01 -0.4103000e-01 -0.8444001e-01 -0.1184000     -0.1501600    
 -0.1769200     -0.1865600     -0.1728000     -0.1396800     -0.9508000e-01
 -0.4941000e-01 -0.1520000e-01  0.5499999e-03  0.1440000e-02 -0.7200000e-03
  0.5700000e-02  0.2415000e-01  0.5030999e-01  0.7584000e-01  0.9179999e-01
  0.9611999e-01  0.9288000e-01  0.8623999e-01  0.7611999e-01  0.5934999e-01
  0.3305999e-01 -0.9300000e-03 -0.3306000e-01 -0.5443000e-01 -0.6190000e-01
 -0.5552001e-01 -0.3827000e-01 -0.1736000e-01 -0.2760000e-02 -0.2000000e-03
 -0.7620000e-02 -0.1700000e-01 -0.2130000e-01 -0.2131000e-01 -0.2025000e-01
 -0.1891000e-01 -0.1847000e-01 -0.1903000e-01 -0.1701000e-01 -0.7250001e-02
  0.1159000e-01  0.3564999e-01  0.5853999e-01  0.7535999e-01  0.8583999e-01
  0.9223999e-01  0.9475999e-01  0.9371999e-01  0.8871999e-01  0.7586999e-01
  0.5110999e-01  0.1688000e-01 -0.2249000e-01 -0.6273000e-01 -0.9804000e-01
 -0.1220800     -0.1335600     -0.1336800     -0.1219600     -0.9948000e-01
 -0.6905000e-01 -0.3258000e-01  0.7209999e-02  0.4323000e-01  0.6591000e-01
  0.7110000e-01  0.6265999e-01  0.4577000e-01  0.2684000e-01  0.1180000e-01
  0.1210000e-02 -0.7360000e-02 -0.1479000e-01 -0.2039000e-01 -0.2404000e-01
 -0.2809000e-01 -0.3706000e-01 -0.5365000e-01 -0.7596001e-01 -0.9576000e-01
 -0.1020000     -0.9024000e-01 -0.6164000e-01 -0.1998000e-01  0.2710000e-01
  0.7027999e-01  0.1059200      0.1340800      0.1499200      0.1492400    
  0.1346400      0.1100800      0.7764000e-01  0.3924999e-01 -0.3360000e-02
 -0.4868000e-01 -0.8980000e-01 -0.1174800     -0.1274800     -0.1153200    
 -0.7662001e-01 -0.1660000e-01  0.5306000e-01  0.1194000      0.1696000    
  0.1916000      0.1816800      0.1438800      0.8415999e-01  0.1370000e-01
 -0.5210000e-01 -0.1034000     -0.1404000     -0.1667600     -0.1851600    
 -0.1967600     -0.1962000     -0.1743600     -0.1313200     -0.7825001e-01
 -0.2600000e-01  0.2078000e-01  0.5892999e-01  0.8535999e-01  0.1018800    
  0.1139200      0.1248800      0.1326000      0.1323600      0.1184800    
  0.8464000e-01  0.3308000e-01 -0.2475000e-01 -0.7459001e-01 -0.1056400    
 -0.1138000     -0.1029200     -0.8113000e-01 -0.5688000e-01 -0.3384000e-01
 -0.1126000e-01  0.1284000e-01  0.3659000e-01  0.5685999e-01  0.7482000e-01
  0.9071998e-01  0.1012000      0.1042400      0.1010800      0.8987999e-01
  0.6687999e-01  0.3185000e-01 -0.1029000e-01 -0.5188000e-01 -0.8596000e-01
 -0.1100000     -0.1256000     -0.1342000     -0.1353600     -0.1273200    
 -0.1094400     -0.8544001e-01 -0.6253001e-01 -0.4386000e-01 -0.2767000e-01
 -0.1512000e-01 -0.5490000e-02  0.7769999e-02  0.3127000e-01  0.6735998e-01
  0.1122400      0.1576400      0.1924000      0.2064400      0.1938800    
  0.1572800      0.1069200      0.5550999e-01  0.1239000e-01 -0.1648000e-01
 -0.2981000e-01 -0.3134000e-01 -0.2709000e-01 -0.2237000e-01 -0.2043000e-01
 -0.2196000e-01 -0.2699000e-01 -0.3693000e-01 -0.5248000e-01 -0.7165000e-01
 -0.9128000e-01 -0.1072400     -0.1154800     -0.1113600     -0.9168001e-01
 -0.5936000e-01 -0.2491000e-01 -0.1300000e-03  0.9529999e-02  0.6519999e-02
 -0.6160000e-02 -0.2480000e-01 -0.4104000e-01 -0.4762001e-01 -0.4293000e-01
 -0.2793000e-01 -0.3320000e-02  0.2826000e-01  0.6039000e-01  0.8747999e-01
  0.1078000      0.1177600      0.1140400      0.9735999e-01  0.7156999e-01
  0.4207999e-01  0.1673000e-01  0.3370000e-02  0.5129999e-02  0.1529000e-01
  0.1990000e-01  0.5030000e-02 -0.3792001e-01 -0.1067200     -0.1834400    
 -0.2364800     -0.2296000     -0.1398400      0.2823000e-01  0.2401600    
  0.4488000      0.6156800      0.7155199      0.7353599      0.6880000    
  0.6207999      0.5889599      0.6206399      0.7067199      0.8097600    
  0.8563199      0.7353599      0.3395200     -0.3808000      -1.411840    
  -2.662400      -4.001281      -5.242880      -6.179840      -6.598400    
  -6.339840      -5.324800      -3.584000      -1.271040       1.326080    
   3.900160       6.131200       7.793920       8.760319       9.020159    
   8.659199       7.811839       6.609920       5.164800       3.554560    
   1.847040      0.1234000      -1.552640      -3.063040      -4.313601    
  -5.209600      -5.702400      -5.799681      -5.565440      -5.095680    
  -4.476160      -3.758080      -2.963200      -2.108160      -1.226080    
 -0.3936000      0.3145599      0.8360000       1.156800       1.303360    
   1.312000       1.244480       1.111360      0.9422399      0.7468799    
  0.5284799      0.2956400      0.7380000e-01 -0.8912000e-01 -0.1336000    
 -0.1778000e-01  0.2557600      0.6348799       1.034880       1.363200    
   1.582080       1.670400       1.638400       1.492480       1.233440    
  0.8678399      0.4436800      0.1491000e-01 -0.3747200     -0.6912000    
 -0.9148800      -1.035200      -1.047040     -0.9433601     -0.7209600    
 -0.3972800     -0.2031000e-01  0.3424000      0.6363199      0.8236799    
  0.8868799      0.8284799      0.6689600      0.4382399      0.1684800    
 -0.1086800     -0.3588800     -0.5504000     -0.6648000     -0.6936001    
 -0.6368001     -0.5059201     -0.3294400     -0.1507200     -0.1695000e-01
  0.4155999e-01  0.1888000e-01 -0.6891000e-01 -0.1890800     -0.3032000    
 -0.3862400     -0.4350400     -0.4676800     -0.5099200     -0.5854400    
 -0.7086401     -0.8793601      -1.076320      -1.259360      -1.388800    
  -1.418240      -1.344000      -1.171520     -0.9358400     -0.6624000    
 -0.3755200     -0.8704001e-01  0.1948000      0.4615999      0.7024000    
  0.9075199       1.077600       1.224800       1.358080       1.502720    
   1.651200       1.792000       1.912320       1.992960       2.028800    
   2.022400       1.986560       1.934080       1.871360       1.785600    
   1.648640       1.420800       1.074240      0.5814400     -0.3681000e-01
 -0.7328000      -1.434880      -2.053120      -2.529280      -2.821120    
  -2.920960      -2.856960      -2.679040      -2.451200      -2.227200    
  -2.040320      -1.891840      -1.760000      -1.612800      -1.418240    
  -1.144160     -0.7830400     -0.3270800      0.2022800      0.7671999    
   1.315840       1.822720       2.254080       2.598400       2.859519    
   3.052800       3.191040       3.276800       3.294720       3.203840    
   2.951680       2.497280       1.804800      0.8911999     -0.2158800    
  -1.438720      -2.663680      -3.797760      -4.751360      -5.452801    
  -5.857281      -5.943040      -5.721601      -5.239040      -4.561920    
  -3.769600      -2.901760      -1.931520     -0.7688000      0.6542399    
   2.344960       4.220160       6.082560       7.713280       8.922878    
   9.583359       9.639679       9.103359       8.043518       6.554879    
   4.719359       2.595840      0.2346400      -2.307840      -4.858880    
  -7.214080      -9.158401      -10.48448      -10.48448      -10.48448    
  -10.48448      -10.15040      -8.613121      -6.464001      -3.732480    
 -0.5491201       2.826240       6.103040       9.020159       10.48576    
   10.48576       10.48576       10.48576       10.48576       9.785599    
   6.517759       2.608640      -1.482240      -5.306880      -8.487680    
  -10.48448      -10.48448      -10.48448      -10.48448      -8.737280    
  -6.192640      -3.290880     -0.3250000       2.393600       4.614399    
   6.106879       6.709760       6.374399       5.201920       3.447040    
   1.455360     -0.4072000      -1.879040      -2.771200      -3.037440    
  -2.702080      -1.845760     -0.5827200      0.9185599       2.474240    
   3.882240       4.910079       5.324800       4.962560       3.765759    
   1.844480     -0.5416000      -3.092480      -5.450240      -7.313920    
  -8.404480      -8.526081      -7.589120      -5.651200      -2.922240    
  0.2582400       3.424000       6.108159       7.875839       8.455679    
   7.784960       6.004479       3.416320      0.4494399      -2.410240    
  -4.631041      -5.813761      -5.765121      -4.551681      -2.465280    
  0.7228999e-01   2.565120       4.596479       5.803519       5.925119    
   4.832000       2.625280     -0.2813600      -3.362560      -6.016001    
  -7.608320      -7.700480      -6.269441      -3.672320     -0.4904000    
   2.590720       4.970240       6.220799       6.215679       5.136640    
   3.386879       1.483520     -0.9300001e-01  -1.031200      -1.232800    
 -0.8550401     -0.2383600      0.2078400      0.1452000     -0.5878401    
  -1.930240      -3.603200      -5.192961      -6.231040      -6.312961    
  -5.214721      -3.002880     -0.6599000e-01   3.045120       5.818879    
   7.664639       8.115198       7.065599       4.760320       1.754880    
  -1.213760      -3.470080      -4.546560      -4.363521      -3.192320    
  -1.550080     -0.1160000e-02   1.004000       1.292480      0.9367999    
  0.1935600     -0.6051201      -1.155040      -1.277920     -0.9657600    
 -0.3691200      0.2683600      0.7075199      0.8083199      0.5667199    
  0.1010800     -0.4080000     -0.7859200     -0.9296000     -0.8262401    
 -0.5312001     -0.1196000      0.3457600      0.8163199       1.228480    
   1.502720       1.593600       1.479680       1.194560      0.7664000    
  0.2511600     -0.3081600     -0.8643200      -1.356800      -1.685760    
  -1.760000      -1.514240     -0.9784000     -0.3004000      0.3313600    
  0.7715199      0.9892799       1.069280       1.145440       1.305120    
   1.511680       1.626880       1.454080      0.8843199     -0.5795000e-01
  -1.170240      -2.165760      -2.762240      -2.817280      -2.351360    
  -1.536000     -0.6060801      0.2201600      0.8259199       1.191200    
   1.345280       1.345280       1.225760      0.9996799      0.7079999    
  0.3916799      0.8563998e-01 -0.1940800     -0.4392000     -0.6246400    
 -0.6977600     -0.5923201     -0.2713600      0.2256000      0.7740799    
   1.199200       1.336320       1.131840      0.6140800     -0.5923000e-01
 -0.6896000      -1.094560      -1.173760     -0.9366400     -0.5014400    
 -0.5732000e-01  0.1978000      0.1398800     -0.2256000     -0.7446400    
  -1.161440      -1.234240     -0.8564800     -0.1177600      0.7321600    
   1.399040       1.693440       1.569280       1.154560      0.6398399    
  0.2105200     -0.5485000e-01 -0.1886000     -0.2865600     -0.4342400    
 -0.6451200     -0.8564800     -0.9713601     -0.9198400     -0.6992000    
 -0.3718400     -0.3088000e-01  0.2381600      0.3892800      0.4214399    
  0.3670400      0.2786400      0.2025600      0.1634400      0.1565200    
  0.1641600      0.1733200      0.1760800      0.1565600      0.8576000e-01
 -0.5784000e-01 -0.2512400     -0.4057600     -0.3996800     -0.1597200    
  0.2686400      0.7169600      0.9639999      0.8499199      0.3782400    
 -0.2644800     -0.7950400     -0.9689600     -0.7179201     -0.1946400    
  0.2955199      0.4555200      0.1576800     -0.4856000      -1.165920    
  -1.542400      -1.382400     -0.6963201      0.2779999       1.202720    
   1.771520       1.858560       1.512960      0.9430399      0.3641599    
 -0.5462001e-01 -0.2723200     -0.3441600     -0.3649600     -0.4075200    
 -0.4865600     -0.5638400     -0.5790401     -0.4867200     -0.2818400    
 -0.1218000e-01  0.2342800      0.3612800      0.3106400      0.8927999e-01
 -0.2194400     -0.4851200     -0.5772800     -0.4312000     -0.8672000e-01
  0.3119200      0.5819199      0.5927999      0.3374400     -0.5612000e-01
 -0.3958400     -0.5217600     -0.3897600     -0.7248001e-01  0.2948400    
  0.5915200      0.7487999      0.7440000      0.5832000      0.2945200    
 -0.7045001e-01 -0.4398400     -0.7352000     -0.8945600     -0.8859200    
 -0.7188801     -0.4459200     -0.1374400      0.1514800      0.4025599    
  0.6188799      0.7895999      0.8750399      0.8191999      0.5905600    
  0.2186800     -0.2022400     -0.5470401     -0.7176000     -0.6939200    
 -0.5334400     -0.3323200     -0.1700400     -0.7984000e-01 -0.4944000e-01
 -0.4984000e-01 -0.5814000e-01 -0.6016000e-01 -0.4125001e-01  0.1437000e-01
  0.1099200      0.2231200      0.3099999      0.3311999      0.2829199    
  0.1969200      0.1216000      0.8659999e-01  0.8659999e-01  0.9119999e-01
  0.7171999e-01  0.2413000e-01 -0.2852000e-01 -0.5968000e-01 -0.6652001e-01
 -0.7641001e-01 -0.1224400     -0.2051200     -0.2793600     -0.2846000    
 -0.1944800     -0.4251000e-01  0.9412000e-01  0.1432000      0.8452000e-01
 -0.2966000e-01 -0.1004800     -0.3941000e-01  0.1697600      0.4518400    
  0.6753600      0.7212800      0.5446399      0.1900000     -0.2356800    
 -0.6075201     -0.8275200     -0.8587201     -0.7273600     -0.5100801    
 -0.2958400     -0.1459600     -0.5917000e-01  0.1556000e-01  0.1349200    
  0.3142000      0.5108799      0.6515199      0.6686399      0.5371200    
  0.2883199     -0.2410000e-02 -0.2461600     -0.3787200     -0.3796800    
 -0.2663600     -0.7314001e-01  0.1604400      0.3814400      0.5198399    
  0.5017599      0.2901199     -0.8828001e-01 -0.5356801     -0.9158400    
  -1.110240      -1.059360     -0.7756801     -0.3245600      0.2028000    
  0.7142400       1.120960       1.331200       1.295520      0.9758400    
  0.4359999     -0.1855200     -0.7129600     -0.9977601     -0.9907200    
 -0.7582400     -0.4408000     -0.1708800     -0.7980000e-02  0.7928999e-01
  0.1677200      0.3115200      0.4934400      0.6339200      0.6380799    
  0.4566399      0.1158000     -0.2960400     -0.6606400     -0.8737600    
 -0.8800000     -0.6825601     -0.3356800      0.7516000e-01  0.4523200    
  0.7148799      0.8072000      0.7161599      0.4721600      0.1416000    
 -0.1884000     -0.4267200     -0.5024000     -0.3958400     -0.1469600    
  0.1541600      0.4040000      0.5239999      0.4835200      0.3091599    
  0.6208000e-01 -0.1890800     -0.3907200     -0.5107200     -0.5372801    
 -0.4724800     -0.3332800     -0.1535200      0.1653000e-01  0.1235200    
  0.1315200      0.4177999e-01 -0.1004800     -0.2229600     -0.2636001    
 -0.1992800     -0.5251000e-01  0.1252400      0.2838799      0.3943999    
  0.4572800      0.4836800      0.4817600      0.4457600      0.3617600    
  0.2223600      0.3568999e-01 -0.1674000     -0.3417600     -0.4414400    
 -0.4404800     -0.3396800     -0.1682400      0.2439000e-01  0.1877600    
  0.2833200      0.2886400      0.1984000      0.2611000e-01 -0.1938800    
 -0.4080000     -0.5555201     -0.5886401     -0.4908800     -0.2867600    
 -0.3740000e-01  0.1852000      0.3257599      0.3675200      0.3395200    
  0.2918400      0.2639599      0.2654000      0.2722800      0.2429600    
  0.1414000     -0.4024000e-01 -0.2706400     -0.4835200     -0.5995201    
 -0.5641600     -0.3721600     -0.7330000e-01  0.2426000      0.4873599    
  0.6083199      0.6055999      0.5215999      0.4073600      0.2926400    
  0.1740800      0.3450999e-01 -0.1370800     -0.3283200     -0.5065601    
 -0.6368001     -0.6940800     -0.6705600     -0.5739200     -0.4227200    
 -0.2381600     -0.4135000e-01  0.1518000      0.3263199      0.4646400    
  0.5502399      0.5692799      0.5156800      0.3936000      0.2212400    
  0.2819000e-01 -0.1467200     -0.2664000     -0.3087200     -0.2720000    
