  0.2500011      -6.398721       5.557759      -12345.00      0.2500011    
   199.7684       1600.024      -12345.00      -12345.00       2.000000    
  -12345.00      -12345.00      -12345.00      -12345.00      -12345.00    
  -12345.00      -12345.00      -12345.00      -12345.00      -12345.00    
  -12345.00      -12345.00      -12345.00      -12345.00      -12345.00    
  -12345.00      -12345.00      -12345.00      -12345.00      -12345.00    
  -12345.00       50.85889      -93.70222      -12345.00      -12345.00    
   40.30000      -127.0000             0.             0.      -12345.00    
  -12345.00      -12345.00      -12345.00      -12345.00      -12345.00    
  -12345.00      -12345.00      -12345.00      -12345.00      -12345.00    
   2820.338       54.26952       258.4055       25.37985      -12345.00    
  -12345.00     -0.8243662e-03   90.00000       90.00000      -12345.00    
  -12345.00      -12345.00      -12345.00      -12345.00      -12345.00    
  -12345.00      -12345.00      -12345.00      -12345.00      -12345.00    
      1984       254         3        14         7
         0         6         0         0      5602
    -12345    -12345    -12345    -12345    -12345
         1        50        11    -12345    -12345
    -12345    -12345        40    -12345    -12345
    -12345    -12345    -12345    -12345    -12345
    -12345    -12345    -12345    -12345    -12345
         1         0         1         1         0
RSON    EUREKA          
-12345  -12345  -12345  
-12345  -12345  -12345  
-12345  -12345  -12345  
-12345  -12345  -12345  
-12345  -12345  -12345  
-12345  -12345  KM.E    
RSTN-SAR10/12/84KS-36000
[...]
  0.1742800      0.1568400      0.1320800      0.9327999e-01  0.4326999e-01
 -0.2200000e-03 -0.2358000e-01 -0.2464000e-01 -0.6440001e-02  0.2679000e-01
  0.6993999e-01  0.1136800      0.1440400      0.1501600      0.1360400    
  0.1145600      0.9023999e-01  0.6240000e-01  0.3890000e-01  0.2535000e-01
  0.1466000e-01  0.1830000e-02 -0.7030000e-02 -0.3010000e-02  0.1161000e-01
  0.2512000e-01  0.2919000e-01  0.1795000e-01 -0.1120000e-01 -0.5050001e-01
 -0.8620000e-01 -0.1113600     -0.1332000     -0.1596800     -0.1811200    
 -0.1876800     -0.1852000     -0.1754000     -0.1512400     -0.1138800    
 -0.7351001e-01 -0.3540000e-01  0.9380000e-02  0.7044999e-01  0.1387600    
  0.1987600      0.2441600      0.2706800      0.2774400      0.2746400    
  0.2669600      0.2541200      0.2479600      0.2572800      0.2757599    
  0.2986000      0.3284799      0.3641599      0.3924800      0.4035200    
  0.4047999      0.4087999      0.4243200      0.4489599      0.4700800    
  0.4828799      0.4912000      0.4849600      0.4507200      0.3859200    
  0.2999200      0.2039200      0.1066000      0.1457000e-01 -0.7006000e-01
 -0.1482400     -0.2180400     -0.2808000     -0.3403201     -0.3916800    
 -0.4304000     -0.4598400     -0.4787200     -0.4766400     -0.4459200    
 -0.3918400     -0.3288000     -0.2630800     -0.1938800     -0.1250000    
 -0.6238000e-01 -0.6690000e-02  0.3920999e-01  0.6949998e-01  0.8983999e-01
  0.1194400      0.1722000      0.2463200      0.3281600      0.4036800    
  0.4664000      0.5134399      0.5401599      0.5447999      0.5283200    
  0.4912000      0.4347200      0.3680000      0.3085600      0.2641600    
  0.2219200      0.1677200      0.1050800      0.3739999e-01 -0.4265000e-01
 -0.1323600     -0.2147600     -0.2786000     -0.3254000     -0.3580800    
 -0.3774400     -0.3878400     -0.3948800     -0.3920000     -0.3689600    
 -0.3361600     -0.3119200     -0.3004000     -0.3021200     -0.3165200    
 -0.3334400     -0.3462400     -0.3572800     -0.3588800     -0.3404800    
 -0.3113600     -0.2937600     -0.2917200     -0.2985600     -0.3124400    
 -0.3324800     -0.3560000     -0.3809600     -0.4048000     -0.4267200    
 -0.4443200     -0.4473600     -0.4297600     -0.3971200     -0.3550400    
 -0.3025600     -0.2470000     -0.1994400     -0.1619200     -0.1331600    
 -0.1120000     -0.8612001e-01 -0.5241000e-01 -0.3442001e-01 -0.5376000e-01
 -0.1119200     -0.2013600     -0.3062400     -0.4080000     -0.5024000    
 -0.5905601     -0.6624000     -0.7195201     -0.7758400     -0.8336000    
 -0.8884801     -0.9395200     -0.9748800     -0.9774400     -0.9488001    
 -0.9012800     -0.8344001     -0.7425600     -0.6332800     -0.5212801    
 -0.4136000     -0.3093200     -0.2038000     -0.9044001e-01  0.3288999e-01
  0.1592400      0.2693999      0.3475199      0.3961599      0.4190400    
  0.4150400      0.3932800      0.3654400      0.3288000      0.2740800    
  0.2057600      0.1400800      0.8839999e-01  0.5332000e-01  0.3213999e-01
  0.2403000e-01  0.2946000e-01  0.4844999e-01  0.8064999e-01  0.1212000    
  0.1679200      0.2252400      0.2933599      0.3692800      0.4596800    
  0.5675199      0.6774399      0.7643199      0.8119999      0.8191999    
  0.7948799      0.7444799      0.6667199      0.5622399      0.4384000    
  0.3062400      0.1868000      0.1039200      0.5868000e-01  0.4002000e-01
  0.4431000e-01  0.6920999e-01  0.1150000      0.1810000      0.2587200    
  0.3473600      0.4496000      0.5526400      0.6484799      0.7372799    
  0.8145599      0.8819199      0.9491199       1.017920       1.076640    
   1.114880       1.123040       1.092480       1.018400      0.9038399    
  0.7708799      0.6532799      0.5643200      0.4944000      0.4363199    
  0.3880000      0.3459200      0.3050399      0.2639199      0.2262400    
  0.1978000      0.1813200      0.1672800      0.1390400      0.9191999e-01
  0.3376999e-01 -0.2895000e-01 -0.9748000e-01 -0.1789600     -0.2719200    
 -0.3681600     -0.4649600     -0.5544001     -0.6272000     -0.6793600    
 -0.7060801     -0.7059201     -0.6828800     -0.6326400     -0.5484800    
 -0.4392000     -0.3237200     -0.2119200     -0.1097600     -0.2549000e-01
  0.4731999e-01  0.1180800      0.1780000      0.2222800      0.2602000    
  0.2904400      0.3025200      0.2931600      0.2679600      0.2378800    
  0.2110400      0.1837200      0.1458800      0.9344000e-01  0.2896000e-01
 -0.4247000e-01 -0.1103600     -0.1641600     -0.1976400     -0.2102800    
 -0.2133200     -0.2218800     -0.2417600     -0.2686400     -0.3031600    
 -0.3593600     -0.4440000     -0.5512000     -0.6785600     -0.8232000    
 -0.9620800      -1.063840      -1.111360      -1.101760      -1.038080    
 -0.9260800     -0.7736000     -0.5928000     -0.3952000     -0.1903600    
  0.8350000e-02  0.1904800      0.3510399      0.4798400      0.5572799    
  0.5691199      0.5151999      0.4075199      0.2694800      0.1216400    
 -0.2481000e-01 -0.1622000     -0.2918000     -0.4222400     -0.5520000    
 -0.6761601     -0.7953601     -0.9033600     -0.9867201      -1.033120    
  -1.036640     -0.9944000     -0.9049600     -0.7776001     -0.6251200    
 -0.4468800     -0.2442000     -0.2895000e-01  0.1882000      0.3937600    
  0.5702399      0.7039999      0.7899200      0.8251200      0.8060799    
  0.7351999      0.6215999      0.4748800      0.3076400      0.1394400    
 -0.1411000e-01 -0.1552000     -0.2931200     -0.4305600     -0.5648000    
 -0.6916801     -0.8048000     -0.8958400     -0.9545600     -0.9768001    
 -0.9684800     -0.9360000     -0.8800000     -0.7958400     -0.6768000    
 -0.5166401     -0.3136800     -0.8280000e-01  0.1544800      0.3843200    
  0.5977600      0.7864000      0.9511999       1.096640       1.221280    
   1.320960       1.405440       1.472000       1.512960       1.519360    
   1.501440       1.457920       1.386240       1.282720       1.144000    
  0.9822400      0.8145599      0.6534399      0.5048000      0.3799999    
  0.2932000      0.2483600      0.2389200      0.2602000      0.3209200    
  0.4305599      0.5879999      0.7846400       1.004320       1.219360    
   1.400320       1.534720       1.611520       1.621760       1.557760    
   1.413120       1.205120      0.9486399      0.6727999      0.3990400    
  0.1382400     -0.1032800     -0.3175200     -0.4998400     -0.6484801    
 -0.7644800     -0.8472000     -0.8923200     -0.8972800     -0.8667201    
 -0.8048000     -0.7174400     -0.6195201     -0.5291201     -0.4568000    
 -0.4068800     -0.3828800     -0.3846400     -0.4097600     -0.4608000    
 -0.5424000     -0.6550400     -0.7990401     -0.9753600      -1.176160    
  -1.382400      -1.569280      -1.729280      -1.856000      -1.945600    
  -1.999360      -2.022400      -2.017280      -1.981440      -1.916160    
  -1.815040      -1.681920      -1.519360      -1.335040      -1.140000    
 -0.9457600     -0.7622401     -0.5982400     -0.4588800     -0.3472000    
 -0.2596400     -0.1864800     -0.1210400     -0.6193000e-01 -0.8400001e-02
  0.4066999e-01  0.8715999e-01  0.1315600      0.1711600      0.2019600    
  0.2183200      0.2206000      0.2208800      0.2312400      0.2525600    
  0.2843199      0.3275599      0.3755199      0.4177600      0.4470400    
  0.4606400      0.4601600      0.4534400      0.4513600      0.4654400    
  0.5033599      0.5616000      0.6279999      0.6919999      0.7495999    
  0.8023999      0.8519999      0.8987199      0.9436799      0.9849600    
   1.014720       1.025280       1.016160      0.9887999      0.9455999    
  0.8924799      0.8332800      0.7751999      0.7255999      0.6835200    
  0.6444799      0.6094400      0.5804800      0.5622399      0.5628799    
  0.5862399      0.6257600      0.6710399      0.7174399      0.7587199    
  0.7823999      0.7779199      0.7391999      0.6643199      0.5595199    
  0.4390399      0.3146800      0.1925200      0.8792000e-01  0.2133000e-01
 -0.1090000e-02  0.1433000e-01  0.5745000e-01  0.1154000      0.1753200    
  0.2309200      0.2881600      0.3579199      0.4417599      0.5284799    
  0.6062399      0.6667199      0.7011199      0.7078400      0.6923199    
  0.6513599      0.5790399      0.4868799      0.3870400      0.2800800    
  0.1634000      0.4326999e-01 -0.7551001e-01 -0.1971600     -0.3233600    
 -0.4468800     -0.5654401     -0.6836801     -0.8003200     -0.9072000    
  -1.006240      -1.108480      -1.218400      -1.333760      -1.455360    
  -1.587200      -1.733120      -1.894400      -2.058240      -2.205440    
  -2.325760      -2.417920      -2.489600      -2.536960      -2.554880    
  -2.543360      -2.513920      -2.476800      -2.428160      -2.359040    
  -2.269440      -2.160640      -2.027520      -1.872640      -1.703680    
  -1.532160      -1.370880      -1.221920      -1.082400     -0.9419200    
 -0.7944001     -0.6337601     -0.4496000     -0.2348400      0.8819999e-02
  0.2768400      0.5599999      0.8483199       1.134720       1.414400    
   1.689600       1.959680       2.222080       2.465280       2.680320    
   2.849280       2.960639       3.015680       3.027200       3.004159    
   2.960639       2.899199       2.826240       2.745600       2.658560    
   2.575360       2.512640       2.483200       2.488320       2.511360    
   2.534400       2.551040       2.551040       2.524160       2.458879    
   2.344960       2.178560       1.958400       1.698560       1.409280    
   1.096160      0.7615999      0.4159999      0.6573999e-01 -0.2913600    
 -0.6576000      -1.027520      -1.392640      -1.744640      -2.067200    
  -2.353920      -2.597120      -2.791680      -2.927360      -2.997760    
  -3.001600      -2.949120      -2.850560      -2.713600      -2.545920    
  -2.357760      -2.154240      -1.934080      -1.697280      -1.447680    
  -1.187840     -0.9235201     -0.6598400     -0.4008000     -0.1488400    
  0.9035999e-01  0.3075200      0.4894400      0.6308799      0.7323200    
  0.7915199      0.8062400      0.7833599      0.7350399      0.6726400    
  0.6044799      0.5331199      0.4547200      0.3649600      0.2608799    
  0.1380400     -0.5150001e-02 -0.1700800     -0.3603200     -0.5769601    
 -0.8172801      -1.073760      -1.337600      -1.598720      -1.853440    
  -2.087680      -2.297600      -2.478080      -2.618880      -2.714880    
  -2.758400      -2.744320      -2.671360      -2.544640      -2.360320    
  -2.120960      -1.835520      -1.510400      -1.146880     -0.7499200    
 -0.3292800      0.1084800      0.5507200      0.9835199       1.397760    
   1.793280       2.161920       2.493440       2.784000       3.027200    
   3.223040       3.379200       3.489280       3.554560       3.578880    
   3.569920       3.532800       3.479040       3.404799       3.311360    
   3.201280       3.072000       2.937600       2.805760       2.670080    
   2.535680       2.408960       2.291200       2.182400       2.073600    
   1.963520       1.850880       1.733120       1.602560       1.451520    
   1.267200       1.039040      0.7643199      0.4475200      0.1014800    
 -0.2635200     -0.6392001      -1.016480      -1.390080      -1.757440    
  -2.122240      -2.478080      -2.816000      -3.128320      -3.413760    
  -3.665920      -3.886080      -4.075521      -4.234241      -4.363521    
  -4.463361      -4.532480      -4.558081      -4.535040      -4.462080    
  -4.349441      -4.204801      -4.040960      -3.860480      -3.659520    
  -3.435520      -3.189760      -2.915840      -2.611200      -2.279680    
  -1.930240      -1.560320      -1.166400     -0.7536000     -0.3259600    
  0.1134800      0.5591999       1.002080       1.427200       1.825280    
   2.181120       2.493440       2.757120       2.979840       3.161600    
   3.310080       3.438080       3.553280       3.662080       3.767040    
   3.861760       3.939840       4.001280       4.046080       4.075520    
   4.090879       4.088320       4.052480       3.976960       3.868160    
   3.736320       3.589119       3.425280       3.237120       3.014400    
   2.760960       2.480640       2.178560       1.852160       1.497600    
   1.121760      0.7238399      0.3085600     -0.1220000     -0.5657600    
  -1.024160      -1.497600      -1.980160      -2.471680      -2.972160    
  -3.475200      -3.978240      -4.476160      -4.953600      -5.392640    
  -5.771521      -6.071040      -6.278400      -6.389760      -6.398721    
  -6.311681      -6.131201      -5.863680      -5.519361      -5.100801    
  -4.611840      -4.061440      -3.453440      -2.792960      -2.085120    
  -1.344000     -0.5860801      0.1756800      0.9286399       1.655040    
   2.341120       2.970880       3.536640       4.038400       4.474879    
   4.844799       5.141759       5.360640       5.500159       5.557759    
   5.529599       5.418240       5.237760       4.994559       4.706559    
   4.384000       4.029439       3.646719       3.247360       2.832640    
   2.403840       1.954560       1.489920       1.023680      0.5572799    
  0.9255999e-01 -0.3720000     -0.8281600      -1.263360      -1.665280    
  -2.030080      -2.359040      -2.653440      -2.915840      -3.147520    
  -3.345920      -3.509760      -3.635200      -3.712000      -3.733760    
  -3.695360      -3.592960      -3.421440      -3.179520      -2.868480    
  -2.494720      -2.059520      -1.574400      -1.052160     -0.5116800    
  0.3659000e-01  0.5760000       1.091840       1.574400       2.018560    
   2.415359       2.749440       3.001600       3.168000       3.239680    
   3.220479       3.110400       2.906880       2.609920       2.228480    
   1.774080       1.258080      0.6934400      0.9747998e-01 -0.5153600    
  -1.126720      -1.717760      -2.265600      -2.750720      -3.165440    
  -3.500800      -3.746560      -3.889920      -3.919360      -3.829760    
  -3.619840      -3.302400      -2.890240      -2.402560      -1.856000    
  -1.267200     -0.6612800     -0.5890000e-01  0.5259199       1.086400    
   1.611520       2.094079       2.524160       2.895360       3.202559    
   3.448320       3.632640       3.755520       3.818240       3.819520    
   3.754240       3.614720       3.403520       3.128320       2.800640    
   2.428160       2.008320       1.547520       1.055040      0.5435200    
  0.3141999e-01 -0.4688000     -0.9443201      -1.388800      -1.794560    
  -2.165760      -2.501120      -2.798080      -3.056640      -3.270400    
  -3.441920      -3.572480      -3.656960      -3.686400      -3.656960    
  -3.569920      -3.418880      -3.205120      -2.920960      -2.566400    
  -2.144000      -1.669120      -1.158720     -0.6342400     -0.1126800    
  0.3903999      0.8684800       1.313280       1.730560       2.110720    
   2.453760       2.760960       3.031040       3.261440       3.441920    
   3.573760       3.656960       3.695360       3.687680       3.630080    
   3.523839       3.370240       3.166720       2.909440       2.607360    
   2.265600       1.889280       1.473280       1.025600      0.5371200    
  0.2154000e-01 -0.5096000      -1.041760      -1.559040      -2.045440    
  -2.494720      -2.906880      -3.281920      -3.613440      -3.893760    
  -4.116481      -4.276481      -4.363521      -4.363521      -4.267520    
  -4.074241      -3.792640      -3.421440      -2.961920      -2.423040    
  -1.820160      -1.172000     -0.5024000      0.1794400      0.8603200    
   1.520640       2.145280       2.707200       3.185920       3.566080    
   3.843840       4.014079       4.081920       4.044800       3.912960    
   3.691520       3.389440       3.010560       2.561280       2.049280    
   1.497600      0.9281600      0.3537599     -0.1998800     -0.7134401    
  -1.175520      -1.580800      -1.918720      -2.183680      -2.371840    
  -2.489600      -2.533120      -2.503680      -2.406400      -2.255360    
  -2.062080      -1.832960      -1.578240      -1.307360      -1.027840    
 -0.7454400     -0.4630400     -0.1843600      0.8012000e-01  0.3204800    
  0.5275199      0.6944000      0.8206400      0.9103999      0.9670399    
  0.9972799       1.010560       1.009760      0.9919999      0.9591999    
  0.9172800      0.8705599      0.8203199      0.7657599      0.7062399    
  0.6385599      0.5583999      0.4657599      0.3604800      0.2382000    
  0.9400000e-01 -0.7133001e-01 -0.2535200     -0.4427200     -0.6281600    
 -0.8057600     -0.9752001      -1.132000      -1.267680      -1.376000    
  -1.451520      -1.491200      -1.489920      -1.447680      -1.363200    
  -1.235520      -1.069600     -0.8659201     -0.6321601     -0.3771200    
 -0.1040400      0.1821200      0.4728000      0.7577599       1.026880    
   1.269440       1.474560       1.643520       1.765120       1.841920    
   1.863680       1.829120       1.744640       1.619200       1.459200    
   1.268960       1.045920      0.7979199      0.5315199      0.2603999    
 -0.1130000e-02 -0.2431600     -0.4606400     -0.6515200     -0.8161601    
 -0.9497601      -1.045440      -1.100960      -1.117440      -1.096320    
  -1.040960     -0.9593600     -0.8617600     -0.7572800     -0.6510401    
 -0.5499201     -0.4619200     -0.3894400     -0.3336000     -0.2933200    
 -0.2660000     -0.2498800     -0.2446400     -0.2464800     -0.2486000    
 -0.2410000     -0.2104400     -0.1461200     -0.4211000e-01  0.1032800    
  0.2862000      0.4976000      0.7291199      0.9718399       1.209600    
   1.424640       1.615360       1.770240       1.889280       1.969920    
   2.005760       1.986560       1.904640       1.753600       1.528320    
   1.240800      0.8964800      0.5087999      0.9019999e-01 -0.3500800    
 -0.8060800      -1.267840      -1.717760      -2.135040      -2.506240    
