  0.2500011      -7.456000       7.615999      -12345.00      0.2500011    
   199.7684       1600.024      -12345.00      -12345.00       2.000000    
  -12345.00      -12345.00      -12345.00      -12345.00      -12345.00    
  -12345.00      -12345.00      -12345.00      -12345.00      -12345.00    
  -12345.00      -12345.00      -12345.00      -12345.00      -12345.00    
  -12345.00      -12345.00      -12345.00      -12345.00      -12345.00    
  -12345.00       50.85889      -93.70222      -12345.00      -12345.00    
   40.30000      -127.0000             0.             0.      -12345.00    
  -12345.00      -12345.00      -12345.00      -12345.00      -12345.00    
  -12345.00      -12345.00      -12345.00      -12345.00      -12345.00    
   2820.338       54.26952       258.4055       25.37985      -12345.00    
  -12345.00     -0.1786800e-02         0.             0.      -12345.00    
  -12345.00      -12345.00      -12345.00      -12345.00      -12345.00    
  -12345.00      -12345.00      -12345.00      -12345.00      -12345.00    
      1984       254         3        14         7
         0         6         0         0      5602
    -12345    -12345    -12345    -12345    -12345
         1        50        11    -12345    -12345
    -12345    -12345        40    -12345    -12345
    -12345    -12345    -12345    -12345    -12345
    -12345    -12345    -12345    -12345    -12345
         1         0         1         1         0
RSON    EUREKA          
-12345  -12345  -12345  
-12345  -12345  -12345  
-12345  -12345  -12345  
-12345  -12345  -12345  
-12345  -12345  -12345  
-12345  -12345  KM.Z    
RSTN-SAR10/12/84KS-36000
[...]
  0.1853600      0.1552800      0.1116000      0.4975999e-01 -0.2733000e-01
 -0.1093600     -0.1878800     -0.2571200     -0.3124000     -0.3553600    
 -0.3862400     -0.4081600     -0.4227200     -0.4273600     -0.4201600    
 -0.3992000     -0.3563200     -0.2869200     -0.2059200     -0.1329200    
 -0.7170001e-01 -0.1566000e-01  0.3888000e-01  0.9183998e-01  0.1382000    
  0.1748400      0.2101200      0.2505200      0.2889200      0.3130000    
  0.3201600      0.3117999      0.2854400      0.2441600      0.1940400    
  0.1354800      0.7125999e-01  0.9029999e-02 -0.4675000e-01 -0.9876001e-01
 -0.1492800     -0.1992400     -0.2484800     -0.2920401     -0.3289600    
 -0.3641600     -0.3934400     -0.4025600     -0.3915200     -0.3726400    
 -0.3531200     -0.3369600     -0.3296000     -0.3339200     -0.3448000    
 -0.3540800     -0.3598400     -0.3643200     -0.3673600     -0.3646400    
 -0.3457600     -0.3032000     -0.2450800     -0.1833600     -0.1262800    
 -0.7252000e-01 -0.1738000e-01  0.4266000e-01  0.1090000      0.1776800    
  0.2410800      0.2968799      0.3435200      0.3764800      0.3873600    
  0.3758399      0.3505599      0.3235999      0.3006000      0.2770399    
  0.2431200      0.1975200      0.1460000      0.9575999e-01  0.5660000e-01
  0.3754000e-01  0.4606000e-01  0.7885998e-01  0.1140400      0.1309200    
  0.1268000      0.1097600      0.8927999e-01  0.7636999e-01  0.7525998e-01
  0.7577999e-01  0.6701998e-01  0.5010000e-01  0.2377000e-01 -0.1766000e-01
 -0.6606001e-01 -0.1004800     -0.1016800     -0.6280001e-01  0.8249998e-02
  0.9583999e-01  0.1866800      0.2682400      0.3255600      0.3491200    
  0.3424000      0.3140799      0.2772400      0.2472800      0.2322000    
  0.2332800      0.2432800      0.2486800      0.2438000      0.2354800    
  0.2346800      0.2503200      0.2839600      0.3267599      0.3683200    
  0.4099200      0.4553599      0.5041599      0.5539199      0.5976000    
  0.6260799      0.6404799      0.6452799      0.6345599      0.5980799    
  0.5403199      0.4758400      0.4110399      0.3447999      0.2772000    
  0.2123200      0.1566400      0.1041600      0.4882000e-01 -0.2840000e-02
 -0.4165000e-01 -0.6481001e-01 -0.6900001e-01 -0.5331000e-01 -0.2187000e-01
  0.2186000e-01  0.7688999e-01  0.1381600      0.1973600      0.2496800    
  0.2948000      0.3324800      0.3663999      0.3940800      0.4068800    
  0.3966399      0.3654400      0.3256800      0.2896399      0.2655200    
  0.2505600      0.2398400      0.2339600      0.2296800      0.2142800    
  0.1792000      0.1274400      0.6550999e-01 -0.1560000e-02 -0.6954001e-01
 -0.1351600     -0.1933200     -0.2390800     -0.2736800     -0.3030400    
 -0.3234400     -0.3286400     -0.3264400     -0.3336000     -0.3464000    
 -0.3617600     -0.3816000     -0.4017600     -0.4176000     -0.4318400    
 -0.4436800     -0.4488000     -0.4492800     -0.4534400     -0.4657600    
 -0.4827200     -0.4928000     -0.4929600     -0.4955200     -0.5131201    
 -0.5428801     -0.5769601     -0.6126400     -0.6459200     -0.6643200    
 -0.6537601     -0.6080000     -0.5342400     -0.4433600     -0.3472000    
 -0.2577600     -0.1816000     -0.1188800     -0.7416001e-01 -0.5315001e-01
 -0.5704001e-01 -0.8960001e-01 -0.1554400     -0.2548800     -0.3827200    
 -0.5244801     -0.6667200     -0.8035201     -0.9300801      -1.039040    
  -1.118560      -1.155360      -1.144480      -1.086880     -0.9924800    
 -0.8833600     -0.7721601     -0.6537601     -0.5275201     -0.3995200    
 -0.2677200     -0.1378000     -0.1885000e-01  0.8340000e-01  0.1606800    
  0.1936800      0.1676000      0.8439998e-01 -0.4439000e-01 -0.2061200    
 -0.3848000     -0.5614400     -0.7217600     -0.8572800     -0.9665600    
  -1.043360      -1.069920      -1.035680     -0.9468800     -0.8179201    
 -0.6568000     -0.4636800     -0.2405600     -0.1220000e-02  0.2434800    
  0.4857600      0.7168000      0.9220799       1.084160       1.189600    
   1.235520       1.221440       1.148640       1.024960      0.8687999    
  0.6916800      0.4931200      0.2844400      0.8987999e-01 -0.7486001e-01
 -0.2003600     -0.2714800     -0.2841600     -0.2464400     -0.1652400    
 -0.4755000e-01  0.9028000e-01  0.2308000      0.3619199      0.4744000    
  0.5608000      0.6231999      0.6697599      0.7096000      0.7483199    
  0.7907199      0.8395200      0.8945599      0.9513599       1.005280    
   1.052160       1.087040       1.111520       1.124800       1.116000    
   1.079360       1.024960      0.9676799      0.9118400      0.8574399    
  0.8075199      0.7592000      0.7076799      0.6526399      0.5931200    
  0.5355200      0.4894400      0.4510400      0.4087999      0.3580800    
  0.3020800      0.2514800      0.2147200      0.1930800      0.1931200    
  0.2218400      0.2787200      0.3558400      0.4374400      0.5054399    
  0.5503999      0.5649599      0.5393599      0.4683200      0.3505599    
  0.1905200      0.1750000e-02 -0.1956400     -0.3872000     -0.5574400    
 -0.6953601     -0.7995200     -0.8622401     -0.8699200     -0.8206401    
 -0.7193600     -0.5734401     -0.3998400     -0.2170000     -0.4227000e-01
  0.1100000      0.2313200      0.3181599      0.3665600      0.3776000    
  0.3603200      0.3238800      0.2680799      0.1957600      0.1112800    
  0.1085000e-01 -0.1200800     -0.2896400     -0.4944000     -0.7241601    
 -0.9705601      -1.217920      -1.456640      -1.662720      -1.818880    
  -1.903360      -1.902080      -1.812480      -1.640960      -1.405440    
  -1.120160     -0.8299201     -0.5542400     -0.3089200     -0.1042400    
  0.5792999e-01  0.1789200      0.2628000      0.3111600      0.3253199    
  0.3114400      0.2835200      0.2524000      0.2158000      0.1668000    
  0.9840000e-01  0.4209999e-02 -0.1173600     -0.2639200     -0.4360000    
 -0.6296000     -0.8388801      -1.052000      -1.249440      -1.424640    
  -1.557760      -1.646080      -1.678080      -1.642240      -1.530880    
  -1.347840      -1.108320     -0.8526400     -0.5934401     -0.3425600    
 -0.1082800      0.1056400      0.3044000      0.4873599      0.6478399    
  0.7841599      0.9015999      0.9974399       1.068320       1.115360    
   1.133440       1.116160       1.059520      0.9611199      0.8201599    
  0.6419200      0.4363199      0.2181600      0.2910000e-02 -0.1914400    
 -0.3460800     -0.4419200     -0.4673600     -0.4155200     -0.2824000    
 -0.7613000e-01  0.1877600      0.4873599      0.7971200       1.096800    
   1.365760       1.597440       1.774080       1.884160       1.928960    
   1.913600       1.853440       1.747200       1.597440       1.420800    
   1.235520       1.034720      0.8291199      0.6307199      0.4545600    
  0.3190799      0.2356800      0.2078400      0.2345600      0.3161200    
  0.4470400      0.6180799      0.8195199       1.041280       1.268160    
   1.477120       1.662720       1.799680       1.875200       1.891840    
   1.850880       1.747200       1.583360       1.370880       1.123040    
  0.8300799      0.5039999      0.1498800     -0.2244800     -0.6035200    
 -0.9688001      -1.309440      -1.623040      -1.884160      -2.095360    
  -2.254080      -2.352640      -2.384640      -2.351360      -2.264320    
  -2.127360      -1.950720      -1.745920      -1.525760      -1.287520    
  -1.057440     -0.8454400     -0.6678400     -0.5304000     -0.4315200    
 -0.3745600     -0.3675200     -0.4065600     -0.4777600     -0.5692800    
 -0.6769600     -0.8040000     -0.9494400      -1.106080      -1.265280    
  -1.424640      -1.564160      -1.685760      -1.785600      -1.853440    
  -1.889280      -1.894400      -1.868800      -1.812480      -1.730560    
  -1.623040      -1.491200      -1.332480      -1.142720     -0.9478401    
 -0.7520001     -0.5576000     -0.3632000     -0.1676400      0.2188000e-01
  0.1921200      0.3286400      0.4243200      0.4809600      0.5076799    
  0.5156800      0.5137600      0.5079999      0.5062399      0.5190399    
  0.5529599      0.6084800      0.6827199      0.7748799      0.8820800    
  0.9959999       1.107040       1.212320       1.308320       1.379840    
   1.431040       1.447680       1.431040       1.384960       1.314560    
   1.240320       1.160320       1.092160       1.042560       1.015520    
   1.014720       1.042720       1.095360       1.167040       1.254880    
   1.350400       1.461760       1.574400       1.676800       1.765120    
   1.820160       1.836800       1.817600       1.779200       1.731840    
   1.692160       1.664000       1.642240       1.621760       1.593600    
   1.543680       1.463040       1.352960       1.225920       1.073920    
  0.9079999      0.7407999      0.5833600      0.4377599      0.3028399    
  0.1720000      0.3759000e-01 -0.1043200     -0.2526000     -0.4083200    
 -0.5649600     -0.7148800     -0.8534400     -0.9800000      -1.089600    
  -1.183200      -1.277120      -1.388800      -1.501440      -1.619200    
  -1.734400      -1.845760      -1.952000      -2.058240      -2.163200    
  -2.270720      -2.382080      -2.497280      -2.612480      -2.728960    
  -2.842880      -2.950400      -3.043840      -3.112960      -3.146240    
  -3.153920      -3.134720      -3.087360      -3.006720      -2.891520    
  -2.736640      -2.539520      -2.291200      -1.992960      -1.660160    
  -1.300640     -0.9484800     -0.6163200     -0.3192800     -0.6903000e-01
  0.1275600      0.2679200      0.3544000      0.3908800      0.3795199    
  0.3288000      0.2507200      0.1611200      0.8396000e-01  0.3925999e-01
  0.3621999e-01  0.7766999e-01  0.1642400      0.2968799      0.4766400    
  0.7096000      0.9961599       1.322240       1.688320       2.081280    
   2.493440       2.913280       3.320320       3.694080       4.023040    
   4.287999       4.480000       4.595200       4.632319       4.577279    
   4.431359       4.204800       3.905280       3.540480       3.128320    
   2.680320       2.210560       1.739520       1.297600      0.8867199    
  0.5294399      0.2341600     -0.5360001e-02 -0.1962400     -0.3443200    
 -0.4571200     -0.5417601     -0.6057601     -0.6561600     -0.6945601    
 -0.7172800     -0.7217600     -0.7094400     -0.6856000     -0.6516800    
 -0.6070400     -0.5558400     -0.5044800     -0.4545600     -0.4056000    
 -0.3550400     -0.3047200     -0.2660000     -0.2433600     -0.2355200    
 -0.2444000     -0.2725600     -0.3198800     -0.3857600     -0.4656000    
 -0.5601600     -0.6748800     -0.8153601     -0.9771200      -1.150880    
  -1.337600      -1.521920      -1.715200      -1.925120      -2.152960    
  -2.393600      -2.643200      -2.896640      -3.151360      -3.390720    
  -3.600640      -3.770880      -3.892480      -3.953920      -3.957760    
  -3.904000      -3.793920      -3.630080      -3.412480      -3.147520    
  -2.842880      -2.508800      -2.155520      -1.794560      -1.434880    
  -1.075040     -0.7297601     -0.3964800     -0.7628001e-01  0.2289200    
  0.5167999      0.7838399       1.027040       1.244000       1.425920    
   1.583360       1.712640       1.826560       1.931520       2.036479    
   2.142720       2.250240       2.359040       2.479360       2.612480    
   2.760960       2.919680       3.092480       3.283200       3.495680    
   3.732480       3.976960       4.225280       4.462079       4.677119    
   4.857599       4.995839       5.086720       5.123839       5.102079    
   5.021440       4.881920       4.682240       4.424959       4.117760    
   3.755520       3.345920       2.894080       2.405120       1.893120    
   1.365760      0.8428799      0.3175200     -0.2046800     -0.7236800    
  -1.235520      -1.745920      -2.241280      -2.730240      -3.211520    
  -3.683840      -4.151040      -4.609281      -5.056001      -5.482241    
  -5.886721      -6.257920      -6.597120      -6.894080      -7.138560    
  -7.317760      -7.426560      -7.456000      -7.406080      -7.276800    
  -7.073280      -6.807040      -6.483200      -6.104321      -5.675520    
  -5.204480      -4.691200      -4.138241      -3.543040      -2.906880    
  -2.234880      -1.524480     -0.7769600     -0.1513000e-01  0.7582399    
   1.529600       2.296319       3.037440       3.738880       4.386559    
   4.980479       5.514239       5.991679       6.408959       6.766079    
   7.054079       7.279359       7.448319       7.560959       7.615999    
   7.607039       7.535359       7.397120       7.192319       6.923519    
   6.597119       6.218240       5.779200       5.286400       4.737279    
   4.131840       3.484159       2.803200       2.096640       1.364480    
  0.6209599     -0.1386400     -0.9004800      -1.657600      -2.388480    
  -3.095040      -3.773440      -4.416000      -5.011200      -5.550080    
  -6.022400      -6.410240      -6.696960      -6.880000      -6.959360    
  -6.937600      -6.812160      -6.592000      -6.283521      -5.903360    
  -5.465600      -4.981760      -4.456961      -3.906560      -3.340800    
  -2.772480      -2.208000      -1.649920      -1.097920     -0.5691200    
 -0.5849000e-01  0.4284800      0.8868799       1.306560       1.671680    
   1.990400       2.257920       2.485760       2.680320       2.849280    
   2.993920       3.118080       3.226880       3.324160       3.408640    
   3.473920       3.516160       3.531520       3.523839       3.486720    
   3.420160       3.325439       3.194880       3.024640       2.808320    
   2.547200       2.242560       1.896960       1.510400       1.089600    
  0.6243199      0.1240800     -0.4012800     -0.9324800      -1.461760    
  -1.963520      -2.433280      -2.854400      -3.207680      -3.476480    
  -3.646720      -3.706880      -3.654400      -3.494400      -3.237120    
  -2.882560      -2.443520      -1.927680      -1.355520     -0.7350401    
 -0.9232001e-01  0.5556799       1.182720       1.754880       2.259200    
   2.673920       2.990080       3.201280       3.302400       3.290880    
   3.165440       2.920959       2.568960       2.114560       1.562880    
  0.9379200      0.2511200     -0.4672000      -1.191200      -1.907200    
  -2.576640      -3.179520      -3.688960      -4.092160      -4.377601    
  -4.533760      -4.554240      -4.442881      -4.209920      -3.863040    
  -3.417600      -2.888960      -2.298880      -1.666560      -1.001600    
 -0.3353601      0.3265200      0.9692799       1.571840       2.135040    
   2.641920       3.086080       3.459840       3.765759       3.998720    
   4.160000       4.248320       4.267519       4.217600       4.099839    
   3.911680       3.664639       3.367680       3.029760       2.657279    
   2.266880       1.870080       1.477120       1.100000      0.7262399    
  0.3582399     -0.6260000e-02 -0.3744000     -0.7484801      -1.130240    
  -1.527040      -1.925120      -2.325760      -2.714880      -3.079680    
  -3.413760      -3.706880      -3.948800      -4.129280      -4.241920    
  -4.288000      -4.271360      -4.189441      -4.046081      -3.850240    
  -3.604480      -3.310080      -2.961920      -2.560000      -2.105600    
  -1.603840      -1.054880     -0.4761600      0.1367200      0.7715199    
   1.408000       2.045440       2.659840       3.233280       3.747839    
   4.195840       4.560639       4.837119       5.020160       5.117439    
   5.127680       5.056000       4.898560       4.659200       4.336639    
   3.932160       3.454720       2.918400       2.333440       1.706240    
   1.053440      0.3760000     -0.3102000     -0.9987201      -1.685760    
  -2.351360      -2.984960      -3.571200      -4.092160      -4.535040    
  -4.881921      -5.108480      -5.198080      -5.145600      -4.954881    
  -4.633600      -4.203521      -3.680000      -3.084800      -2.439680    
  -1.763840      -1.074400     -0.4057600      0.2336800      0.8300799    
   1.369600       1.857280       2.277120       2.621440       2.885120    
   3.059200       3.141119       3.127040       3.018239       2.823680    
   2.552320       2.220800       1.850880       1.457920       1.065440    
  0.6737599      0.3022799     -0.3794000e-01 -0.3390400     -0.6004801    
 -0.8270401      -1.016800      -1.166080      -1.273440      -1.344000    
  -1.364480      -1.342720      -1.277440      -1.189440      -1.078240    
 -0.9480001     -0.8038400     -0.6505600     -0.4902400     -0.3297600    
 -0.1758800     -0.2841000e-01  0.1162400      0.2575200      0.3934399    
  0.5254400      0.6553600      0.7859199      0.9190400       1.049920    
   1.171200       1.280800       1.372160       1.451520       1.502720    
   1.521920       1.507840       1.460480       1.374720       1.258720    
   1.100800      0.9092799      0.6833600      0.4180800      0.1116400    
 -0.2279200     -0.5872000     -0.9524801      -1.318400      -1.655040    
  -1.958400      -2.210560      -2.405120      -2.535680      -2.599680    
  -2.592000      -2.511360      -2.360320      -2.136320      -1.853440    
  -1.525760      -1.160960     -0.7833600     -0.3977600     -0.1962000e-01
  0.3353600      0.6638399      0.9577599       1.206880       1.396480    
   1.534720       1.611520       1.624320       1.580800       1.488640    
   1.358080       1.205440       1.030560      0.8483199      0.6683199    
  0.5022399      0.3584000      0.2399200      0.1471200      0.8408000e-01
  0.5441999e-01  0.6006999e-01  0.1005200      0.1715600      0.2652400    
  0.3695999      0.4732800      0.5622399      0.6223999      0.6384000    
  0.5988799      0.4992000      0.3400000      0.1252400     -0.1353600    
 -0.4268800     -0.7336000      -1.042560      -1.344000      -1.611520    
  -1.831680      -1.995520      -2.095360      -2.129920      -2.095360    
