  0.2500011      -6.387200       7.487999      -12345.00      0.2500011    
   199.7684       1600.024      -12345.00      -12345.00       2.000000    
  -12345.00      -12345.00      -12345.00      -12345.00      -12345.00    
  -12345.00      -12345.00      -12345.00      -12345.00      -12345.00    
  -12345.00      -12345.00      -12345.00      -12345.00      -12345.00    
  -12345.00      -12345.00      -12345.00      -12345.00      -12345.00    
  -12345.00       50.85889      -93.70222      -12345.00      -12345.00    
   40.30000      -127.0000             0.             0.      -12345.00    
  -12345.00      -12345.00      -12345.00      -12345.00      -12345.00    
  -12345.00      -12345.00      -12345.00      -12345.00      -12345.00    
   2820.338       54.26952       258.4055       25.37985      -12345.00    
  -12345.00     -0.4929707e-03         0.       90.00000      -12345.00    
  -12345.00      -12345.00      -12345.00      -12345.00      -12345.00    
  -12345.00      -12345.00      -12345.00      -12345.00      -12345.00    
      1984       254         3        14         7
         0         6         0         0      5602
    -12345    -12345    -12345    -12345    -12345
         1        50        11    -12345    -12345
    -12345    -12345        40    -12345    -12345
    -12345    -12345    -12345    -12345    -12345
    -12345    -12345    -12345    -12345    -12345
         1         0         1         1         0
RSON    EUREKA          
-12345  -12345  -12345  
-12345  -12345  -12345  
-12345  -12345  -12345  
-12345  -12345  -12345  
-12345  -12345  -12345  
-12345  -12345  KM.N    
RSTN-SAR10/12/84KS-36000
[...]
  0.1571200      0.1853200      0.2124000      0.2321600      0.2332800    
  0.2238400      0.2208000      0.2252000      0.2295200      0.2241200    
  0.2007200      0.1574000      0.9220000e-01  0.4629999e-02 -0.9876001e-01
 -0.2067200     -0.3014400     -0.3680000     -0.4182400     -0.4684800    
 -0.5100801     -0.5342400     -0.5425601     -0.5324800     -0.4980800    
 -0.4340800     -0.3488000     -0.2681201     -0.2092400     -0.1643200    
 -0.1250000     -0.9688000e-01 -0.8460000e-01 -0.7040000e-01 -0.3167000e-01
  0.2834000e-01  0.9595999e-01  0.1695600      0.2443200      0.3068799    
  0.3459200      0.3576000      0.3409600      0.3038400      0.2564400    
  0.2013200      0.1336800      0.5566999e-01 -0.2690000e-01 -0.1125200    
 -0.2015200     -0.2874400     -0.3552000     -0.3920000     -0.4048000    
 -0.4094400     -0.4160000     -0.4280000     -0.4436800     -0.4587200    
 -0.4739200     -0.4908800     -0.4992000     -0.4892800     -0.4651200    
 -0.4358400     -0.4112000     -0.4019200     -0.4048000     -0.4004800    
 -0.3723200     -0.3105600     -0.2238400     -0.1386000     -0.6322001e-01
  0.2496000e-01  0.1349200      0.2492400      0.3473600      0.4163200    
  0.4523200      0.4588799      0.4412799      0.4096000      0.3731200    
  0.3390400      0.3140000      0.2960399      0.2793199      0.2545599    
  0.2151600      0.1659200      0.1192400      0.7569999e-01  0.2737000e-01
 -0.1331000e-01 -0.2603000e-01 -0.1870000e-01 -0.1666000e-01 -0.2512000e-01
 -0.3092000e-01 -0.3122000e-01 -0.3315000e-01 -0.3516001e-01 -0.2630000e-01
  0.7590000e-02  0.7430999e-01  0.1637200      0.2495200      0.3094800    
  0.3424000      0.3531200      0.3368000      0.3000799      0.2603199    
  0.2264400      0.1946800      0.1675200      0.1507600      0.1420800    
  0.1288000      0.1001200      0.5939999e-01  0.1956000e-01 -0.1500000e-02
  0.6719999e-02  0.3959999e-01  0.8943999e-01  0.1484000      0.2055200    
  0.2598799      0.3170000      0.3735999      0.4230400      0.4572800    
  0.4684799      0.4575999      0.4444799      0.4438400      0.4492800    
  0.4497600      0.4385599      0.4171200      0.3884799      0.3523200    
  0.3108400      0.2634400      0.2092000      0.1553600      0.1155600    
  0.9743999e-01  0.9400000e-01  0.9019999e-01  0.8103000e-01  0.6863000e-01
  0.5130000e-01  0.3279000e-01  0.2377000e-01  0.2194000e-01  0.2310000e-01
  0.3574999e-01  0.5882999e-01  0.8355999e-01  0.1148000      0.1574800    
  0.2075600      0.2595199      0.3061600      0.3363200      0.3464000    
  0.3404800      0.3255200      0.3009200      0.2726800      0.2562000    
  0.2542000      0.2505600      0.2297600      0.1820800      0.1090800    
  0.2420000e-01 -0.7051000e-01 -0.1824000     -0.3049600     -0.4217600    
 -0.5198400     -0.5966400     -0.6545601     -0.6995200     -0.7379200    
 -0.7726400     -0.8120000     -0.8630401     -0.9150400     -0.9524801    
 -0.9766400     -0.9920000     -0.9920000     -0.9720000     -0.9352001    
 -0.8796800     -0.8008001     -0.6995200     -0.5779201     -0.4404800    
 -0.2983600     -0.1659600     -0.5460000e-01  0.2837000e-01  0.8187999e-01
  0.1114400      0.1289600      0.1450800      0.1626400      0.1799200    
  0.1974400      0.2229200      0.2639599      0.3103999      0.3424000    
  0.3507200      0.3271599      0.2626799      0.1698400      0.8132999e-01
  0.2200000e-01 -0.8710001e-02 -0.3118000e-01 -0.6597000e-01 -0.1214000    
 -0.1932800     -0.2734400     -0.3556800     -0.4278400     -0.4768000    
 -0.5012801     -0.5139201     -0.5257601     -0.5446401     -0.5742401    
 -0.6059201     -0.6230401     -0.6124800     -0.5628800     -0.4739200    
 -0.3657600     -0.2644000     -0.1799600     -0.1043200     -0.3321000e-01
  0.3606000e-01  0.1077600      0.1776800      0.2401200      0.2960799    
  0.3424000      0.3752000      0.3971199      0.4132800      0.4187199    
  0.4070399      0.3864000      0.3767999      0.3911999      0.4299200    
  0.4931200      0.5766399      0.6595199      0.7196800      0.7479999    
  0.7443199      0.7123200      0.6606399      0.6051199      0.5588800    
  0.5247999      0.4990399      0.4696000      0.4272000      0.3780800    
  0.3272800      0.2704000      0.2161600      0.1776000      0.1489200    
  0.1220800      0.1044800      0.1040400      0.1231200      0.1586400    
  0.1977200      0.2314000      0.2639199      0.2969599      0.3208799    
  0.3276800      0.3270800      0.3328000      0.3468800      0.3547199    
  0.3598400      0.3832000      0.4297600      0.4848000      0.5359999    
  0.5747199      0.5923200      0.5911999      0.5766399      0.5455999    
  0.4952000      0.4292800      0.3553600      0.2796800      0.2042400    
  0.1256800      0.3688999e-01 -0.5557000e-01 -0.1426400     -0.2360400    
 -0.3481600     -0.4737600     -0.6104001     -0.7510400     -0.8800000    
 -0.9884801      -1.078560      -1.154720      -1.219840      -1.270240    
  -1.306080      -1.340160      -1.364480      -1.378560      -1.379840    
  -1.374720      -1.368320      -1.355520      -1.331200      -1.286080    
  -1.225920      -1.141760      -1.038080     -0.9257600     -0.8136001    
 -0.7140801     -0.6348801     -0.5697601     -0.5102401     -0.4536000    
 -0.4001600     -0.3510400     -0.3058400     -0.2670400     -0.2378000    
 -0.2190400     -0.2018400     -0.1788000     -0.1538000     -0.1227200    
 -0.7253000e-01 -0.7930001e-02  0.5458000e-01  0.1092400      0.1614800    
  0.2152400      0.2674000      0.3113999      0.3420799      0.3577600    
  0.3555200      0.3347200      0.3051600      0.2817200      0.2678000    
  0.2539200      0.2332000      0.2044400      0.1663200      0.1143600    
  0.4614999e-01 -0.3465001e-01 -0.1213200     -0.2096800     -0.2886000    
 -0.3310400     -0.3090000     -0.2104000     -0.2984000e-01  0.2232000    
  0.5331199      0.8870399       1.268320       1.649920       2.019840    
   2.355200       2.647040       2.894080       3.095040       3.244800    
   3.342080       3.371520       3.328000       3.214080       3.034880    
   2.798079       2.506240       2.164480       1.783040       1.381120    
  0.9852799      0.6020799      0.2535200     -0.5163001e-01 -0.3057200    
 -0.5009600     -0.6347201     -0.7152001     -0.7577600     -0.7771200    
 -0.7804800     -0.7723200     -0.7606400     -0.7518400     -0.7496001    
 -0.7561600     -0.7771200     -0.8160000     -0.8638400     -0.9067200    
 -0.9313600     -0.9299201     -0.9076800     -0.8688000     -0.8081601    
 -0.7344000     -0.6747200     -0.6553600     -0.6857600     -0.7523201    
 -0.8324801     -0.9200001      -1.025120      -1.157280      -1.322240    
  -1.509120      -1.719040      -1.943040      -2.173440      -2.393600    
  -2.594560      -2.768640      -2.910720      -3.009280      -3.051520    
  -3.028480      -2.941440      -2.785280      -2.556160      -2.250240    
  -1.877760      -1.459200      -1.011680     -0.5652801     -0.1485600    
  0.2034800      0.4707199      0.6449599      0.7287999      0.7368000    
  0.6908799      0.6081599      0.4950399      0.3635200      0.2300400    
  0.9539999e-01 -0.3813000e-01 -0.1606000     -0.2607600     -0.3368000    
 -0.3843200     -0.3880000     -0.3324800     -0.2184400     -0.5260000e-01
  0.1668000      0.4393600      0.7564800       1.110240       1.491200    
   1.898240       2.302720       2.689280       3.038720       3.335680    
   3.576320       3.756800       3.880960       3.947520       3.955200    
   3.907840       3.805439       3.648000       3.427840       3.152640    
   2.835200       2.487040       2.126080       1.776640       1.455360    
   1.176960      0.9281600      0.7092799      0.5169599      0.3628799    
  0.2589200      0.1991600      0.1698400      0.1544400      0.1335600    
  0.9079999e-01  0.1357000e-01 -0.1080000     -0.2706800     -0.4604800    
 -0.6648000     -0.8812801      -1.102880      -1.326080      -1.541120    
  -1.754880      -1.964800      -2.174720      -2.393600      -2.625280    
  -2.867200      -3.121920      -3.400960      -3.691520      -3.974400    
  -4.231680      -4.444160      -4.600321      -4.686080      -4.688641    
  -4.599040      -4.405761      -4.094721      -3.662080      -3.111680    
  -2.457600      -1.735680     -0.9929600     -0.2734400      0.3983999    
  0.9990399       1.498880       1.903360       2.209280       2.420480    
   2.540800       2.580480       2.544640       2.443520       2.286080    
   2.086400       1.862400       1.635840       1.422080       1.244480    
   1.104960       1.025440       1.011200       1.057280       1.154720    
   1.290560       1.441280       1.606400       1.765120       1.900800    
   2.001920       2.051840       2.049280       1.998080       1.903360    
   1.771520       1.605120       1.414400       1.225440       1.032640    
  0.8406399      0.6457599      0.4500800      0.2619600      0.8543999e-01
 -0.7717000e-01 -0.2277200     -0.3729600     -0.5192001     -0.6716801    
 -0.8371201      -1.023520      -1.235680      -1.483520      -1.757440    
  -2.048000      -2.329600      -2.577920      -2.775040      -2.920960    
  -3.008000      -3.036160      -2.996480      -2.890240      -2.714880    
  -2.476800      -2.174720      -1.815040      -1.410560     -0.9728000    
 -0.5364801     -0.1120800      0.2872000      0.6524799      0.9852799    
   1.291680       1.559040       1.784320       1.946880       2.041600    
   2.071040       2.037760       1.954560       1.838080       1.710080    
   1.585920       1.469440       1.365760       1.284160       1.211520    
   1.150080       1.099680       1.068000       1.062080       1.083200    
   1.131520       1.204000       1.283840       1.344000       1.384960    
   1.397760       1.388800       1.360640       1.305600       1.228320    
   1.130560       1.028480      0.9268799      0.8270400      0.7209599    
  0.5961599      0.4452800      0.2701200      0.6879999e-01 -0.1649600    
 -0.4350400     -0.7398400      -1.075840      -1.434880      -1.790720    
  -2.129920      -2.444800      -2.737920      -3.023360      -3.299840    
  -3.548160      -3.747840      -3.886080      -3.952640      -3.939840    
  -3.838720      -3.645440      -3.361280      -3.002880      -2.599680    
  -2.176000      -1.753600      -1.356800     -0.9948801     -0.6798401    
 -0.4102400     -0.1867200     -0.4690001e-02  0.1422400      0.2603999    
  0.3591999      0.4572800      0.5752000      0.7289599      0.9249599    
   1.159520       1.419520       1.707520       2.005760       2.302720    
   2.597120       2.885120       3.157760       3.397120       3.592960    
   3.740160       3.829760       3.863039       3.842560       3.770880    
   3.656960       3.507200       3.333120       3.130880       2.900480    
   2.634240       2.338560       2.016000       1.669120       1.298880    
  0.8945599      0.4679999      0.2055000e-01 -0.4520000     -0.9452801    
  -1.460480      -1.973760      -2.481920      -2.961920      -3.402240    
  -3.786240      -4.096001      -4.312321      -4.426240      -4.439040    
  -4.357121      -4.199680      -3.988480      -3.732480      -3.452160    
  -3.165440      -2.888960      -2.629120      -2.385920      -2.160640    
  -1.948160      -1.740800      -1.525760      -1.289440      -1.034240    
 -0.7440001     -0.4060800     -0.7780001e-02  0.4540800      0.9779199    
   1.541120       2.135040       2.732800       3.310080       3.838720    
   4.289279       4.648959       4.903680       5.041920       5.058559    
   4.966399       4.782080       4.523520       4.202239       3.829760    
   3.409920       2.954240       2.474240       1.980160       1.480960    
  0.9979199      0.5299200      0.9847999e-01 -0.2934800     -0.6456001    
 -0.9513600      -1.209920      -1.436160      -1.630720      -1.809920    
  -1.982720      -2.150400      -2.315520      -2.483200      -2.656000    
  -2.844160      -3.052800      -3.281920      -3.537920      -3.824640    
  -4.130560      -4.436481      -4.725760      -4.976641      -5.171201    
  -5.288960      -5.312000      -5.224960      -5.017600      -4.674561    
  -4.185600      -3.549440      -2.766080      -1.849600     -0.8211200    
  0.2722000       1.387520       2.498559       3.560960       4.545280    
   5.416960       6.156799       6.743039       7.161599       7.407359    
   7.487999       7.408639       7.187200       6.839040       6.385920    
   5.847039       5.242880       4.579840       3.865600       3.115520    
   2.342400       1.555200      0.7676799     -0.1258000e-01 -0.7696000    
  -1.497600      -2.174720      -2.789120      -3.326720      -3.777280    
  -4.144640      -4.435201      -4.652801      -4.803841      -4.889601    
  -4.907520      -4.855041      -4.737280      -4.552960      -4.299520    
  -3.968000      -3.553280      -3.055360      -2.487040      -1.862400    
  -1.197440     -0.5296000      0.1266000      0.7526399       1.327360    
   1.849600       2.306560       2.693120       3.011840       3.271680    
   3.481600       3.650560       3.778560       3.852800       3.861760    
   3.800320       3.660800       3.438080       3.121920       2.722560    
   2.248960       1.708800       1.130240      0.5195199     -0.1036800    
 -0.7321601      -1.358080      -1.958400      -2.524160      -3.046400    
  -3.517440      -3.929600      -4.273920      -4.547840      -4.746241    
  -4.858880      -4.874240      -4.787200      -4.610560      -4.349441    
  -4.010241      -3.599360      -3.130880      -2.627840      -2.112000    
  -1.594880      -1.068800     -0.5486400     -0.3002000e-01  0.4920000    
   1.030080       1.576960       2.140160       2.707200       3.270400    
   3.816960       4.334080       4.803840       5.217279       5.561600    
   5.826559       6.001920       6.085119       6.065919       5.946879    
   5.736959       5.432320       5.029119       4.535039       3.962880    
   3.322880       2.626560       1.881600       1.101280      0.2863200    
 -0.5344001      -1.342720      -2.117120      -2.844160      -3.514880    
  -4.117761      -4.654080      -5.120000      -5.518081      -5.844481    
  -6.096641      -6.274560      -6.376961      -6.387200      -6.297601    
  -6.100480      -5.789440      -5.369600      -4.839681      -4.204801    
  -3.479040      -2.676480      -1.812480     -0.8915200      0.6258999e-01
   1.032160       1.982720       2.895360       3.741440       4.504319    
   5.164800       5.706240       6.114559       6.380799       6.499840    
   6.461439       6.266879       5.928960       5.461760       4.888319    
   4.221439       3.477760       2.673920       1.824000      0.9580799    
  0.8707999e-01 -0.7680000      -1.594880      -2.369280      -3.077120    
  -3.703040      -4.230400      -4.646400      -4.933121      -5.076480    
  -5.067520      -4.906240      -4.608001      -4.202240      -3.709440    
  -3.160320      -2.577920      -1.985280      -1.408000     -0.8528000    
 -0.3379200      0.1402800      0.5779200      0.9804800       1.349120    
   1.697280       2.019840       2.311680       2.563840       2.768640    
   2.920959       3.009280       3.028480       2.977280       2.863359    
   2.682880       2.444800       2.156800       1.830400       1.474560    
   1.105280      0.7102399      0.2976400     -0.1292400     -0.5640000    
 -0.9944000      -1.413120      -1.795840      -2.129920      -2.400000    
  -2.590720      -2.698240      -2.720000      -2.662400      -2.539520    
  -2.360320      -2.129920      -1.852160      -1.541120      -1.203680    
 -0.8526400     -0.4905600     -0.1333600      0.2036000      0.5172800    
  0.8065599       1.068000       1.300800       1.492480       1.646080    
   1.745920       1.786880       1.771520       1.713920       1.615360    
   1.480960       1.320960       1.142720      0.9390399      0.7188799    
  0.4924800      0.2704400      0.6035999e-01 -0.1236000     -0.2697600    
 -0.3748800     -0.4316800     -0.4361600     -0.3875200     -0.2865600    
 -0.1439600      0.2044000e-01  0.1847200      0.3324800      0.4494399    
  0.5193599      0.5299200      0.4788799      0.3723199      0.2210400    
  0.3575999e-01 -0.1698800     -0.3788800     -0.5732801     -0.7417600    
 -0.8742400     -0.9574400     -0.9843200     -0.9611200     -0.8988800    
 -0.8105600     -0.7100800     -0.6073600     -0.5073601     -0.4142400    
 -0.3329600     -0.2662800     -0.2146000     -0.1764800     -0.1528400    
 -0.1442800     -0.1497600     -0.1694000     -0.2053600     -0.2540400    
 -0.3041200     -0.3475200     -0.3814400     -0.4068800     -0.4252800    
 -0.4345600     -0.4294400     -0.4057600     -0.3600000     -0.2864400    
 -0.1870400     -0.6427000e-01  0.8192000e-01  0.2535999      0.4484800    
  0.6647999      0.8979199       1.136160       1.358080       1.561600    
   1.734400       1.859840       1.925120       1.920000       1.840640    
   1.688320       1.466880       1.184800      0.8364799      0.4359999    
  0.3530000e-02 -0.4416000     -0.8788800      -1.285920      -1.639680    
  -1.911040      -2.088960      -2.159360      -2.113280      -1.950720    
  -1.689600      -1.350400     -0.9491200     -0.5171200     -0.7185000e-01
  0.3627200      0.7720000       1.145440       1.469440       1.745920    
   1.966080       2.124800       2.213120       2.215680       2.129920    
   1.952000       1.675520       1.309440      0.8681599      0.3526400    
 -0.2089600     -0.7926401      -1.378560      -1.930240      -2.429440    
  -2.855680      -3.189760      -3.420160      -3.541760      -3.554560    
  -3.459840      -3.267840      -2.984960      -2.618880      -2.181120    
  -1.685760      -1.143680     -0.5756800      0.1029000e-01  0.5916799    
