   1.000009      -10.48448       10.48576      -12345.00       1.000010    
   199.0975       1600.110      -12345.00      -12345.00       2.000000    
  -12345.00      -12345.00      -12345.00      -12345.00      -12345.00    
  -12345.00      -12345.00      -12345.00      -12345.00      -12345.00    
  -12345.00      -12345.00      -12345.00      -12345.00      -12345.00    
  -12345.00      -12345.00      -12345.00      -12345.00      -12345.00    
  -12345.00       44.12041      -104.0362      -12345.00      -12345.00    
   40.30000      -127.0000             0.             0.      -12345.00    
  -12345.00      -12345.00      -12345.00      -12345.00      -12345.00    
  -12345.00      -12345.00      -12345.00      -12345.00      -12345.00    
   1936.376       69.80505       265.2992       17.42133      -12345.00    
  -12345.00     -0.5807216e-02         0.       90.00000      -12345.00    
  -12345.00      -12345.00      -12345.00      -12345.00      -12345.00    
  -12345.00      -12345.00      -12345.00      -12345.00      -12345.00    
      1984       254         3        14         7
         0         6         0         0      1402
    -12345    -12345    -12345    -12345    -12345
         1        50        11    -12345    -12345
    -12345    -12345        40    -12345    -12345
    -12345    -12345    -12345    -12345    -12345
    -12345    -12345    -12345    -12345    -12345
         1         0         1         1         0
RSSD    EUREKA          
-12345  -12345  -12345  
-12345  -12345  -12345  
-12345  -12345  -12345  
-12345  -12345  -12345  
-12345  -12345  -12345  
-12345  -12345  KL.N    
RSTN-SAR10/12/84KS-36000
  0.7799999e-03  0.6299999e-03  0.1200000e-03 -0.4200000e-03 -0.1010000e-02
 -0.1730000e-02 -0.2560000e-02 -0.3330000e-02 -0.3850000e-02 -0.3830000e-02
 -0.3420000e-02 -0.2910000e-02 -0.2420000e-02 -0.2000000e-02 -0.1700000e-02
 -0.1560000e-02 -0.1510000e-02 -0.1620000e-02 -0.1970000e-02 -0.2430000e-02
 -0.2750000e-02 -0.2930000e-02 -0.3060000e-02 -0.3040000e-02 -0.2670000e-02
 -0.2140000e-02 -0.1770000e-02 -0.1610000e-02 -0.1540000e-02 -0.1660000e-02
 -0.2020000e-02 -0.2370000e-02 -0.2570000e-02 -0.2770000e-02 -0.3060000e-02
 -0.3300000e-02 -0.3380000e-02 -0.3410000e-02 -0.3460000e-02 -0.3150000e-02
 -0.2130000e-02 -0.8500001e-03  0.1000000e-04  0.4400000e-03  0.9899999e-03
  0.1630000e-02  0.2060000e-02  0.2190000e-02  0.2350000e-02  0.3030000e-02
  0.5849999e-02  0.1332000e-01  0.2443000e-01  0.3558999e-01  0.4645000e-01
  0.5544999e-01  0.5284999e-01  0.2886000e-01 -0.9930002e-02 -0.4922000e-01
 -0.8840001e-01 -0.1253600     -0.1530400     -0.1646800     -0.1580800    
 -0.1295600     -0.7404001e-01 -0.9700001e-03  0.7414000e-01  0.1343600    
  0.1686000      0.1823600      0.1812000      0.1676000      0.1440000    
  0.1132000      0.7618000e-01  0.3867999e-01  0.4140000e-02 -0.2326000e-01
 -0.4381000e-01 -0.6129000e-01 -0.7711001e-01 -0.8828001e-01 -0.8620000e-01
 -0.6856000e-01 -0.4233000e-01 -0.1880000e-01 -0.8450001e-02 -0.1060000e-01
 -0.1800000e-01 -0.2333000e-01 -0.2125000e-01 -0.1108000e-01  0.2480000e-02
  0.1598000e-01  0.2743000e-01  0.3462999e-01  0.3918999e-01  0.4314999e-01
  0.4319999e-01  0.3671999e-01  0.2722000e-01  0.1941000e-01  0.1365000e-01
  0.6619999e-02 -0.5020000e-02 -0.2175000e-01 -0.4252000e-01 -0.6457001e-01
 -0.8668001e-01 -0.1047600     -0.1139200     -0.1048400     -0.6855001e-01
 -0.8680001e-02  0.6221999e-01  0.1255600      0.1644800      0.1775200    
  0.1689200      0.1419600      0.9772000e-01  0.3348999e-01 -0.5179000e-01
 -0.1503600     -0.2318000     -0.2716800     -0.2572400     -0.1922000    
 -0.9768000e-01 -0.6200001e-03  0.7722999e-01  0.1289600      0.1485200    
  0.1396000      0.1081600      0.5982000e-01  0.2989999e-02 -0.5734000e-01
 -0.1131200     -0.1481600     -0.1533200     -0.1254000     -0.6332001e-01
  0.2426000e-01  0.1232400      0.2031600      0.2389600      0.2193600    
  0.1519600      0.6106000e-01 -0.1777000e-01 -0.6235000e-01 -0.6790000e-01
 -0.4920001e-01 -0.2612000e-01 -0.8290000e-02  0.3580000e-02  0.1107000e-01
  0.1509000e-01  0.1621000e-01  0.1436000e-01  0.5559999e-02 -0.1221000e-01
 -0.3542000e-01 -0.6018000e-01 -0.8099000e-01 -0.8996001e-01 -0.7729000e-01
 -0.5213000e-01 -0.2482000e-01 -0.3820000e-02  0.1036000e-01  0.1987000e-01
  0.2403000e-01  0.2214000e-01  0.1814000e-01  0.1637000e-01  0.1787000e-01
  0.2118000e-01  0.2373000e-01  0.2222000e-01  0.1622000e-01  0.1383000e-01
  0.2467000e-01  0.5076999e-01  0.9028000e-01  0.1318800      0.1604800    
  0.1615200      0.1268400      0.5714999e-01 -0.3077000e-01 -0.1178000    
 -0.1788000     -0.2004800     -0.1803200     -0.1267200     -0.5348000e-01
  0.1655000e-01  0.6436999e-01  0.7646999e-01  0.5440000e-01  0.1499000e-01
 -0.2125000e-01 -0.4528000e-01 -0.6016000e-01 -0.7044001e-01 -0.7732001e-01
 -0.8155000e-01 -0.8832000e-01 -0.9712000e-01 -0.1043200     -0.1030000    
 -0.9064001e-01 -0.6882000e-01 -0.4808000e-01 -0.3262001e-01 -0.1815000e-01
  0.2989999e-02  0.3286000e-01  0.7053000e-01  0.1153600      0.1553200    
  0.1756400      0.1667600      0.1305600      0.7753000e-01  0.2822000e-01
 -0.3730000e-02 -0.1154000e-01  0.8999999e-04  0.1749000e-01  0.2567000e-01
  0.1442000e-01 -0.2038000e-01 -0.7503000e-01 -0.1403600     -0.1959200    
 -0.2265600     -0.2252000     -0.1961200     -0.1441600     -0.6256001e-01
  0.6378999e-01  0.2720799      0.5871999       1.014240       1.511680    
   2.023680       2.449920       2.695680       2.695680       2.416640    
   1.880320       1.156320      0.3246800     -0.5268800      -1.347840    
  -2.109440      -2.833920      -3.567360      -4.340481      -5.136641    
  -5.868800      -6.406401      -6.593280      -6.292480      -5.419520    
  -3.978240      -2.064640      0.1488400       2.408960       4.494080    
   6.183680       7.325439       7.851520       7.765759       7.100160    
   5.904639       4.268800       2.320640      0.2229600      -1.861120    
  -3.685120      -5.016320      -5.664001      -5.576961      -4.879360    
  -3.825920      -2.702080      -1.742080      -1.071360     -0.7201600    
 -0.5731200     -0.4430400     -0.1373200      0.4766400       1.437440    
   2.695680       4.090879       5.405439       6.415359       6.955520    
   6.970880       6.542079       5.839359       5.082879       4.477440    
   4.162560       4.157439       4.355840       4.563199       4.550400    
   4.117760       3.150080       1.669120     -0.1438800      -2.058240    
  -3.792640      -5.186561      -6.170880      -6.775041      -7.082240    
  -7.208961      -7.307520      -7.541760      -8.053761      -8.901121    
  -9.973761      -10.48448      -10.48448      -10.48448      -10.48448    
  -10.48448      -10.48448      -10.48448      -8.382721      -5.838080    
  -3.319040      -1.008640       1.053120       3.005440       5.087999    
   7.406079       9.785599       10.48576       10.48576       10.48576    
   10.48576       10.48576       10.48576       10.48576       10.48576    
   10.48576       10.48576       10.48576       10.48576       7.703039    
   3.755520     -0.5699201      -4.785920      -8.531200      -10.48448    
  -10.48448      -10.48448      -10.48448      -10.48448      -10.48448    
  -10.48448      -10.48448      -10.48448      -9.966082      -4.668160    
  0.7110000e-01   4.473599       8.414719       10.48576       10.48576    
   10.48576       10.48576       10.48576       10.48576       10.48576    
   10.48576       6.199039       1.445120      -3.066880      -7.174400    
  -10.48448      -10.48448      -10.48448      -10.48448      -10.48448    
  -10.48448      -10.48448      -6.754560      -1.982720       2.499840    
   6.539519       9.880320       10.48576       10.48576       10.48576    
   10.48576       8.195839       5.201920       2.060800     -0.9875200    
  -3.755520      -6.016001      -7.578880      -8.290562      -8.080641    
  -7.000320      -5.255680      -3.188480      -1.170720      0.4887999    
   1.675520       2.465280       2.993920       3.372800       3.582720    
   3.494400       2.945280       1.856000      0.3134000      -1.450240    
  -3.054080      -4.147201      -4.477441      -3.962880      -2.685440    
 -0.8569601       1.197440       3.134720       4.660480       5.566719    
   5.784319       5.352960       4.371200       2.947840       1.201600    
 -0.7707200      -2.839040      -4.802561      -6.384641      -7.226880    
  -6.984961      -5.482241      -2.890240      0.2750800       3.280640    
   5.365760       5.923840       4.857599       2.639359      0.1322000    
  -1.777920      -2.433280      -1.730560     -0.8912000e-01   1.713920    
   2.944000       3.125760       2.209280      0.5344000      -1.384960    
  -3.004160      -3.988480      -4.213760      -3.727360      -2.652160    
  -1.124000      0.6828799       2.536960       4.120319       5.056000    
   5.058559       4.039680       2.169600     -0.1427600      -2.387200    
  -4.007680      -4.647680      -4.215040      -2.929920      -1.251360    
  0.2521200       1.148640       1.295840      0.8943999      0.3943999    
  0.2750400      0.8027200       1.877760       3.065600       3.746560    
   3.426559       1.992960     -0.1821600      -2.407680      -3.911680    
  -4.235520      -3.374080      -1.753600     -0.1705000e-01   1.215360    
   1.621760       1.252640      0.4190400     -0.4296000     -0.9289601    
 -0.9291201     -0.5204800      0.4009999e-01  0.4718400      0.6187199    
  0.5171199      0.3555200      0.3457600      0.5910399       1.014720    
   1.386240       1.451520       1.051520      0.2194400     -0.7840000    
  -1.597440      -1.894400      -1.559040     -0.7104000      0.3127599    
   1.119200       1.395200       1.056320      0.2264800     -0.7713600    
  -1.573120      -1.888000      -1.638400     -0.9540800     -0.1560800    
  0.4203200      0.5620799      0.2909200     -0.1357200     -0.3486400    
 -0.5787000e-01  0.7561599       1.802240       2.608640       2.725120    
   2.004480      0.6875199     -0.7305601      -1.716480      -1.945600    
  -1.452800     -0.5648000      0.2491600      0.6262399      0.4456000    
 -0.1407600     -0.8040000      -1.192160      -1.093280     -0.5267200    
  0.2620000      0.9036800       1.078400      0.6590400     -0.2168000    
  -1.196800      -1.850880      -1.835520      -1.086400      0.1359600    
   1.355520       2.099200       2.086400       1.392640      0.3974400    
 -0.4417600     -0.7827201     -0.5748800     -0.3591000e-01  0.4835200    
  0.6988800      0.5128000      0.4061999e-01 -0.4806400     -0.8323201    
 -0.9222400     -0.8000001     -0.5955200     -0.4276800     -0.3387200    
 -0.2840800     -0.1757600      0.5716000e-01  0.4166400      0.8126400    
   1.094240       1.118560      0.8348799      0.3281600     -0.2057600    
 -0.5580801     -0.6080000     -0.3886400     -0.4799000e-01  0.2376800    
  0.3643200      0.3183600      0.1473200     -0.8596000e-01 -0.3361600    
 -0.5681601     -0.7353600     -0.7644800     -0.5835201     -0.1863200    
  0.3158399      0.7246399      0.8527999      0.6390399      0.1990400    
 -0.2358400     -0.4488000     -0.3560000     -0.5649000e-01  0.2213600    
  0.2614400     -0.2821000e-01 -0.5579201      -1.086880      -1.352960    
  -1.145920     -0.4667200      0.5231999       1.502720       2.136320    
   2.169600       1.578240      0.5873599     -0.4310400      -1.085600    
  -1.170080     -0.7542400     -0.1447200      0.2689599      0.2268000    
 -0.2609200     -0.9180801      -1.365760      -1.306720     -0.7473600    
  0.7968999e-01  0.8159999       1.174560       1.080160      0.6748799    
  0.2125200     -0.9064001e-01 -0.1500800     -0.2205000e-01  0.1585200    
  0.2638000      0.2178800      0.6069999e-02 -0.3353601     -0.7185601    
  -1.013920      -1.075680     -0.8016001     -0.1978800      0.5889599    
   1.314560       1.754880       1.761280       1.349120      0.6641599    
 -0.9300001e-01 -0.7179201      -1.078080      -1.142240     -0.9612800    
 -0.6300800     -0.2461200      0.1029200      0.3449600      0.4230400    
  0.3059599      0.7879999e-02 -0.3984000     -0.7884800      -1.028640    
  -1.018080     -0.7286401     -0.2206400      0.3659199      0.8601599    
   1.110080       1.040640      0.6852800      0.1821200     -0.2816000    
 -0.5468800     -0.5516801     -0.3526400     -0.7529001e-01  0.1506000    
  0.2673600      0.2847199      0.2513599      0.2071200      0.1601200    
  0.1013200      0.3569999e-01 -0.9900001e-03  0.3197999e-01  0.1443600    
  0.2803200      0.3447999      0.2645200      0.3888000e-01 -0.2427200    
 -0.4464000     -0.4545600     -0.2409200      0.1042400      0.4220800    
  0.5692799      0.4878399      0.2201200     -0.1340400     -0.4776000    
 -0.7480000     -0.9182401     -0.9603200     -0.8304000     -0.4944000    
  0.1747000e-01  0.5734400      0.9795200       1.067840      0.7921599    
  0.2566000     -0.3374400     -0.7769600     -0.9241600     -0.7539201    
 -0.3484800      0.1400400      0.5428799      0.7383999      0.6892799    
  0.4515200      0.1408000     -0.1275600     -0.2802800     -0.2986400    
 -0.2040800     -0.3824000e-01  0.1477200      0.3080800      0.4001600    
  0.3947200      0.2795200      0.7149999e-01 -0.1702000     -0.3675200    
 -0.4416000     -0.3635200     -0.1709200      0.3924999e-01  0.1623600    
  0.1338000     -0.2816000e-01 -0.2388800     -0.3971200     -0.4419200    
 -0.3712000     -0.2173200     -0.2626000e-01  0.1522000      0.2653599    
  0.2619600      0.1173600     -0.1419200     -0.4286400     -0.6139201    
 -0.5888001     -0.3181600      0.1301200      0.6151999      0.9799999    
   1.108960      0.9694399      0.6140800      0.1537200     -0.2892000    
 -0.6169600     -0.7665601     -0.7126400     -0.4596800     -0.5038000e-01
  0.4208000      0.8415999       1.104800       1.155040       1.004000    
  0.7131199      0.3652800      0.3602000e-01 -0.2239200     -0.3998400    
 -0.5056001     -0.5771201     -0.6500801     -0.7420801     -0.8416001    
 -0.9027201     -0.8638400     -0.6856000     -0.3892800     -0.6254001e-01
  0.1675200      0.2124000      0.5589999e-01 -0.2284000     -0.5192001    
 -0.6894400     -0.6656001     -0.4500800     -0.1101600      0.2589200    
  0.5841600      0.8308799      0.9935999       1.074880       1.073280    
  0.9873599      0.8236799      0.6030400      0.3614399      0.1480800    
  0.8049998e-02 -0.4005000e-01 -0.2414000e-01 -0.2830000e-02 -0.3309000e-01
 -0.1388400     -0.2958800     -0.4584000     -0.5800000     -0.6398400    
 -0.6403201     -0.6014401     -0.5473601     -0.4942400     -0.4446400    
 -0.3884800     -0.3142000     -0.2243600     -0.1310800     -0.4834000e-01
  0.1417000e-01  0.6282999e-01  0.1151200      0.1964400      0.3427200    
  0.5830399      0.9079999       1.254240       1.502720       1.550080    
   1.322240      0.8411199      0.1903600     -0.4934400      -1.091040    
  -1.534720      -1.777920      -1.820160      -1.672960      -1.364480    
 -0.9371201     -0.4787200     -0.6119000e-01  0.2523600      0.4550400    
  0.5811199      0.6812799      0.7886399      0.8972799      0.9729599    
  0.9815999      0.9196799      0.8175999      0.7110399      0.6057600    
  0.4638399      0.2294000     -0.1289200     -0.5841601      -1.048960    
  -1.418240      -1.576960      -1.478400      -1.121920     -0.5830400    
  0.4314999e-01  0.6289599       1.048480       1.207680       1.077280    
  0.7118399      0.2396000     -0.1860400     -0.4432000     -0.4830400    
 -0.3428800     -0.1108000      0.1165600      0.2754400      0.3414400    
  0.3198000      0.2232000      0.6685999e-01 -0.1267200     -0.3296000    
 -0.4915200     -0.5608001     -0.5044800     -0.3326400     -0.9640001e-01
  0.1306800      0.2878399      0.3425599      0.2962800      0.1710800    
  0.6229999e-02 -0.1517600     -0.2550000     -0.2678800     -0.1818800    
 -0.2358000e-01  0.1526800      0.2935600      0.3652800      0.3678399    
  0.3264000      0.2749600      0.2408400      0.2300400      0.2266400    
  0.2037600      0.1404400      0.3419000e-01 -0.9596001e-01 -0.2242000    
 -0.3289600     -0.3996800     -0.4393600     -0.4516800     -0.4332800    
 -0.3732800     -0.2636001     -0.1162800      0.3744999e-01  0.1539600    
  0.1949200      0.1504000      0.4215000e-01 -0.8130001e-01 -0.1740800    
 -0.1939600     -0.1322000     -0.6490001e-02  0.1488400      0.2995600    
  0.4153600      0.4740800      0.4620799      0.3809600      0.2453600    
  0.7331999e-01 -0.1107200     -0.2859600     -0.4230400     -0.4846400    
 -0.4411200     -0.2820800     -0.3416000e-01  0.2416000      0.4684799    
  0.5787200      0.5398400      0.3691199      0.1247600     -0.1221600    
 -0.3144400     -0.4305600     -0.4737600     -0.4588800     -0.3945600    
 -0.2833600     -0.1380000      0.1683000e-01  0.1425200      0.1993200    
  0.1670800      0.5943999e-01 -0.7137001e-01 -0.1707200     -0.1911600    
 -0.1268400     -0.3910000e-02  0.1356400      0.2557999      0.3331200    
  0.3571200      0.3227600      0.2321200      0.1052400     -0.1957000e-01
 -0.1007600     -0.1143600     -0.7566001e-01 -0.3688000e-01 -0.4641000e-01
 -0.1239200     -0.2383200     -0.3308800     -0.3420800     -0.2505201    
 -0.8424000e-01  0.9743999e-01  0.2302000      0.2754000      0.2350000    
  0.1472400      0.6581999e-01  0.3613999e-01  0.6490999e-01  0.1265600    
  0.1738800      0.1745600      0.1255200      0.4995000e-01 -0.1792000e-01
 -0.5937000e-01 -0.7239001e-01 -0.6787001e-01 -0.5989000e-01 -0.6017000e-01
 -0.7602000e-01 -0.1099600     -0.1511600     -0.1849200     -0.1926000    
 -0.1615600     -0.9432000e-01 -0.1072000e-01  0.5910999e-01  0.9716000e-01
  0.9835999e-01  0.7810999e-01  0.5947000e-01  0.5194999e-01  0.5254000e-01
  0.4896999e-01  0.2789000e-01 -0.1802000e-01 -0.8588001e-01 -0.1565600    
 -0.2033200     -0.2006400     -0.1374000     -0.2429000e-01  0.1067200    
  0.2188400      0.2790000      0.2711200      0.2009600      0.9323999e-01
 -0.1897000e-01 -0.1081600     -0.1553600     -0.1556800     -0.1133200    
 -0.3810000e-01  0.5086999e-01  0.1342000      0.1810800      0.1695600    
  0.9575999e-01 -0.1783000e-01 -0.1293600     -0.1917600     -0.1778000    
 -0.9208001e-01  0.2983000e-01  0.1389600      0.1922000      0.1738800    
  0.9911999e-01  0.5820000e-02 -0.6497000e-01 -0.9480001e-01 -0.8516000e-01
 -0.5864000e-01 -0.4098000e-01 -0.4296000e-01 -0.6250000e-01 -0.8888000e-01
 -0.1055600     -0.1067200     -0.9640001e-01 -0.8392000e-01 -0.7212001e-01
 -0.5641000e-01 -0.2085000e-01  0.4484999e-01  0.1371600      0.2284800    
  0.2827600      0.2696800      0.1829600      0.4799999e-01 -0.8110000e-01
 -0.1574000     -0.1480400     -0.6305000e-01  0.5413000e-01  0.1598000    
  0.2111600      0.1898800      0.9964000e-01 -0.3578001e-01 -0.1817600    
 -0.2964800     -0.3505600     -0.3316800     -0.2540400     -0.1504000    
 -0.5203000e-01  0.1622000e-01  0.5080000e-01  0.5851000e-01  0.5172999e-01
  0.4262000e-01  0.4007000e-01  0.4971000e-01  0.7422999e-01  0.1134000    
  0.1558800      0.1877200      0.1933600      0.1631200      0.9871998e-01
  0.1335000e-01 -0.7115000e-01 -0.1373200     -0.1647600     -0.1471600    
 -0.8900000e-01 -0.6950000e-02  0.7367998e-01  0.1354800      0.1638400    
  0.1604400      0.1339200      0.9291999e-01  0.3963000e-01 -0.2670000e-01
 -0.1094000     -0.1958800     -0.2659600     -0.2986400     -0.2861601    
