   1.000009      -10.48448       10.48576      -12345.00       1.000010    
   199.0975       1600.110      -12345.00      -12345.00       2.000000    
  -12345.00      -12345.00      -12345.00      -12345.00      -12345.00    
  -12345.00      -12345.00      -12345.00      -12345.00      -12345.00    
  -12345.00      -12345.00      -12345.00      -12345.00      -12345.00    
  -12345.00      -12345.00      -12345.00      -12345.00      -12345.00    
  -12345.00       44.12041      -104.0362      -12345.00      -12345.00    
   40.30000      -127.0000             0.             0.      -12345.00    
  -12345.00      -12345.00      -12345.00      -12345.00      -12345.00    
  -12345.00      -12345.00      -12345.00      -12345.00      -12345.00    
   1936.376       69.80505       265.2992       17.42133      -12345.00    
  -12345.00      0.6913749e-03   90.00000       90.00000      -12345.00    
  -12345.00      -12345.00      -12345.00      -12345.00      -12345.00    
  -12345.00      -12345.00      -12345.00      -12345.00      -12345.00    
      1984       254         3        14         7
         0         6         0         0      1402
    -12345    -12345    -12345    -12345    -12345
         1        50        11    -12345    -12345
    -12345    -12345        40    -12345    -12345
    -12345    -12345    -12345    -12345    -12345
    -12345    -12345    -12345    -12345    -12345
         1         0         1         1         0
RSSD    EUREKA          
-12345  -12345  -12345  
-12345  -12345  -12345  
-12345  -12345  -12345  
-12345  -12345  -12345  
-12345  -12345  -12345  
-12345  -12345  KL.E    
RSTN-SAR10/12/84KS-36000
  0.1300000e-03         0.     -0.4200000e-03 -0.9500000e-03 -0.1390000e-02
 -0.1810000e-02 -0.2420000e-02 -0.3120000e-02 -0.3860000e-02 -0.4770000e-02
 -0.5800000e-02 -0.6620000e-02 -0.6980000e-02 -0.6900000e-02 -0.6560001e-02
 -0.6070000e-02 -0.5470000e-02 -0.4650000e-02 -0.3640000e-02 -0.2670000e-02
 -0.1890000e-02 -0.1300000e-02 -0.9100001e-03 -0.6900000e-03 -0.5700000e-03
 -0.5600001e-03 -0.5500000e-03 -0.1200000e-03  0.8999999e-03  0.2130000e-02
  0.3030000e-02  0.3850000e-02  0.5229999e-02  0.7009999e-02  0.8429999e-02
  0.9119999e-02  0.9359999e-02  0.9399999e-02  0.9229999e-02  0.8830000e-02
  0.8159999e-02  0.7119999e-02  0.5849999e-02  0.4650000e-02  0.3430000e-02
  0.2010000e-02  0.5999999e-03 -0.3600000e-03 -0.6300000e-03  0.3500000e-02
  0.2813000e-01  0.9307998e-01  0.1965200      0.3296000      0.4990399    
  0.6708800      0.7612799      0.7105600      0.5287999      0.2376400    
 -0.1491200     -0.5795200     -0.9969600      -1.383680      -1.681920    
  -1.832960      -1.799680      -1.582080      -1.202560     -0.7304001    
 -0.1986000      0.3668799      0.9249599       1.392640       1.719040    
   1.840640       1.751040       1.495040       1.148000      0.7427199    
  0.3377600     -0.3429000e-01 -0.3504000     -0.5710400     -0.6787200    
 -0.6851200     -0.6137600     -0.4990400     -0.3817600     -0.2816800    
 -0.2018800     -0.1468400     -0.1184400     -0.1006000     -0.7877001e-01
 -0.5359000e-01 -0.2205000e-01  0.1536000e-01  0.4085000e-01  0.3899000e-01
  0.1871000e-01  0.7009999e-02  0.2375000e-01  0.6288999e-01  0.1041200    
  0.1339600      0.1497600      0.1590800      0.1754400      0.2069200    
  0.2446800      0.2726800      0.2882800      0.3019600      0.3220400    
  0.3459200      0.3678399      0.3767999      0.3673599      0.3409600    
  0.2958800      0.2252400      0.1356400      0.3584000e-01 -0.7442001e-01
 -0.1890800     -0.2917200     -0.3753600     -0.4340800     -0.4606400    
 -0.4540800     -0.4300800     -0.4059200     -0.3921600     -0.3968000    
 -0.4219200     -0.4625600     -0.5062400     -0.5368000     -0.5435201    
 -0.5249600     -0.4876800     -0.4420800     -0.3915200     -0.3292800    
 -0.2462000     -0.1363200      0.1480000e-02  0.1508000      0.2855600    
  0.3782400      0.4166400      0.4027200      0.3600000      0.3273200    
  0.3307199      0.3787200      0.4521599      0.5220799      0.5663999    
  0.5769600      0.5527999      0.4967999      0.4190400      0.3288000    
  0.2311600      0.1267200      0.2036000e-01 -0.8656001e-01 -0.1893200    
 -0.2741200     -0.3221200     -0.3244800     -0.2852800     -0.2196800    
 -0.1492400     -0.9404001e-01 -0.6921001e-01 -0.8174001e-01 -0.1259200    
 -0.1809200     -0.2148000     -0.1988400     -0.1267200     -0.1756000e-01
  0.9423999e-01  0.1750000      0.2048400      0.1895600      0.1498400    
  0.1019200      0.5402999e-01  0.9229999e-02 -0.3026000e-01 -0.6358001e-01
 -0.9144001e-01 -0.1085200     -0.1040800     -0.7005000e-01 -0.7110001e-02
  0.7476999e-01  0.1499200      0.1852800      0.1607600      0.8012000e-01
 -0.3205001e-01 -0.1395600     -0.2125600     -0.2445200     -0.2468400    
 -0.2349200     -0.2177600     -0.1972000     -0.1698000     -0.1306800    
 -0.7680000e-01 -0.1216000e-01  0.5285999e-01  0.1039600      0.1299600    
  0.1245600      0.8827999e-01  0.3181999e-01 -0.2675000e-01 -0.6886001e-01
 -0.8181001e-01 -0.5911000e-01 -0.2350000e-02  0.7464999e-01  0.1491600    
  0.2010800      0.2192800      0.2023600      0.1566000      0.9208000e-01
  0.2082000e-01 -0.4605000e-01 -0.1024000     -0.1482400     -0.1868800    
 -0.2189200     -0.2404800     -0.2446400     -0.2222000     -0.1646400    
 -0.7254000e-01  0.4087999e-01  0.1569200      0.2605600      0.3499200    
  0.4379200      0.5291200      0.6180799      0.6863999      0.7078400    
  0.6606399      0.5467199      0.3924800      0.2384800      0.1136000    
  0.2367000e-01 -0.5289000e-01 -0.1481600     -0.2894400     -0.4812800    
 -0.6835201     -0.8332801     -0.8806400     -0.8180801     -0.6833601    
 -0.5443200     -0.4604800     -0.4476800     -0.4720000     -0.4798400    
 -0.4334400     -0.3366400     -0.2320000     -0.1773200     -0.2025200    
 -0.2854400     -0.3590400     -0.3467200     -0.2004400      0.8916000e-01
  0.4964799      0.9633600       1.393920       1.734400       1.926400    
   1.963520       1.868800       1.669120       1.378560       1.012160    
  0.5500799      0.1610000e-01 -0.5547200      -1.092960      -1.534720    
  -1.809920      -1.890560      -1.766400      -1.463040      -1.035040    
 -0.5883200     -0.2158800     -0.2170000e-02  0.1511000e-01 -0.1421200    
 -0.3996800     -0.6606400     -0.8532801     -0.9475200     -0.9462401    
 -0.8601600     -0.6996801     -0.4816000     -0.2377600     -0.1454000e-01
  0.1483200      0.2332800      0.2500800      0.2221200      0.1638000    
  0.7798000e-01 -0.2193000e-01 -0.9208001e-01 -0.6329000e-01  0.1288800    
  0.5156800       1.081600       1.749760       2.448640       3.054080    
   3.463680       3.589119       3.377920       2.839040       2.050560    
   1.147680      0.2461600     -0.5337601      -1.126080      -1.539840    
  -1.820160      -2.060800      -2.338560      -2.675200      -3.031040    
  -3.316480      -3.434240      -3.329280      -3.006720      -2.522880    
  -1.957120      -1.382400     -0.8424001     -0.3782400      0.3154000e-01
  0.4377599      0.9195199       1.523200       2.286080       3.142400    
   3.997440       4.733439       5.253119       5.521919       5.562880    
   5.428479       5.167359       4.780800       4.225280       3.432960    
   2.357759       1.025280     -0.5171200      -2.159360      -3.777280    
  -5.290240      -6.635520      -7.759360      -8.615681      -9.182720    
  -9.465601      -9.497601      -9.315840      -8.939520      -8.363522    
  -7.568641      -6.542080      -5.287681      -3.838720      -2.218240    
 -0.4462400       1.437440       3.459840       5.602559       7.816959    
   9.966080       10.48576       10.48576       10.48576       10.48576    
   10.48576       10.48576       10.48576       10.48576       10.25152    
   6.926080       3.225600     -0.7963201      -4.791040      -8.394241    
  -10.48448      -10.48448      -10.48448      -10.48448      -10.48448    
  -10.48448      -10.48448      -10.48448      -10.48448      -7.928320    
  -4.186880     -0.2448400       3.642879       7.188479       10.26432    
   10.48576       10.48576       10.48576       10.48576       10.48576    
   10.48576       10.48576       10.48576       6.385920       1.991680    
  -2.430720      -6.510080      -9.991680      -10.48448      -10.48448    
  -10.48448      -10.48448      -10.48448      -10.48448      -7.475201    
  -4.028160     -0.7094400       2.306560       4.936959       7.106560    
   8.773119       9.896959       10.46144       10.46912       9.928959    
   8.865278       7.276799       5.169919       2.566400     -0.4363200    
  -3.665920      -6.800640      -9.584641      -10.48448      -10.48448    
  -10.48448      -10.48448      -8.084480      -4.183041     -0.4282000e-01
   3.833600       6.941440       8.629759       8.581120       6.993919    
   4.412159       1.551360     -0.8787200      -2.411520      -2.840320    
  -2.311680      -1.188960      0.2827000e-01  0.9017599       1.153440    
  0.7236799     -0.2241600      -1.381120      -2.361600      -2.880000    
  -2.790400      -2.118400      -1.021120      0.2155200       1.280800    
   1.872640       1.820160       1.100000     -0.1176800      -1.466880    
  -2.499840      -2.873600      -2.453760      -1.356800      0.8703999e-01
   1.425920       2.339840       2.638080       2.375679       1.785600    
   1.207360      0.9086399       1.040480       1.523200       2.117120    
   2.446080       2.188800       1.221280     -0.3302400      -2.050560    
  -3.390720      -3.907840      -3.408640      -2.059520     -0.3342400    
   1.131840       1.811200       1.505280      0.3763199      -1.109920    
  -2.319360      -2.707200      -2.068480     -0.5777601       1.238560    
   2.732800       3.411200       3.063040       1.891840      0.4137599    
 -0.7897600      -1.262240     -0.8979200      0.3677999e-01   1.038080    
   1.614080       1.533440      0.8640000     -0.1100800     -0.9988800    
  -1.515520      -1.547520      -1.191040     -0.6801600     -0.2478000    
 -0.6442000e-01 -0.1761600     -0.5006400     -0.8640001      -1.072480    
 -0.9868801     -0.5884800      0.5369999e-02  0.5748799      0.9030399    
  0.8633599      0.4873599     -0.4332000e-01 -0.4777600     -0.5958401    
 -0.3151200      0.2701600      0.9254400       1.369600       1.432320    
   1.089280      0.4641600     -0.1748000     -0.5670401     -0.5444801    
 -0.1095600      0.5552000       1.156160       1.387520       1.129120    
  0.4233599     -0.4323200      -1.068480      -1.212640     -0.8275200    
 -0.1436800      0.4366400      0.5431999      0.2590000e-01 -0.9539200    
  -1.968640      -2.501120      -2.206720      -1.088640      0.4564800    
   1.816320       2.462720       2.145280       1.063840     -0.2957200    
  -1.344000      -1.672960      -1.234560     -0.3204400      0.6406399    
   1.263840       1.338880      0.9225600      0.1742000     -0.6172800    
  -1.162080      -1.252000     -0.8267200     -0.1732000e-01  0.8734399    
   1.482240       1.571840       1.108480      0.2722800     -0.5875200    
  -1.150560      -1.260960     -0.9635201     -0.4518400      0.4781999e-01
  0.3760000      0.5011200      0.4867200      0.4355199      0.4216000    
  0.4483200      0.4481599      0.3276800      0.3258999e-01 -0.4065600    
 -0.8600000      -1.158720      -1.163840     -0.8382400     -0.2805600    
  0.3038800      0.7024000      0.8076799      0.6611199      0.4172800    
  0.2399200      0.2086000      0.2998800      0.4183999      0.4676800    
  0.3928000      0.2036000     -0.5104000e-01 -0.3111600     -0.5339200    
 -0.6996801     -0.8105600     -0.8712001     -0.8736000     -0.7875201    
 -0.5752001     -0.2212800      0.2369600      0.7134399       1.104960    
   1.313280       1.318400       1.124800      0.7494400      0.2684000    
 -0.2474800     -0.7272000      -1.111040      -1.361920      -1.432320    
  -1.285920     -0.9160000     -0.3310400      0.3799999       1.050720    
   1.473280       1.528320       1.192480      0.5734400     -0.9896001e-01
 -0.6206400     -0.8828801     -0.8980800     -0.7446400     -0.5044800    
 -0.2263600      0.6455000e-01  0.3404800      0.5507200      0.6257600    
  0.5276799      0.2923599      0.2037000e-01 -0.1715600     -0.2184400    
 -0.1379200     -0.5340001e-02  0.9283999e-01  0.9763999e-01 -0.1352000e-01
 -0.2271600     -0.4926400     -0.7238400     -0.8217601     -0.7118400    
 -0.3897600      0.6526999e-01  0.5180799      0.8524799       1.005760    
  0.9811199      0.8177599      0.5614399      0.2538000     -0.5682001e-01
 -0.2982400     -0.3936000     -0.3013600     -0.5795000e-01  0.2298800    
  0.4216000      0.4033599      0.1344800     -0.3262800     -0.8268801    
  -1.173920      -1.210720     -0.8892801     -0.3034800      0.3433599    
  0.8366399       1.032320      0.9019200      0.5150399     -0.3520000e-02
 -0.5164801     -0.8801601     -0.9785601     -0.7571200     -0.2712801    
  0.3019199      0.7327999      0.8588799      0.6708800      0.3222399    
  0.2722000e-01 -0.6732000e-01  0.3230999e-01  0.1911200      0.2507600    
  0.1343200     -0.1142000     -0.3740800     -0.5284801     -0.5305600    
 -0.4104000     -0.2368000     -0.7394001e-01  0.4499000e-01  0.1125200    
  0.1321200      0.1090800      0.5510999e-01 -0.6110000e-02 -0.4154000e-01
 -0.2633000e-01  0.3771000e-01  0.1182000      0.1696400      0.1598800    
  0.9007999e-01 -0.3750000e-02 -0.6931001e-01 -0.6001000e-01  0.4555000e-01
  0.2309600      0.4388800      0.5915200      0.6193600      0.4988800    
  0.2602800     -0.4001001e-01 -0.3419200     -0.5980800     -0.7784001    
 -0.8572800     -0.8115200     -0.6364801     -0.3622400     -0.5468000e-01
  0.2020000      0.3436800      0.3531200      0.2657200      0.1535600    
  0.9079999e-01  0.1075600      0.1736400      0.2209200      0.1917600    
  0.8311999e-01 -0.4344000e-01 -0.9736000e-01 -0.1673000e-01  0.1789200    
  0.3892800      0.4875200      0.3915200      0.1194000     -0.2241600    
 -0.5003201     -0.6118400     -0.5529600     -0.3980800     -0.2435200    
 -0.1458000     -0.8572000e-01 -0.1860000e-02  0.1474000      0.3393599    
  0.4953600      0.5268799      0.3988799      0.1524400     -0.1242000    
 -0.3369600     -0.4257600     -0.3808000     -0.2296800     -0.1988000e-01
  0.1968400      0.3670400      0.4446400      0.4012800      0.2492000    
  0.3911000e-01 -0.1511200     -0.2530400     -0.2430000     -0.1538800    
 -0.5808000e-01 -0.2975000e-01 -0.1026400     -0.2508800     -0.4027200    
 -0.4724800     -0.4070400     -0.2102800      0.5273999e-01  0.2885200    
  0.4164799      0.4081600      0.2907600      0.1279600     -0.1043000e-01
 -0.8108000e-01 -0.7463001e-01 -0.9350000e-02  0.8162999e-01  0.1606800    
  0.1958000      0.1691600      0.8216000e-01 -0.4588000e-01 -0.1849200    
 -0.2997600     -0.3603200     -0.3446400     -0.2500000     -0.9680000e-01
  0.8487999e-01  0.2648799      0.4188800      0.5278399      0.5659199    
  0.5056000      0.3302400      0.5336999e-01 -0.2730000     -0.5620800    
 -0.7286401     -0.7281600     -0.5702400     -0.3106000     -0.3263000e-01
  0.1842400      0.2876000      0.2662399      0.1534800      0.1465000e-01
 -0.7788001e-01 -0.7010001e-01  0.5378000e-01  0.2647600      0.4959999    
  0.6678399      0.7084799      0.5820799      0.3006400     -0.7929000e-01
 -0.4640000     -0.7424001     -0.8267200     -0.6824000     -0.3518400    
  0.5458999e-01  0.3891200      0.5356799      0.4452800      0.1616400    
 -0.2054800     -0.5216000     -0.6795200     -0.6379200     -0.4230400    
 -0.1120400      0.1967200      0.4208000      0.5179199      0.4884800    
  0.3684800      0.2084000      0.4776999e-01 -0.8728001e-01 -0.1804800    
 -0.2190000     -0.1914000     -0.9592001e-01  0.5042999e-01  0.2085600    
  0.3283200      0.3686399      0.3113599      0.1688000     -0.1524000e-01
 -0.1882000     -0.3051600     -0.3478400     -0.3242000     -0.2671600    
 -0.2046000     -0.1444400     -0.7261001e-01  0.2796000e-01  0.1549600    
  0.2749600      0.3347200      0.2978399      0.1605600     -0.3097000e-01
 -0.2058800     -0.2982400     -0.2780000     -0.1600400      0.6479999e-02
  0.1586400      0.2445200      0.2369200      0.1424000     -0.3700000e-03
 -0.1382000     -0.2264800     -0.2516800     -0.2276400     -0.1776800    
 -0.1156800     -0.4084000e-01  0.5069999e-01  0.1536400      0.2473200    
  0.3046399      0.3102400      0.2711999      0.2105600      0.1500000    
  0.9471999e-01  0.3258000e-01 -0.5194000e-01 -0.1581600     -0.2622800    
 -0.3318400     -0.3416000     -0.2914400     -0.2028800     -0.9940000e-01
  0.3490000e-02  0.9855999e-01  0.1810800      0.2413200      0.2675200    
  0.2517599      0.1933200      0.9947999e-01 -0.1396000e-01 -0.1235600    
 -0.2002000     -0.2216400     -0.1836000     -0.1081600     -0.3773000e-01
 -0.1540000e-01 -0.5791000e-01 -0.1423600     -0.2124800     -0.2104000    
 -0.1108400      0.5888999e-01  0.2258800      0.3109199      0.2704400    
  0.1253600     -0.4690000e-01 -0.1524000     -0.1274800      0.2570000e-01
  0.2396000      0.4147199      0.4704000      0.3772799      0.1743200    
 -0.5729000e-01 -0.2274400     -0.2796400     -0.2188000     -0.1100800    
 -0.4633000e-01 -0.1013200     -0.2811200     -0.5164801     -0.6883200    
 -0.6926401     -0.4910400     -0.1342000      0.2552400      0.5449599    
  0.6559999      0.5891199      0.4166400      0.2388800      0.1301600    
  0.1160000      0.1683600      0.2292000      0.2417200      0.1764400    
  0.4046000e-01 -0.1324800     -0.2982400     -0.4209600     -0.4752000    
 -0.4532800     -0.3606400     -0.2123200     -0.3607000e-01  0.1349600    
  0.2670400      0.3337600      0.3310400      0.2723200      0.1847200    
  0.1029600      0.5276000e-01  0.3985000e-01  0.4870000e-01  0.5118000e-01
  0.2108000e-01 -0.5391000e-01 -0.1669600     -0.2925600     -0.3953600    
 -0.4372800     -0.3972800     -0.2792400     -0.1171600      0.4247999e-01
  0.1558800      0.2019600      0.1877600      0.1439600      0.1084400    
  0.1072400      0.1417600      0.1892800      0.2166400      0.1997200    
  0.1386000      0.5846000e-01 -0.6600000e-02 -0.3570000e-01 -0.3532001e-01
 -0.3262001e-01 -0.5370000e-01 -0.1048400     -0.1678400     -0.2137600    
 -0.2185600     -0.1756800     -0.9868000e-01 -0.1338000e-01  0.5194999e-01
  0.7911000e-01  0.6482999e-01  0.2222000e-01 -0.2355000e-01 -0.4432000e-01
 -0.2145000e-01  0.4421999e-01  0.1301200      0.2012400      0.2275200    
  0.2016800      0.1444400      0.9167999e-01  0.7245000e-01  0.8979999e-01
  0.1219600      0.1358800      0.1087600      0.3805999e-01 -0.6347001e-01
 -0.1786000     -0.2908400     -0.3846400     -0.4393600     -0.4401600    
 -0.3841600     -0.2845600     -0.1694800     -0.6290001e-01  0.2438000e-01
  0.1010400      0.1843200      0.2823600      0.3822399      0.4585599    
  0.4809600      0.4332799      0.3226799      0.1728800      0.2048000e-01
 -0.1071200     -0.1988800     -0.2617600     -0.3063600     -0.3332800    
 -0.3268000     -0.2736400     -0.1728800     -0.4747000e-01  0.6329998e-01
  0.1268800      0.1380400      0.1213200      0.1135200      0.1366400    
  0.1816000      0.2135200      0.1939200      0.1048000     -0.4035001e-01
 -0.2042800     -0.3408000     -0.4105600     -0.3956800     -0.2992400    
 -0.1465600      0.2860000e-01  0.1872000      0.2969199      0.3366399    
