   1.000009      -10.48448       10.48576      -12345.00       1.000010    
   199.0975       1600.110      -12345.00      -12345.00       2.000000    
  -12345.00      -12345.00      -12345.00      -12345.00      -12345.00    
  -12345.00      -12345.00      -12345.00      -12345.00      -12345.00    
  -12345.00      -12345.00      -12345.00      -12345.00      -12345.00    
  -12345.00      -12345.00      -12345.00      -12345.00      -12345.00    
  -12345.00       44.12041      -104.0362      -12345.00      -12345.00    
   40.30000      -127.0000             0.             0.      -12345.00    
  -12345.00      -12345.00      -12345.00      -12345.00      -12345.00    
  -12345.00      -12345.00      -12345.00      -12345.00      -12345.00    
   1936.376       69.80505       265.2992       17.42133      -12345.00    
  -12345.00     -0.4450637e-02         0.             0.      -12345.00    
  -12345.00      -12345.00      -12345.00      -12345.00      -12345.00    
  -12345.00      -12345.00      -12345.00      -12345.00      -12345.00    
      1984       254         3        14         7
         0         6         0         0      1402
    -12345    -12345    -12345    -12345    -12345
         1        50        11    -12345    -12345
    -12345    -12345        40    -12345    -12345
    -12345    -12345    -12345    -12345    -12345
    -12345    -12345    -12345    -12345    -12345
         1         0         1         1         0
RSSD    EUREKA          
-12345  -12345  -12345  
-12345  -12345  -12345  
-12345  -12345  -12345  
-12345  -12345  -12345  
-12345  -12345  -12345  
-12345  -12345  KL.Z    
RSTN-SAR10/12/84KS-36000
 -0.1610000e-02 -0.8600000e-03  0.2599999e-03  0.1200000e-02  0.1710000e-02
  0.2030000e-02  0.2290000e-02  0.2360000e-02  0.2120000e-02  0.1550000e-02
  0.7999999e-03 -0.1300000e-03 -0.1130000e-02 -0.1960000e-02 -0.2370000e-02
 -0.2400000e-02 -0.2250000e-02 -0.1970000e-02 -0.1420000e-02 -0.7500000e-03
 -0.2300000e-03  0.5000000e-04  0.2300000e-03  0.2599999e-03 -0.9000000e-04
 -0.7300001e-03 -0.1220000e-02 -0.1280000e-02 -0.1160000e-02 -0.1240000e-02
 -0.1430000e-02 -0.1400000e-02 -0.1170000e-02 -0.1170000e-02 -0.1380000e-02
 -0.1310000e-02 -0.7200000e-03 -0.6000000e-04  0.1700000e-03  0.4000000e-04
  0.1000000e-04  0.2400000e-03  0.6700000e-03  0.1110000e-02  0.1440000e-02
  0.1550000e-02  0.1340000e-02  0.1750000e-02  0.1410000e-02  0.4500000e-02
  0.2963000e-01  0.8827999e-01  0.1815600      0.3023199      0.4502400    
  0.5921599      0.6550399      0.5827199      0.3686399      0.4645000e-01
 -0.3476800     -0.7689600      -1.171520      -1.505280      -1.693440    
  -1.687040      -1.472000      -1.069600     -0.5625601     -0.2559000e-01
  0.4846399      0.9425600       1.320960       1.593600       1.712640    
   1.651200       1.416960       1.056640      0.6168000      0.1729600    
 -0.2147200     -0.5059201     -0.6761601     -0.7142401     -0.6379200    
 -0.4915200     -0.3251600     -0.1801200     -0.7841000e-01 -0.2729000e-01
 -0.2541000e-01 -0.6395000e-01 -0.1228400     -0.1788400     -0.2193200    
 -0.2281600     -0.1905200     -0.1124400     -0.1540000e-01  0.7960999e-01
  0.1631600      0.2319200      0.2858400      0.3255200      0.3428800    
  0.3332800      0.2919599      0.2214000      0.1332400      0.4085000e-01
 -0.5111000e-01 -0.1383200     -0.2089200     -0.2468800     -0.2363200    
 -0.1707200     -0.5962000e-01  0.7314000e-01  0.2030000      0.3098400    
  0.3740799      0.3793600      0.3186399      0.1974000      0.3399000e-01
 -0.1437200     -0.3046400     -0.4273600     -0.4993600     -0.5220801    
 -0.5113600     -0.4872000     -0.4603200     -0.4308800     -0.3931200    
 -0.3400000     -0.2712801     -0.2004800     -0.1435600     -0.1031600    
 -0.6696001e-01 -0.2092000e-01  0.4202999e-01  0.1161600      0.1868000    
  0.2363600      0.2600800      0.2700000      0.2808400      0.2986799    
  0.3181199      0.3308800      0.3331200      0.3251600      0.3099599    
  0.2944800      0.2833200      0.2802399      0.2847599      0.2905200    
  0.2844000      0.2557600      0.1967200      0.1014000     -0.2250000e-01
 -0.1562000     -0.2799600     -0.3816000     -0.4536000     -0.4915200    
 -0.4918400     -0.4502400     -0.3699200     -0.2637200     -0.1495200    
 -0.4685000e-01  0.2759000e-01  0.6897999e-01  0.8134998e-01  0.7006998e-01
  0.4409000e-01  0.1745000e-01  0.5440000e-02  0.1630000e-01  0.4973999e-01
  0.9991999e-01  0.1594800      0.2174000      0.2602400      0.2748800    
  0.2564400      0.2061200      0.1320800      0.5051000e-01 -0.2535000e-01
 -0.9300001e-01 -0.1554000     -0.2085600     -0.2426800     -0.2461200    
 -0.2114800     -0.1401600     -0.4981000e-01  0.3021000e-01  0.7181999e-01
  0.6395999e-01  0.2382000e-01 -0.1547000e-01 -0.3164000e-01 -0.2777000e-01
 -0.2238000e-01 -0.3276000e-01 -0.6004000e-01 -0.8896001e-01 -0.9896001e-01
 -0.7725000e-01 -0.2227000e-01  0.5507000e-01  0.1302000      0.1762800    
  0.1780400      0.1413600      0.8251999e-01  0.1589000e-01 -0.5036000e-01
 -0.1106800     -0.1598400     -0.1918000     -0.1970000     -0.1690800    
 -0.1091200     -0.2118000e-01  0.8911999e-01  0.2097600      0.3166800    
  0.3824000      0.3888000      0.3380800      0.2486800      0.1444400    
  0.4703999e-01 -0.3495000e-01 -0.1086400     -0.1928800     -0.2992400    
 -0.4184000     -0.5195200     -0.5704000     -0.5446401     -0.4313600    
 -0.2404800     -0.8630000e-02  0.2141200      0.3843200      0.4798400    
  0.5063999      0.4952000      0.4857600      0.5068799      0.5639999    
  0.6409600      0.7089599      0.7327999      0.6772799      0.5219200    
  0.2737200     -0.4815000e-01 -0.4273600     -0.8457600      -1.272480    
  -1.658880      -1.920000      -1.998080      -1.852160      -1.479680    
 -0.9184000     -0.2688400      0.3627200      0.8868799       1.255680    
   1.451520       1.486080       1.358080       1.083360      0.6655999    
  0.1324000     -0.4724800      -1.064320      -1.528320      -1.706240    
  -1.488640     -0.8348800      0.1648000       1.326080       2.415359    
   3.171840       3.409920       3.057920       2.177279      0.9638399    
 -0.3316800      -1.452800      -2.211840      -2.551040      -2.504960    
  -2.167040      -1.642240      -1.018880     -0.3769600      0.2378000    
  0.7721599       1.175840       1.404160       1.454080       1.341440    
   1.120800      0.8211199      0.4716800      0.8563998e-01 -0.3276400    
 -0.7532800      -1.162720      -1.519360      -1.757440      -1.840640    
  -1.757440      -1.534720      -1.231040     -0.9356800     -0.7075200    
 -0.5763201     -0.5161600     -0.4483200     -0.2699201      0.9315999e-01
  0.6443199       1.300320       1.913600       2.350080       2.522880    
   2.414080       2.060800       1.538560      0.9411199      0.3500800    
 -0.1574000     -0.5304000     -0.7468801     -0.8344001     -0.8561600    
 -0.8668801     -0.8777601     -0.8595201     -0.7752000     -0.6148801    
 -0.4100800     -0.2194800     -0.1071600     -0.1282400     -0.3291200    
 -0.7299200      -1.303840      -1.967360      -2.565120      -2.942720    
  -2.988800      -2.672640      -2.059520      -1.262240     -0.4176000    
  0.4011199       1.183840       1.976320       2.854400       3.850240    
   4.933120       6.008319       6.956800       7.663360       8.061440    
   8.117760       7.818239       7.162879       6.178559       4.929279    
   3.495680       1.932800      0.2495600      -1.603840      -3.622400    
  -5.766400      -7.928320      -9.977600      -10.48448      -10.48448    
  -10.48448      -10.48448      -10.48448      -10.48448      -10.48448    
  -10.48448      -10.14144      -7.415040      -4.417280      -1.120000    
   2.352640       5.818879       8.998400       10.48576       10.48576    
   10.48576       10.48576       10.48576       10.48576       10.48576    
   10.48576       10.48576       9.445118       5.689599       1.738240    
  -2.351360      -6.144000      -9.429760      -10.48448      -10.48448    
  -10.48448      -10.48448      -10.48448      -10.48448      -10.48448    
  -10.48448      -10.16832      -5.928961      -1.610240       2.734080    
   6.726399       10.11584       10.48576       10.48576       10.48576    
   10.48576       10.48576       10.48576       8.631039       4.590079    
  0.6020799      -3.200000      -6.522881      -9.171200      -10.48448    
  -10.48448      -10.48448      -10.48448      -10.48448      -9.955841    
  -7.884800      -5.396481      -2.644480      0.2375600       3.157760    
   6.074880       8.824318       10.48576       10.48576       10.48576    
   10.48576       10.48576       10.26304       6.255360       1.967360    
  -2.211840      -6.000640      -9.038080      -10.48448      -10.39744    
  -8.244480      -4.945920      -1.209120       2.424320       5.255679    
   6.545919       6.106879       4.332799       1.879040     -0.5224000    
  -2.245120      -2.871040      -2.329600     -0.8808000      0.9238399    
   2.434560       3.091200       2.593280      0.9991999      -1.300640    
  -3.691520      -5.457920      -6.000640      -5.022720      -2.767360    
  0.1583600       3.165440       5.615359       6.721279       6.126080    
   4.119040       1.395200      -1.249120      -3.187200      -4.117761    
  -4.154881      -3.680000      -3.121920      -2.763520      -2.617600    
  -2.442240      -1.902080     -0.7545600      0.9751999       3.013120    
   4.903680       6.138880       6.338559       5.373440       3.427840    
  0.9625599      -1.431040      -3.147520      -3.791360      -3.274240    
  -1.844480     -0.1752000e-01   1.557760       2.379520       2.195199    
   1.133120     -0.3755200      -1.740800      -2.426880      -2.188800    
  -1.144800      0.2552000       1.457920       2.035200       1.826560    
  0.9979199     -0.7348001e-01 -0.9625601      -1.391360      -1.296000    
 -0.8497601     -0.2781200      0.2399200      0.6387199      0.9359999    
   1.163360       1.315840       1.359360       1.236320      0.9038399    
  0.3964800     -0.1822800     -0.6944001      -1.025280      -1.128800    
  -1.019840     -0.7528000     -0.4008000     -0.3985000e-01  0.2660400    
  0.4747199      0.5588800      0.5015999      0.3148800      0.4580999e-01
 -0.2290800     -0.4344000     -0.5174401     -0.4582400     -0.2735600    
 -0.3183001e-01  0.1551200      0.1817600      0.2293000e-01 -0.2284400    
 -0.3977600     -0.3231200      0.4104999e-01  0.5828799       1.071520    
   1.264160       1.030880      0.4305599     -0.3084000     -0.8899200    
  -1.081760     -0.8252801     -0.2590000      0.3337600      0.6456000    
  0.4740800     -0.1665600      -1.012960      -1.638400      -1.633280    
 -0.8513601      0.4638399       1.785600       2.534400       2.343680    
   1.263680     -0.2849600      -1.696000      -2.439680      -2.298880    
  -1.390080     -0.6520000e-01   1.206240       2.014719       2.103040    
   1.432320      0.2432400      -1.015360      -1.834240      -1.857280    
  -1.084800      0.1112000       1.177280       1.621760       1.280480    
  0.3660800     -0.6305600      -1.228320      -1.201440     -0.6696000    
  0.2940000e-02  0.4182400      0.3606400     -0.1067200     -0.6868800    
  -1.008640     -0.8278401     -0.1451600      0.7971200       1.637120    
   2.062080       1.907200       1.234400      0.2813200     -0.6075201    
  -1.127040      -1.143680     -0.7473600     -0.2037600      0.1689200    
  0.1468400     -0.2955200     -0.9660801      -1.543680      -1.708800    
  -1.338880     -0.5324800      0.4017600       1.136800       1.460480    
   1.379840       1.072320      0.7452799      0.5436800      0.4691200    
  0.4190400      0.2814000      0.1507000e-01 -0.3228800     -0.6168001    
 -0.7580800     -0.6977600     -0.4553600     -0.9500000e-01  0.3023199    
  0.6558399      0.8823999      0.8974400      0.6414399      0.1163600    
 -0.5888001      -1.300960      -1.827840      -2.000640      -1.780480    
  -1.227360     -0.4942400      0.2825600      0.9971199       1.578240    
   1.967360       2.071040       1.797120       1.133120      0.1758400    
 -0.8476801      -1.666560      -2.042880      -1.886720      -1.257600    
 -0.3800000      0.4803200       1.090720       1.340160       1.289600    
   1.062240      0.8038399      0.5777600      0.3571200      0.7350999e-01
 -0.3148800     -0.7689600      -1.173920      -1.397760      -1.331200    
 -0.9800000     -0.4614400      0.7061999e-01  0.4796799      0.7188799    
  0.8278400      0.8823999      0.9206399      0.9015999      0.7324799    
  0.3489600     -0.2094400     -0.7939200      -1.208960      -1.318400    
  -1.077120     -0.5947200     -0.2901000e-01  0.4471999      0.7096000    
  0.7049599      0.4612800      0.8119999e-01 -0.2950800     -0.5339200    
 -0.5534401     -0.3401600      0.5650999e-01  0.5278399      0.9246399    
   1.082400      0.8924799      0.3734400     -0.2970400     -0.8446400    
  -1.032800     -0.8024000     -0.2997200      0.2151600      0.5265599    
  0.5689600      0.4201599      0.2146800      0.4559000e-01 -0.6635001e-01
 -0.1416000     -0.1941200     -0.2145200     -0.1904000     -0.1334800    
 -0.8232000e-01 -0.7769001e-01 -0.1328000     -0.2242000     -0.3082000    
 -0.3470400     -0.3204400     -0.2292000     -0.8296001e-01  0.9728000e-01
  0.2792400      0.4233599      0.4984000      0.4908800      0.4100800    
  0.2800000      0.1272800     -0.2101000e-01 -0.1404800     -0.2082400    
 -0.2074000     -0.1359600     -0.1604000e-01  0.1072400      0.1847600    
  0.1870000      0.1183600      0.7689999e-02 -0.1196400     -0.2589200    
 -0.4166400     -0.5732801     -0.6627201     -0.5889601     -0.2856400    
  0.2150400      0.7630399       1.144480       1.186560      0.8595200    
  0.3018799     -0.2498800     -0.5812800     -0.6028800     -0.3832000    
 -0.9412001e-01  0.9171999e-01  0.9896000e-01 -0.2391000e-01 -0.1597200    
 -0.2153600     -0.1861600     -0.1479600     -0.1908800     -0.3459200    
 -0.5537601     -0.7022400     -0.6918401     -0.4923200     -0.1512000    
  0.2352400      0.5707200      0.7987199      0.9132799      0.9460800    
  0.9263999      0.8539199      0.6990399      0.4275200      0.3843000e-01
 -0.4153600     -0.8232000      -1.058560      -1.027840     -0.7148800    
 -0.1994800      0.3539200      0.7518399      0.8379200      0.5651200    
  0.2687000e-01 -0.5756800      -1.010240      -1.118240     -0.8745600    
 -0.3904000      0.1390000      0.5164800      0.6315199      0.4963199    
  0.2326400     -0.8700000e-03 -0.8840001e-01 -0.8820001e-02  0.1675600    
  0.3320000      0.4049600      0.3739200      0.2843600      0.1921200    
  0.1257200      0.7505000e-01  0.1038000e-01 -0.9036000e-01 -0.2264000    
 -0.3724800     -0.4832000     -0.5083201     -0.4161600     -0.2181600    
  0.2051000e-01  0.2098000      0.2805200      0.2185600      0.6797999e-01
 -0.9772001e-01 -0.2096000     -0.2295600     -0.1557200     -0.1621000e-01
  0.1438000      0.2756400      0.3371199      0.3082800      0.2002000    
  0.5950999e-01 -0.5587000e-01 -0.1069200     -0.9380001e-01 -0.5142000e-01
 -0.2720000e-01 -0.5275000e-01 -0.1243200     -0.2012800     -0.2256800    
 -0.1549600      0.1046000e-01  0.2213600      0.4017600      0.4822400    
  0.4246399      0.2345200     -0.4653000e-01 -0.3515200     -0.6049601    
 -0.7398400     -0.7107201     -0.5080000     -0.1708400      0.2122000    
  0.5321599      0.7011199      0.6839999      0.5091199      0.2465200    
 -0.2641000e-01 -0.2473600     -0.3814400     -0.4155200     -0.3508800    
 -0.1948800      0.3110000e-01  0.2810799      0.4806399      0.5495999    
  0.4420800      0.1802000     -0.1481200     -0.4278400     -0.5675200    
 -0.5363201     -0.3640000     -0.1193200      0.1156000      0.2714000    
  0.3065200      0.2201600      0.5564000e-01 -0.1160400     -0.2262400    
 -0.2399600     -0.1633200     -0.2989000e-01  0.1186400      0.2431200    
  0.3076800      0.2870800      0.1831200      0.3798000e-01 -0.7740000e-01
 -0.1014000     -0.2352000e-01  0.1043200      0.1972000      0.1834000    
  0.3995000e-01 -0.2014800     -0.4718400     -0.6899201     -0.7896000    
 -0.7316800     -0.5171200     -0.1874800      0.1802800      0.4995199    
  0.7059200      0.7779199      0.7376000      0.6287999      0.4899200    
  0.3433599      0.2004800      0.6806999e-01 -0.4547000e-01 -0.1380000    
 -0.2205600     -0.3126400     -0.4228800     -0.5286400     -0.5796801    
 -0.5259200     -0.3526400     -0.9900001e-01  0.1540400      0.3279999    
  0.3864000      0.3441600      0.2494400      0.1448400      0.4747999e-01
 -0.4810000e-01 -0.1461200     -0.2324400     -0.2772000     -0.2542000    
 -0.1619200     -0.3208000e-01  0.8109999e-01  0.1281200      0.9356000e-01
  0.7239999e-02 -0.7035001e-01 -0.8181001e-01 -0.6640000e-02  0.1262000    
  0.2534800      0.3107200      0.2684799      0.1505200      0.2238000e-01
 -0.4561000e-01 -0.1824000e-01  0.8355999e-01  0.1964400      0.2518399    
  0.2140000      0.9483999e-01 -0.5911000e-01 -0.1967200     -0.2856800    
 -0.3206800     -0.3151600     -0.2881600     -0.2555600     -0.2288000    
 -0.2147200     -0.2097600     -0.1951200     -0.1433600     -0.3777000e-01
  0.1078000      0.2461200      0.3150399      0.2725599      0.1283200    
 -0.5173000e-01 -0.1745200     -0.1674800     -0.1855000e-01  0.2161200    
  0.4393600      0.5591999      0.5276799      0.3584000      0.1164800    
 -0.1140000     -0.2579200     -0.2778800     -0.1867200     -0.4246000e-01
  0.7717998e-01  0.1121200      0.4946999e-01 -0.7628001e-01 -0.2070800    
 -0.2954000     -0.3224800     -0.2950000     -0.2317200     -0.1528400    
 -0.7605000e-01 -0.1493000e-01  0.2371000e-01  0.4245000e-01  0.5311999e-01
  0.7123999e-01  0.1068400      0.1570800      0.2032800      0.2171200    
  0.1732000      0.6437999e-01 -0.8820000e-01 -0.2366800     -0.3239200    
 -0.3069600     -0.1783200      0.2757000e-01  0.2470800      0.4151999    
  0.4902400      0.4622400      0.3513600      0.1968000      0.3873000e-01
 -0.9132001e-01 -0.1793200     -0.2298400     -0.2595200     -0.2874400    
 -0.3230800     -0.3574400     -0.3608000     -0.2984000     -0.1534000    
  0.5631000e-01  0.2742800      0.4255999      0.4484800      0.3206800    
  0.7405999e-01 -0.2092400     -0.4241600     -0.4814400     -0.3468800    
 -0.5622000e-01  0.2929199      0.5819199      0.7156799      0.6536000    
  0.4217600      0.1019600     -0.2051600     -0.4147200     -0.4913600    
 -0.4585600     -0.3753600     -0.2955200     -0.2360800     -0.1715600    
 -0.6458001e-01  0.9531999e-01  0.2719200      0.3940800      0.3950400    
  0.2468400     -0.1637000e-01 -0.3079200     -0.5233600     -0.5808001    
 -0.4544000     -0.1789600      0.1625200      0.4731200      0.6758399    
  0.7347199      0.6593599      0.4897600      0.2727600      0.4245000e-01
 -0.1817200     -0.3860800     -0.5476800     -0.6340801     -0.6112001    
 -0.4665600     -0.2254400      0.4663000e-01  0.2711599      0.3894399    
  0.3894399      0.3073199      0.2052400      0.1400000      0.1307600    
  0.1508000      0.1463600      0.7061999e-01 -0.8628000e-01 -0.2849200    
 -0.4542400     -0.5246401     -0.4686400     -0.3129600     -0.1291200    
  0.6739999e-02  0.4923999e-01  0.6049999e-02 -0.6748001e-01 -0.9728001e-01
 -0.2858000e-01  0.1454000      0.3785599      0.5918399      0.7047999    
