  0.2500023      -9.890560       10.17216      -12345.00      0.2500026    
   199.9976       1600.010      -12345.00      -12345.00       2.000000    
  -12345.00      -12345.00      -12345.00      -12345.00      -12345.00    
  -12345.00      -12345.00      -12345.00      -12345.00      -12345.00    
  -12345.00      -12345.00      -12345.00      -12345.00      -12345.00    
  -12345.00      -12345.00      -12345.00      -12345.00      -12345.00    
  -12345.00       44.12041      -104.0362      -12345.00      -12345.00    
   40.30000      -127.0000             0.             0.      -12345.00    
  -12345.00      -12345.00      -12345.00      -12345.00      -12345.00    
  -12345.00      -12345.00      -12345.00      -12345.00      -12345.00    
   1936.376       69.80505       265.2992       17.42133      -12345.00    
  -12345.00     -0.2868651e-02         0.       90.00000      -12345.00    
  -12345.00      -12345.00      -12345.00      -12345.00      -12345.00    
  -12345.00      -12345.00      -12345.00      -12345.00      -12345.00    
      1984       254         3        14         7
         0         6         0         0      5601
    -12345    -12345    -12345    -12345    -12345
         1        50        11    -12345    -12345
    -12345    -12345        40    -12345    -12345
    -12345    -12345    -12345    -12345    -12345
    -12345    -12345    -12345    -12345    -12345
         1         0         1         1         0
RSSD    EUREKA          
-12345  -12345  -12345  
-12345  -12345  -12345  
-12345  -12345  -12345  
-12345  -12345  -12345  
-12345  -12345  -12345  
-12345  -12345  KM.N    
RSTN-SAR10/12/84KS-36000
[...]
  -1.056160     -0.9771200     -0.8993601     -0.8572800     -0.8419200    
 -0.8305601     -0.8243201     -0.8073601     -0.7483200     -0.6416000    
 -0.5006400     -0.3363200     -0.1491600      0.2521000e-01  0.1115600    
  0.8367999e-01  0.7909998e-02 -0.5825000e-01 -0.1219600     -0.1790000    
 -0.2145200     -0.2600001     -0.3489600     -0.4484800     -0.5497601    
 -0.6747200     -0.7843200     -0.8460801     -0.9064001     -0.9976001    
  -1.111200      -1.252640      -1.422080      -1.575680      -1.722880    
  -1.870080      -1.978880      -2.016000      -2.001920      -1.954560    
  -1.831680      -1.602560      -1.308160      -1.032320     -0.7840000    
 -0.5513600     -0.3318400     -0.1194800      0.1212800      0.4195200    
  0.7241600      0.9652799       1.163360       1.356800       1.550080    
   1.736960       1.944320       2.156800       2.337280       2.469120    
   2.558720       2.621440       2.652160       2.625280       2.566400    
   2.510080       2.460160       2.406400       2.342400       2.227200    
   2.024960       1.761280       1.487360       1.248800       1.040320    
  0.8571199      0.7036799      0.5731199      0.4444799      0.3300800    
  0.2295600      0.8651999e-01 -0.1153600     -0.3107600     -0.4747200    
 -0.6472000     -0.8225601     -0.9588801      -1.051680      -1.090880    
  -1.063360     -0.9948801     -0.8976001     -0.7704000     -0.6440001    
 -0.5481601     -0.4883200     -0.4497600     -0.4217600     -0.4483200    
 -0.5910400     -0.8139200      -1.037600      -1.279520      -1.557760    
  -1.762560      -1.850880      -1.886720      -1.896960      -1.861120    
  -1.788160      -1.715200      -1.639680      -1.529600      -1.377280    
  -1.233760      -1.159840      -1.124160      -1.079040      -1.017440    
 -0.9633601     -0.9131200     -0.8308800     -0.6784000     -0.4332800    
 -0.1012000      0.2870800      0.7062399       1.138240       1.548800    
   1.940480       2.325760       2.668800       2.899199       3.005440    
   3.005440       2.897920       2.696959       2.410240       2.019840    
   1.570560       1.106720      0.5734400     -0.1810000e-01 -0.5868801    
  -1.094400      -1.537280      -1.849600      -2.039040      -2.150400    
  -2.170880      -2.086400      -1.948160      -1.775360      -1.579520    
  -1.438720      -1.402880      -1.396480      -1.359360      -1.298080    
  -1.207840      -1.021760     -0.7174400     -0.3316800      0.8487999e-01
  0.4937599      0.8727999       1.206240       1.496320       1.798400    
   2.113280       2.393600       2.615040       2.766080       2.824960    
   2.800640       2.753280       2.703360       2.641920       2.586880    
   2.529280       2.426880       2.292480       2.164480       2.009600    
   1.786880       1.543680       1.322240       1.111200      0.8739200    
  0.6049600      0.3171999      0.3912000e-01 -0.2427200     -0.5566400    
 -0.8584000      -1.099040      -1.280160      -1.432320      -1.552640    
  -1.628160      -1.651200      -1.662720      -1.671680      -1.623040    
  -1.478400      -1.254080     -0.9728000     -0.6230401     -0.2190800    
  0.1989600      0.5723200      0.8543999       1.056160       1.212000    
   1.333760       1.450240       1.570560       1.717760       1.921280    
   2.147840       2.339840       2.481920       2.579200       2.611200    
   2.563840       2.443520       2.250240       1.994240       1.710080    
   1.416960       1.120320      0.8022399      0.4644800      0.9059998e-01
 -0.3199600     -0.7366401      -1.109280      -1.418240      -1.658880    
  -1.862400      -2.051840      -2.234880      -2.405120      -2.576640    
  -2.776320      -2.988800      -3.178240      -3.317760      -3.368960    
  -3.310080      -3.165440      -2.970880      -2.726400      -2.423040    
  -2.064640      -1.657600      -1.198400     -0.7208000     -0.2654400    
  0.1272000      0.4619200      0.7505599      0.9692799       1.084480    
   1.098560       1.055840      0.9959999      0.9070399      0.7654399    
  0.5908799      0.4047999      0.2127200      0.1456000e-01 -0.2015600    
 -0.4228800     -0.6256001     -0.8361601      -1.046880      -1.196480    
  -1.273920      -1.302240      -1.272480      -1.206080      -1.174080    
  -1.199680      -1.253760      -1.356800      -1.525760      -1.754880    
  -2.019840      -2.287360      -2.524160      -2.744320      -2.982400    
  -3.215360      -3.393280      -3.503360      -3.577600      -3.644160    
  -3.700480      -3.722240      -3.688960      -3.619840      -3.548160    
  -3.473920      -3.375360      -3.235840      -3.041280      -2.795520    
  -2.511360      -2.167040      -1.757440      -1.304800     -0.8464000    
 -0.3782400      0.9427999e-01  0.5252799      0.8791999       1.186880    
   1.492480       1.797120       2.063360       2.301440       2.521600    
   2.718719       2.880000       2.996480       3.065600       3.078400    
   3.018239       2.878720       2.659840       2.374400       2.026240    
   1.632000       1.231840      0.8415999      0.4451200      0.3063000e-01
 -0.3611200     -0.6900800     -0.9582400      -1.176640      -1.331200    
  -1.372160      -1.303840      -1.175040     -0.9960001     -0.7724800    
 -0.4921600     -0.1369600      0.2799200      0.7462399       1.272800    
   1.850880       2.475520       3.107840       3.717120       4.277760    
   4.787199       5.249279       5.657599       6.021119       6.352639    
   6.620159       6.795519       6.896640       6.955520       6.956800    
   6.867199       6.684159       6.448639       6.184959       5.876479    
   5.506559       5.105920       4.675839       4.207359       3.712000    
   3.201280       2.676480       2.154240       1.665280       1.211840    
  0.7715199      0.3643200      0.1349000e-01 -0.2820000     -0.5393600    
 -0.7619201     -0.9344001      -1.039520      -1.081600      -1.080800    
  -1.046400     -0.9737600     -0.8628800     -0.7276801     -0.5889601    
 -0.4673600     -0.3804800     -0.3384000     -0.3323200     -0.3476800    
 -0.3915200     -0.4699200     -0.5720000     -0.7089601     -0.9052800    
  -1.145600      -1.408000      -1.683200      -1.984000      -2.305280    
  -2.641920      -2.984960      -3.336960      -3.705600      -4.080641    
  -4.440320      -4.779520      -5.102080      -5.402881      -5.689600    
  -5.967360      -6.237440      -6.488320      -6.703361      -6.900480    
  -7.127040      -7.385600      -7.619841      -7.799040      -7.924480    
  -7.989760      -7.966721      -7.825920      -7.572480      -7.225600    
  -6.777600      -6.232321      -5.623040      -4.979200      -4.322560    
  -3.687680      -3.097600      -2.543360      -2.018560      -1.520640    
  -1.042240     -0.6110400     -0.2274800      0.1315200      0.4846399    
  0.8076799       1.098560       1.392640       1.717760       2.045440    
   2.365440       2.668800       2.955520       3.253760       3.581439    
   3.924479       4.294399       4.723200       5.175039       5.623039    
   6.092799       6.574080       7.015679       7.399679       7.714560    
   7.943679       8.102398       8.203518       8.232960       8.184319    
   8.042238       7.796479       7.441919       6.992640       6.458879    
   5.872640       5.258240       4.646399       4.065279       3.530240    
   2.996480       2.456320       1.958400       1.524480       1.148640    
  0.8124800      0.5449599      0.3633600      0.2624400      0.2052400    
  0.1581600      0.1074400      0.3139000e-01 -0.9256001e-01 -0.2528800    
 -0.4296000     -0.6371200     -0.8937601      -1.184640      -1.500160    
  -1.822720      -2.159360      -2.497280      -2.822400      -3.127040    
  -3.418880      -3.723520      -4.047360      -4.373760      -4.674561    
  -4.933121      -5.160960      -5.354240      -5.505280      -5.605121    
  -5.658880      -5.656321      -5.596160      -5.487360      -5.340160    
  -5.160960      -4.943360      -4.697600      -4.446720      -4.186880    
  -3.889920      -3.560960      -3.223040      -2.901760      -2.613760    
  -2.356480      -2.105600      -1.831680      -1.544960      -1.256000    
 -0.9892800     -0.7393601     -0.4824000     -0.1818800      0.1642000    
  0.5385599      0.9374399       1.351680       1.779200       2.208000    
   2.634240       3.038720       3.407360       3.736320       4.030720    
   4.309759       4.581120       4.839680       5.091840       5.326079    
   5.518080       5.667839       5.790719       5.873919       5.896959    
   5.854719       5.722879       5.491199       5.176319       4.796160    
   4.345599       3.820800       3.233280       2.598400       1.931520    
   1.270720      0.6263999      0.2351000e-01 -0.5371201      -1.067360    
  -1.569280      -2.008320      -2.402560      -2.772480      -3.107840    
  -3.386880      -3.616000      -3.799040      -3.925760      -4.000000    
  -4.016641      -3.959040      -3.820800      -3.603200      -3.298560    
  -2.928640      -2.529280      -2.117120      -1.704960      -1.327360    
 -0.9929600     -0.7057600     -0.4526400     -0.2323600     -0.6105001e-01
  0.3632999e-01  0.7914999e-01  0.1076000      0.1042800      0.1429000e-01
 -0.1764800     -0.4379200     -0.7268801      -1.002720      -1.252160    
  -1.486080      -1.652480      -1.717760      -1.694720      -1.614080    
  -1.455360      -1.201280     -0.8953600     -0.5556800     -0.1940400    
  0.1783200      0.5534400      0.9083200       1.223040       1.504000    
   1.768960       1.992960       2.182400       2.348800       2.481920    
   2.599679       2.714880       2.803200       2.844160       2.823680    
   2.727680       2.575360       2.373120       2.086400       1.721600    
   1.309440      0.8568000      0.3383999     -0.2263600     -0.8049600    
  -1.367040      -1.866240      -2.269440      -2.558720      -2.732800    
  -2.769920      -2.663680      -2.456320      -2.164480      -1.775360    
  -1.287680     -0.7710401     -0.2490800      0.2737200      0.7907199    
   1.281120       1.706240       2.051840       2.315520       2.490880    
   2.553600       2.481920       2.282240       1.959680       1.530880    
   1.020640      0.4404799     -0.1700000     -0.7956800      -1.432320    
  -2.036480      -2.584320      -3.063040      -3.476480      -3.811840    
  -4.043520      -4.148480      -4.106240      -3.948800      -3.729920    
  -3.464960      -3.134720      -2.725120      -2.232320      -1.664000    
  -1.048000     -0.4276800      0.1960800      0.8150399       1.401600    
   1.949440       2.449920       2.876160       3.217920       3.480320    
   3.673600       3.781120       3.818240       3.792640       3.697920    
   3.537920       3.340800       3.119359       2.873600       2.613760    
   2.350080       2.090240       1.832960       1.597440       1.383680    
   1.186080      0.9732800      0.7337599      0.4668800      0.1808400    
 -0.1252800     -0.4392000     -0.7366401      -1.011680      -1.269760    
  -1.516800      -1.728000      -1.907200      -2.046720      -2.122240    
  -2.126080      -2.074880      -1.987840      -1.862400      -1.685760    
  -1.472000      -1.252000      -1.068800     -0.9217601     -0.8121600    
 -0.7384000     -0.6945601     -0.6785600     -0.6952001     -0.7444800    
 -0.8246400     -0.9424000      -1.093440      -1.254720      -1.420800    
  -1.576960      -1.719040      -1.832960      -1.902080      -1.926400    
  -1.923840      -1.913600      -1.900800      -1.891840      -1.876480    
  -1.835520      -1.762560      -1.644800      -1.455360      -1.156640    
 -0.7475201     -0.2328400      0.3705600       1.053760       1.775360    
   2.517760       3.270400       4.017920       4.718080       5.342719    
   5.895679       6.371840       6.741759       6.984960       7.083519    
   7.019520       6.777599       6.352639       5.743360       4.951039    
   3.976960       2.840320       1.559040      0.1747600      -1.271040    
  -2.717440      -4.119040      -5.440001      -6.630401      -7.662080    
  -8.522242      -9.191681      -9.653761      -9.890560      -9.872641    
  -9.584641      -9.030401      -8.221441      -7.173120      -5.913600    
  -4.487680      -2.938880      -1.304000      0.3601599       2.018560    
   3.640320       5.168639       6.553599       7.752959       8.727039    
   9.456638       9.940479       10.17216       10.15168       9.858559    
   9.288960       8.486399       7.485439       6.274559       4.861440    
   3.310080       1.688320      0.4061999e-01  -1.610240      -3.174400    
  -4.595201      -5.836801      -6.876161      -7.683841      -8.241920    
  -8.559361      -8.651522      -8.541441      -8.239361      -7.740160    
  -7.056641      -6.233601      -5.299200      -4.263680      -3.153920    
  -2.023680     -0.9088000      0.1521200       1.140640       2.013440    
   2.752000       3.361279       3.847680       4.204800       4.427520    
   4.526079       4.505599       4.355840       4.075520       3.700480    
   3.263999       2.777600       2.279680       1.817600       1.414400    
   1.068640      0.7807999      0.5676799      0.4183999      0.3311999    
  0.3177199      0.3795199      0.5054399      0.6783999      0.8924799    
   1.143520       1.400320       1.639680       1.832960       1.966080    
   2.019840       1.957120       1.754880       1.420800      0.9806399    
  0.4249600     -0.2239600     -0.9292800      -1.658880      -2.378240    
  -3.073280      -3.714560      -4.272640      -4.723201      -5.059840    
  -5.274880      -5.365761      -5.332480      -5.180161      -4.908800    
  -4.529921      -4.055040      -3.503360      -2.890240      -2.232320    
  -1.534720     -0.8083200     -0.8368000e-01  0.6230400       1.299680    
   1.946880       2.584320       3.197440       3.761919       4.258559    
   4.682240       5.026560       5.278719       5.415679       5.419519    
   5.295360       5.054719       4.697599       4.234240       3.669760    
   3.014400       2.286080       1.519360      0.7428799     -0.6044000e-01
 -0.8849601      -1.707520      -2.499840      -3.256320      -3.960320    
  -4.588800      -5.102080      -5.469440      -5.678081      -5.713921    
  -5.562881      -5.227520      -4.710401      -4.029440      -3.216640    
  -2.298880      -1.292640     -0.2380400      0.8580799       1.968640    
   3.045120       4.037120       4.927999       5.699840       6.321919    
   6.759680       6.982399       6.981119       6.760960       6.339839    
   5.729280       4.934400       3.976960       2.891520       1.703680    
  0.4337600     -0.9038401      -2.257920      -3.568640      -4.823040    
  -5.989120      -7.020801      -7.880960      -8.546560      -8.976641    
  -9.140480      -9.039360      -8.673281      -8.026880      -7.112960    
  -5.971200      -4.641280      -3.148800      -1.533440      0.1548800    
   1.815040       3.402240       4.870399       6.188799       7.304959    
   8.170238       8.755199       9.059839       9.091839       8.858879    
   8.375038       7.659519       6.731520       5.639679       4.436480    
   3.157760       1.822720      0.4689600     -0.8721601      -2.163200    
  -3.349760      -4.398081      -5.277440      -5.969920      -6.462720    
  -6.766080      -6.888960      -6.814720      -6.536961      -6.082561    
  -5.489921      -4.787200      -3.971840      -3.060480      -2.091520    
  -1.102400     -0.1230400      0.8371199       1.740800       2.563840    
   3.270400       3.846400       4.286719       4.587520       4.739840    
   4.741119       4.601600       4.339199       3.976960       3.525120    
   2.988800       2.400000       1.785600       1.148000      0.4715199    
 -0.2105200     -0.8784001      -1.523200      -2.100480      -2.598400    
  -3.011840      -3.313920      -3.484160      -3.535360      -3.470080    
  -3.269120      -2.937600      -2.498560      -1.962240      -1.344000    
 -0.6619201      0.5193000e-01  0.7724799       1.451520       2.072320    
   2.600960       3.010560       3.298560       3.458560       3.493120    
   3.402240       3.198720       2.886400       2.476799       1.984000    
   1.411840      0.7819200      0.1057200     -0.5844800      -1.270080    
  -1.940480      -2.551040      -3.080960      -3.517440      -3.856640    
  -4.092160      -4.218881      -4.225281      -4.102401      -3.842560    
  -3.447040      -2.924800      -2.304000      -1.606400     -0.8438400    
 -0.4860000e-01  0.7518399       1.523200       2.256639       2.935040    
   3.544320       4.055039       4.435200       4.668159       4.757759    
   4.704000       4.505599       4.175360       3.735040       3.211520    
   2.618880       1.966080       1.274400      0.5476799     -0.1904800    
 -0.9252801      -1.652480      -2.343680      -2.970880      -3.505920    
  -3.941120      -4.285440      -4.531200      -4.650240      -4.634880    
  -4.499201      -4.259840      -3.911680      -3.453440      -2.900480    
  -2.277120      -1.610240     -0.9140800     -0.2148000      0.4816000    
   1.157920       1.780480       2.338560       2.822400       3.235840    
   3.567359       3.802880       3.943680       3.991040       3.937280    
   3.776000       3.526400       3.212800       2.821120       2.346240    
   1.808640       1.233120      0.6148800     -0.2777000e-01 -0.6880001    
  -1.360640      -2.007040      -2.598400      -3.115520      -3.557120    
  -3.907840      -4.138241      -4.244480      -4.213760      -4.035840    
  -3.709440      -3.239680      -2.631680      -1.916160      -1.110240    
 -0.2427200      0.6615999       1.552640       2.417920       3.235840    
   3.971839       4.592639       5.086720       5.441279       5.644799    
