  0.2500023      -8.097281       7.692800      -12345.00      0.2500026    
   199.9976       1600.010      -12345.00      -12345.00       2.000000    
  -12345.00      -12345.00      -12345.00      -12345.00      -12345.00    
  -12345.00      -12345.00      -12345.00      -12345.00      -12345.00    
  -12345.00      -12345.00      -12345.00      -12345.00      -12345.00    
  -12345.00      -12345.00      -12345.00      -12345.00      -12345.00    
  -12345.00       44.12041      -104.0362      -12345.00      -12345.00    
   40.30000      -127.0000             0.             0.      -12345.00    
  -12345.00      -12345.00      -12345.00      -12345.00      -12345.00    
  -12345.00      -12345.00      -12345.00      -12345.00      -12345.00    
   1936.376       69.80505       265.2992       17.42133      -12345.00    
  -12345.00     -0.3153000e-02   90.00000       90.00000      -12345.00    
  -12345.00      -12345.00      -12345.00      -12345.00      -12345.00    
  -12345.00      -12345.00      -12345.00      -12345.00      -12345.00    
      1984       254         3        14         7
         0         6         0         0      5601
    -12345    -12345    -12345    -12345    -12345
         1        50        11    -12345    -12345
    -12345    -12345        40    -12345    -12345
    -12345    -12345    -12345    -12345    -12345
    -12345    -12345    -12345    -12345    -12345
         1         0         1         1         0
RSSD    EUREKA          
-12345  -12345  -12345  
-12345  -12345  -12345  
-12345  -12345  -12345  
-12345  -12345  -12345  
-12345  -12345  -12345  
-12345  -12345  KM.E    
RSTN-SAR10/12/84KS-36000
[...]
   3.152640       3.129600       3.052800       2.919680       2.757120    
   2.568960       2.350080       2.117120       1.888000       1.676800    
   1.504000       1.368320       1.276000       1.208640       1.176640    
   1.157760       1.137440       1.120960       1.105920       1.067040    
  0.9828799      0.8481599      0.6588799      0.4177600      0.1443200    
 -0.1537200     -0.4689600     -0.7865601      -1.100320      -1.391360    
  -1.625600      -1.832960      -2.033920      -2.201600      -2.324480    
  -2.426880      -2.519040      -2.602240      -2.682880      -2.757120    
  -2.837760      -2.935040      -3.020800      -3.086080      -3.168000    
  -3.262720      -3.340800      -3.403520      -3.461120      -3.521280    
  -3.581440      -3.623680      -3.633920      -3.618560      -3.598080    
  -3.549440      -3.449600      -3.313920      -3.161600      -2.984960    
  -2.766080      -2.508800      -2.236160      -1.978880      -1.742080    
  -1.510400      -1.274400      -1.077760     -0.9163201     -0.7515200    
 -0.5710400     -0.3992000     -0.2492800     -0.1089200      0.3670000e-01
  0.1765200      0.2944400      0.4004800      0.5099199      0.5964799    
  0.6361599      0.6483200      0.6595199      0.6633599      0.6495999    
  0.6443199      0.6819199      0.7681599      0.8911999       1.043040    
   1.224640       1.427200       1.658880       1.895680       2.151680    
   2.440960       2.741760       3.018239       3.247360       3.434240    
   3.572480       3.632640       3.601920       3.490560       3.317760    
   3.097600       2.837759       2.547200       2.240000       1.939200    
   1.664000       1.420800       1.229280       1.087040       1.025920    
   1.042400       1.117440       1.248800       1.429760       1.674240    
   1.962240       2.272000       2.574080       2.841599       3.069440    
   3.240960       3.317760       3.275520       3.132160       2.920959    
   2.636800       2.279680       1.867520       1.416960      0.9435200    
  0.4278399     -0.1190800     -0.6905600      -1.262080      -1.816320    
  -2.312960      -2.750720      -3.128320      -3.434240      -3.663360    
  -3.843840      -4.006400      -4.142080      -4.225281      -4.267520    
  -4.309760      -4.352000      -4.363521      -4.343040      -4.303360    
  -4.244480      -4.163840      -4.080641      -4.001281      -3.910400    
  -3.792640      -3.660800      -3.535360      -3.408640      -3.266560    
  -3.105280      -2.936320      -2.760960      -2.579200      -2.375680    
  -2.144000      -1.876480      -1.561600      -1.174880     -0.7448001    
 -0.2845200      0.2160000      0.7636799       1.315840       1.856000    
   2.375679       2.877439       3.339520       3.714560       3.979520    
   4.161280       4.284160       4.314879       4.230399       4.053760    
   3.804160       3.480320       3.091200       2.650880       2.190080    
   1.730560       1.294560      0.8876799      0.5430399      0.2523600    
  0.1164000e-01 -0.1664000     -0.2766000     -0.3231600     -0.3074400    
 -0.2312000     -0.1158800      0.1206000e-01  0.1489200      0.3048000    
  0.4809600      0.6751999      0.8875200       1.115200       1.323520    
   1.519360       1.679360       1.784320       1.815040       1.779200    
   1.701120       1.583360       1.419520       1.245280       1.064960    
  0.8996799      0.7406399      0.5807999      0.4223999      0.2697999    
  0.1261600      0.9369999e-02 -0.8020000e-01 -0.1564800     -0.2147200    
 -0.2569600     -0.3036800     -0.3550400     -0.4000000     -0.4548800    
 -0.5422400     -0.6649600     -0.8046401     -0.9331200      -1.047840    
  -1.174240      -1.329920      -1.493760      -1.681920      -1.898240    
  -2.128640      -2.373120      -2.630400      -2.887680      -3.123200    
  -3.330560      -3.498240      -3.614720      -3.681280      -3.697920    
  -3.662080      -3.586560      -3.491840      -3.376640      -3.229440    
  -3.051520      -2.844160      -2.607360      -2.343680      -2.053120    
  -1.719040      -1.336320     -0.9150400     -0.4868800     -0.4221001e-01
  0.4211200      0.9017599       1.378560       1.871360       2.370560    
   2.873600       3.380480       3.897600       4.414720       4.915199    
   5.375999       5.793280       6.159359       6.462719       6.685439    
   6.804480       6.804480       6.690559       6.475519       6.156799    
   5.721600       5.169919       4.509439       3.750400       2.892800    
   1.950720      0.9667199     -0.4625000e-01  -1.062720      -2.071040    
  -3.048960      -3.988480      -4.874240      -5.671680      -6.359040    
  -6.913280      -7.321600      -7.572480      -7.673600      -7.628800    
  -7.427840      -7.080960      -6.604800      -6.009601      -5.303041    
  -4.492801      -3.582720      -2.603520      -1.594880     -0.5739200    
  0.4324800       1.399040       2.310400       3.136000       3.866879    
   4.477440       4.958719       5.311999       5.533440       5.621759    
   5.607679       5.523199       5.364479       5.122560       4.785919    
   4.368639       3.886080       3.351040       2.776320       2.145280    
   1.450240      0.7409599      0.3410999e-01 -0.6489600      -1.300000    
  -1.923840      -2.488320      -2.978560      -3.392000      -3.732480    
  -4.002561      -4.199680      -4.322560      -4.373760      -4.348161    
  -4.232961      -4.048640      -3.816960      -3.537920      -3.197440    
  -2.789120      -2.323200      -1.816320      -1.284640     -0.7516800    
 -0.2106400      0.3310400      0.8643199       1.368320       1.856000    
   2.293760       2.672640       2.990080       3.237120       3.398400    
   3.473920       3.475200       3.404799       3.261440       3.055360    
   2.805760       2.524160       2.211840       1.889280       1.576960    
   1.295360       1.009920      0.7110399      0.3940800      0.7952999e-01
 -0.2231200     -0.5228801     -0.8198401      -1.108000      -1.402880    
  -1.706240      -2.008320      -2.300160      -2.592000      -2.887680    
  -3.165440      -3.400960      -3.586560      -3.718400      -3.781120    
  -3.760640      -3.651840      -3.454720      -3.174400      -2.814720    
  -2.385920      -1.896960      -1.337600     -0.7060801     -0.3177001e-01
  0.6758399       1.399040       2.123520       2.801919       3.418880    
   3.960320       4.407040       4.741119       4.939519       4.999680    
   4.940800       4.778239       4.510719       4.144639       3.691520    
   3.168000       2.575360       1.917440       1.213440      0.4628800    
 -0.2955600      -1.041440      -1.760000      -2.408960      -2.963200    
  -3.411200      -3.744000      -3.947520      -4.026880      -3.989760    
  -3.846400      -3.618560      -3.333120      -3.001600      -2.622720    
  -2.197760      -1.716480      -1.180800     -0.6196800     -0.3138001e-01
  0.5755199       1.171040       1.708800       2.215680       2.690560    
   3.107840       3.436800       3.664639       3.800320       3.859200    
   3.843840       3.740160       3.534080       3.234560       2.856960    
   2.411520       1.893120       1.313280      0.7035199      0.6055000e-01
 -0.6036800      -1.289600      -1.995520      -2.675200      -3.319040    
  -3.910400      -4.428801      -4.857600      -5.190400      -5.415680    
  -5.523200      -5.504001      -5.355520      -5.058560      -4.601601    
  -4.007680      -3.302400      -2.497280      -1.601280     -0.6273600    
  0.3929600       1.419520       2.429440       3.372800       4.236799    
   5.006080       5.649920       6.133759       6.443520       6.594560    
   6.598399       6.437119       6.108159       5.644799       5.062400    
   4.345599       3.499520       2.540800       1.491200      0.4030399    
 -0.7260801      -1.881600      -3.005440      -4.061440      -5.024000    
  -5.857281      -6.529281      -7.010560      -7.289600      -7.365120    
  -7.247360      -6.952960      -6.493441      -5.882880      -5.139200    
  -4.268801      -3.293440      -2.247680      -1.144640     -0.6230000e-02
   1.144800       2.259200       3.328000       4.327680       5.244160    
   6.053120       6.714879       7.211519       7.540480       7.692800    
   7.635200       7.368959       6.914559       6.279679       5.470719    
   4.526079       3.473920       2.332160       1.148480     -0.5107000e-01
  -1.241920      -2.407680      -3.495680      -4.478721      -5.347840    
  -6.087680      -6.664960      -7.069440      -7.298560      -7.343360    
  -7.197440      -6.865920      -6.350080      -5.661440      -4.817921    
  -3.843840      -2.769920      -1.624320     -0.4163200      0.7990400    
   1.969920       3.086080       4.106239       5.003519       5.756160    
   6.352639       6.760960       6.978559       7.016959       6.874879    
   6.544640       6.026239       5.331200       4.472320       3.464960    
   2.341120       1.153760     -0.7618001e-01  -1.308000      -2.504960    
  -3.603200      -4.565761      -5.365761      -5.986560      -6.396160    
  -6.574080      -6.533120      -6.279680      -5.824000      -5.191680    
  -4.414721      -3.531520      -2.568960      -1.562880     -0.5521600    
  0.4036800       1.276320       2.031360       2.682880       3.223040    
   3.637760       3.923200       4.079359       4.117760       4.040959    
   3.861760       3.589119       3.228160       2.782720       2.270720    
   1.715200       1.155680      0.5788800      0.8380000e-02 -0.5323200    
  -1.018560      -1.456640      -1.829120      -2.133760      -2.361600    
  -2.513920      -2.600960      -2.632960      -2.616320      -2.545920    
  -2.424320      -2.255360      -2.037760      -1.771520      -1.470720    
  -1.142400     -0.8054401     -0.4572800     -0.1070400      0.2386000    
  0.5772799      0.9103999       1.237120       1.533440       1.804800    
   2.032640       2.216959       2.350080       2.434560       2.481920    
   2.480640       2.402560       2.251520       2.031360       1.748480    
   1.410560       1.037920      0.6067200      0.1403600     -0.3419200    
 -0.8208001      -1.284160      -1.722880      -2.113280      -2.447360    
  -2.709760      -2.903040      -3.009280      -3.019520      -2.932480    
  -2.764800      -2.516480      -2.188800      -1.790720      -1.336320    
 -0.8337600     -0.3026400      0.2510400      0.8017600       1.322240    
   1.825280       2.275840       2.652160       2.949120       3.159039    
   3.284480       3.326720       3.285759       3.152640       2.926080    
   2.622720       2.261760       1.843200       1.365760      0.8414400    
  0.2700800     -0.3182000     -0.9123200      -1.505280      -2.049280    
  -2.517760      -2.896640      -3.180800      -3.368960      -3.457280    
  -3.447040      -3.339520      -3.139840      -2.850560      -2.475520    
  -2.028800      -1.528320     -0.9825600     -0.4230400      0.1352800    
  0.6731199       1.181920       1.640960       2.065920       2.438400    
   2.752000       3.016960       3.216640       3.328000       3.352320    
   3.298560       3.169280       2.955520       2.659840       2.296319    
   1.880320       1.418240      0.9291199      0.3992000     -0.1597200    
 -0.7467201      -1.350400      -1.937920      -2.493440      -2.993920    
  -3.429120      -3.788800      -4.062720      -4.230400      -4.266240    
  -4.165120      -3.932160      -3.573760      -3.086080      -2.479360    
  -1.771520     -0.9812801     -0.1521600      0.7007999       1.547520    
   2.365440       3.102720       3.741440       4.257279       4.625919    
   4.837119       4.889600       4.787199       4.540159       4.157439    
   3.646719       3.002880       2.241280       1.381120      0.4649600    
 -0.5017600      -1.484800      -2.440960      -3.348480      -4.172800    
  -4.879360      -5.436160      -5.834240      -6.049280      -6.064640    
  -5.877760      -5.497601      -4.947201      -4.236800      -3.389440    
  -2.435840      -1.404160     -0.3054800      0.8263999       1.953280    
   3.048960       4.070399       4.997119       5.798399       6.457600    
   6.947840       7.252480       7.348479       7.211519       6.837759    
   6.240000       5.437439       4.450560       3.299839       2.021120    
  0.6744000     -0.7145600      -2.099200      -3.420160      -4.641280    
  -5.730560      -6.661120      -7.381761      -7.864320      -8.097281    
  -8.070400      -7.786241      -7.258881      -6.511360      -5.559040    
  -4.426240      -3.156480      -1.800960     -0.3940800       1.004000    
   2.337280       3.589119       4.710400       5.660159       6.401279    
   6.912000       7.192319       7.234559       7.046399       6.634239    
   6.021119       5.237760       4.307199       3.270400       2.160640    
   1.033920     -0.7817000e-01  -1.123040      -2.078720      -2.918400    
  -3.636480      -4.213760      -4.633600      -4.889601      -4.985600    
  -4.925441      -4.718081      -4.378881      -3.941120      -3.431680    
  -2.871040      -2.284800      -1.697280      -1.126880     -0.6006401    
 -0.1130400      0.3258399      0.7094399       1.044960       1.336320    
   1.625600       1.900800       2.152960       2.376960       2.579200    
   2.755840       2.904320       3.020800       3.105279       3.148800    
   3.134720       3.059200       2.922240       2.714880       2.428160    
   2.051840       1.597440       1.080000      0.4843200     -0.1678400    
 -0.8561600      -1.556480      -2.234880      -2.883840      -3.475200    
  -3.965440      -4.327681      -4.558081      -4.654080      -4.608001    
  -4.414721      -4.071680      -3.592960      -2.988800      -2.283520    
  -1.506560     -0.6820800      0.1556000      0.9819199       1.751040    
   2.455040       3.056640       3.536640       3.877120       4.066560    
   4.106239       4.007679       3.787519       3.462399       3.046400    
   2.559999       2.013440       1.423360      0.8198400      0.2006400    
 -0.3984000     -0.9496000      -1.446400      -1.862400      -2.191360    
  -2.419200      -2.531840      -2.539520      -2.457600      -2.293760    
  -2.053120      -1.757440      -1.428480      -1.069120     -0.6972800    
 -0.3166400      0.5418999e-01  0.4006400      0.7131199      0.9777600    
   1.189120       1.336320       1.440000       1.479680       1.464320    
   1.396480       1.289920       1.125920      0.9249599      0.6903999    
  0.4278399      0.1479200     -0.1450800     -0.4472000     -0.7488000    
  -1.039680      -1.308320      -1.551360      -1.744640      -1.886720    
  -1.964800      -1.967360      -1.900800      -1.762560      -1.555200    
  -1.278080     -0.9579201     -0.6000000     -0.2183600      0.1715200    
  0.5616000      0.9449599       1.307040       1.620480       1.893120    
   2.109440       2.272000       2.385920       2.444800       2.443520    
   2.376960       2.236160       2.016000       1.725440       1.373440    
  0.9806399      0.5272000      0.3347000e-01 -0.4808000     -0.9811200    
  -1.459200      -1.894400      -2.282240      -2.592000      -2.794240    
  -2.880000      -2.848000      -2.698240      -2.433280      -2.059520    
  -1.606400      -1.088800     -0.5340800      0.4708000e-01  0.6124799    
   1.129280       1.565440       1.936640       2.213120       2.376960    
   2.420480       2.351360       2.184960       1.937920       1.625600    
   1.276160      0.8940799      0.5075200      0.1249600     -0.2444800    
 -0.5852801     -0.8833600      -1.129600      -1.323520      -1.451520    
  -1.521920      -1.537280      -1.496320      -1.405440      -1.266720    
  -1.108000     -0.9256001     -0.7264000     -0.5291201     -0.3403201    
 -0.1512000      0.3381000e-01  0.1996000      0.3316799      0.4260800    
  0.4865600      0.5180799      0.5195199      0.4918399      0.4424000    
  0.3780800      0.3044000      0.2244000      0.1470800      0.7947999e-01
  0.1929000e-01 -0.3859000e-01 -0.9072000e-01 -0.1314400     -0.1640800    
 -0.1978800     -0.2356400     -0.2637200     -0.2686800     -0.2541201    
 -0.2235200     -0.1696000     -0.8888000e-01  0.1500000e-01  0.1392400    
  0.2823600      0.4369600      0.5991999      0.7596799      0.9044799    
   1.022400       1.108800       1.162080       1.182560       1.166240    
   1.108000       1.010560      0.8796799      0.7126399      0.5118400    
  0.2927999      0.6579000e-01 -0.1659200     -0.3955200     -0.6054400    
 -0.7835200     -0.9268800      -1.035040      -1.103680      -1.129920    
  -1.116480      -1.069600     -0.9966401     -0.9081601     -0.8142401    
 -0.7216001     -0.6376001     -0.5688001     -0.5136000     -0.4630400    
 -0.4126400     -0.3664000     -0.3244000     -0.2866800     -0.2497200    
 -0.2069600     -0.1540000     -0.9796001e-01 -0.4811000e-01 -0.5240001e-02
  0.3534000e-01  0.7361999e-01  0.1052400      0.1310000      0.1570400    
  0.1832400      0.2004000      0.2043200      0.2022800      0.2062000    
  0.2196800      0.2372400      0.2580400      0.2888399      0.3294399    
  0.3732800      0.4156799      0.4659200      0.5299200      0.6067200    
  0.6990399      0.8105599      0.9369599       1.071200       1.200480    
   1.308800       1.376000       1.422080       1.419520       1.358080    
   1.246240       1.062880      0.8177599      0.5083200      0.1444800    
 -0.2588800     -0.6803200      -1.096640      -1.495040      -1.847040    
  -2.149120      -2.396160      -2.584320      -2.702080      -2.741760    
  -2.695680      -2.566400      -2.351360      -2.055680      -1.689600    
  -1.254400     -0.7782401     -0.2714400      0.2466800      0.7593600    
   1.247040       1.671680       2.032640       2.300160       2.462720    
