  0.2500023      -10.24000       9.297918      -12345.00      0.2500026    
   199.9976       1600.010      -12345.00      -12345.00       2.000000    
  -12345.00      -12345.00      -12345.00      -12345.00      -12345.00    
  -12345.00      -12345.00      -12345.00      -12345.00      -12345.00    
  -12345.00      -12345.00      -12345.00      -12345.00      -12345.00    
  -12345.00      -12345.00      -12345.00      -12345.00      -12345.00    
  -12345.00       44.12041      -104.0362      -12345.00      -12345.00    
   40.30000      -127.0000             0.             0.      -12345.00    
  -12345.00      -12345.00      -12345.00      -12345.00      -12345.00    
  -12345.00      -12345.00      -12345.00      -12345.00      -12345.00    
   1936.376       69.80505       265.2992       17.42133      -12345.00    
  -12345.00     -0.1712753e-02         0.             0.      -12345.00    
  -12345.00      -12345.00      -12345.00      -12345.00      -12345.00    
  -12345.00      -12345.00      -12345.00      -12345.00      -12345.00    
      1984       254         3        14         7
         0         6         0         0      5601
    -12345    -12345    -12345    -12345    -12345
         1        50        11    -12345    -12345
    -12345    -12345        40    -12345    -12345
    -12345    -12345    -12345    -12345    -12345
    -12345    -12345    -12345    -12345    -12345
         1         0         1         1         0
RSSD    EUREKA          
-12345  -12345  -12345  
-12345  -12345  -12345  
-12345  -12345  -12345  
-12345  -12345  -12345  
-12345  -12345  -12345  
-12345  -12345  KM.Z    
RSTN-SAR10/12/84KS-36000
[...]
  -2.745600      -2.698240      -2.577920      -2.392320      -2.163200    
  -1.926400      -1.693440      -1.468160      -1.250880      -1.045760    
 -0.8144001     -0.5299201     -0.1926000      0.1809200      0.5641599    
  0.9289600       1.262880       1.544960       1.753600       1.872640    
   1.914880       1.904640       1.854720       1.760000       1.608960    
   1.406720       1.198560      0.9798399      0.7440000      0.5108799    
  0.3162799      0.1621200      0.3558999e-01 -0.6564000e-01 -0.1419200    
 -0.2002000     -0.2490000     -0.2879200     -0.3033201     -0.2902400    
 -0.2543600     -0.1915600     -0.1086800     -0.3287000e-01  0.2315000e-01
  0.7014999e-01  0.1243200      0.1911600      0.2605600      0.3270800    
  0.3854399      0.4169599      0.4096000      0.3712000      0.3057200    
  0.2058400      0.7394999e-01 -0.6910001e-01 -0.1945600     -0.2938000    
 -0.3761600     -0.4416000     -0.4816000     -0.4984000     -0.5080000    
 -0.5145601     -0.5123200     -0.5065601     -0.5046401     -0.4902400    
 -0.4376000     -0.3488000     -0.2442800     -0.1284000      0.9189999e-02
  0.1519200      0.2598400      0.3115200      0.3046800      0.2426800    
  0.1338400     -0.1476000e-01 -0.1808400     -0.3274400     -0.4328000    
 -0.4872000     -0.4990400     -0.4886400     -0.4704000     -0.4563200    
 -0.4484800     -0.4489600     -0.4689600     -0.4990400     -0.5136000    
 -0.5107200     -0.5048001     -0.4952000     -0.4608000     -0.3875200    
 -0.2896800     -0.1874800     -0.8184001e-01  0.2436000e-01  0.1196000    
  0.2030800      0.2833599      0.3569599      0.4177600      0.4737599    
  0.5315199      0.5899199      0.6462399      0.6769599      0.6633599    
  0.6233599      0.5705600      0.4961600      0.4060799      0.3105600    
  0.1975600      0.5926999e-01 -0.9920001e-01 -0.2626800     -0.4070400    
 -0.5156801     -0.5880001     -0.6289600     -0.6504000     -0.6649600    
 -0.6788801     -0.6963201     -0.7094400     -0.7003200     -0.6705600    
 -0.6323200     -0.5752001     -0.4819200     -0.3539200     -0.2006400    
 -0.2294000e-01  0.1880800      0.4308800      0.6860800      0.9361600    
   1.170880       1.368320       1.530880       1.651200       1.726720    
   1.767680       1.790720       1.783040       1.725440       1.624320    
   1.482240       1.291680       1.045280      0.7667199      0.4615999    
  0.1364000     -0.1948000     -0.5216000     -0.8198401      -1.054720    
  -1.225440      -1.363200      -1.452800      -1.483520      -1.459200    
  -1.391360      -1.272800      -1.109120     -0.9116800     -0.7227200    
 -0.5686400     -0.4358400     -0.3154400     -0.2276000     -0.1782000    
 -0.1597600     -0.1646000     -0.1740400     -0.1655200     -0.1285200    
 -0.6835000e-01  0.1109000e-01  0.1120800      0.2171200      0.2980400    
  0.3472000      0.3702400      0.3623999      0.3208799      0.2608799    
  0.2131600      0.1946800      0.2064800      0.2522399      0.3176799    
  0.3689600      0.4043199      0.4379200      0.4604800      0.4524800    
  0.4028800      0.3072399      0.1735600      0.7350000e-02 -0.1954800    
 -0.4222400     -0.6424000     -0.8212800     -0.9393600     -0.9988800    
 -0.9966401     -0.9198400     -0.7664001     -0.5614400     -0.3462400    
 -0.1352000      0.7608999e-01  0.2761599      0.4488000      0.5945599    
  0.7083199      0.7800000      0.8113599      0.8111999      0.7859199    
  0.7425599      0.6876799      0.6089599      0.4907200      0.3339199    
  0.1391200     -0.8344001e-01 -0.3009600     -0.4912000     -0.6404800    
 -0.7372800     -0.7790401     -0.7753600     -0.7446400     -0.7147200    
 -0.7051201     -0.7118400     -0.7406400     -0.8099201     -0.9027201    
 -0.9894401      -1.071360      -1.152320      -1.218720      -1.264320    
  -1.289280      -1.296320      -1.298080      -1.288960      -1.243040    
  -1.144960     -0.9896001     -0.7859200     -0.5542400     -0.3039200    
 -0.4170001e-01  0.2243600      0.4934400      0.7584000      0.9974399    
   1.204000       1.381120       1.542400       1.676800       1.768960    
   1.816320       1.825280       1.786880       1.689600       1.514240    
   1.271840      0.9820799      0.6895999      0.4291199      0.2209200    
  0.6029999e-01 -0.7044001e-01 -0.1886000     -0.2982400     -0.3936000    
 -0.4712000     -0.5300801     -0.5582401     -0.5368000     -0.4448000    
 -0.2775200     -0.5948000e-01  0.1837600      0.4337600      0.6772799    
  0.9111999       1.135360       1.335040       1.521920       1.713920    
   1.914880       2.100480       2.257920       2.388480       2.476799    
   2.506240       2.465280       2.341120       2.147840       1.918720    
   1.679360       1.440000       1.208160      0.9822400      0.7769599    
  0.5902399      0.4075199      0.2351200      0.9152000e-01 -0.2647000e-01
 -0.1355600     -0.2307600     -0.2949600     -0.3222800     -0.3146800    
 -0.2738400     -0.2031200     -0.1158400     -0.3110000e-01  0.3858999e-01
  0.8408000e-01  0.9323999e-01  0.5706000e-01 -0.2141000e-01 -0.1323600    
 -0.2696000     -0.4284800     -0.5980800     -0.7657601     -0.9147201    
  -1.025280      -1.085440      -1.096800      -1.064320      -1.001120    
 -0.9211200     -0.8260801     -0.7252800     -0.6312001     -0.5521600    
 -0.4956800     -0.4691200     -0.4763200     -0.5256001     -0.6316800    
 -0.8008001      -1.021440      -1.288320      -1.603840      -1.932800    
  -2.257920      -2.563840      -2.837760      -3.064320      -3.234560    
  -3.333120      -3.366400      -3.344640      -3.261440      -3.110400    
  -2.900480      -2.641920      -2.362880      -2.095360      -1.852160    
  -1.643520      -1.489920      -1.396480      -1.337600      -1.289600    
  -1.273120      -1.283520      -1.305600      -1.340160      -1.376000    
  -1.422080      -1.486080      -1.539840      -1.542400      -1.489920    
  -1.404160      -1.274560      -1.105920     -0.9121600     -0.7150401    
 -0.5208000     -0.3345600     -0.1614400     -0.3170000e-02  0.1375200    
  0.2610000      0.3747200      0.4931200      0.6307199      0.7967999    
  0.9910399       1.205760       1.425920       1.646080       1.849600    
   2.008320       2.113280       2.177279       2.206720       2.195199    
   2.146560       2.065920       1.960960       1.859840       1.785600    
   1.744640       1.743360       1.799680       1.923840       2.110720    
   2.346240       2.618880       2.918400       3.224319       3.502079    
   3.719680       3.868160       3.948800       3.971839       3.959040    
   3.925760       3.880960       3.833600       3.779840       3.708159    
   3.608320       3.475200       3.313920       3.134720       2.958080    
   2.789120       2.611200       2.410240       2.178560       1.903360    
   1.574400       1.198560      0.7811199      0.3398399     -0.1110000    
 -0.5627201     -0.9966401      -1.388800      -1.706240      -1.957120    
  -2.136320      -2.240000      -2.279680      -2.274560      -2.225920    
  -2.137600      -2.013440      -1.884160      -1.767680      -1.666560    
  -1.583360      -1.525760      -1.504000      -1.525760      -1.606400    
  -1.757440      -1.964800      -2.208000      -2.475520      -2.755840    
  -3.032320      -3.292160      -3.527680      -3.729920      -3.889920    
  -3.989760      -4.030721      -4.019200      -3.970560      -3.889920    
  -3.774720      -3.631360      -3.470080      -3.298560      -3.130880    
  -2.967040      -2.787840      -2.593280      -2.388480      -2.169600    
  -1.935360      -1.692160      -1.446400      -1.196960     -0.9451200    
 -0.6718401     -0.3804800     -0.9564000e-01  0.1517200      0.3396800    
  0.4662399      0.5351999      0.5406399      0.4851199      0.3936000    
  0.2856799      0.1598000      0.2584000e-01 -0.9616001e-01 -0.1918800    
 -0.2536801     -0.2785600     -0.2644800     -0.1971600     -0.5476000e-01
  0.1742000      0.4963199      0.9249599       1.455360       2.078720    
   2.766080       3.486720       4.212480       4.922879       5.591040    
   6.182400       6.673920       7.054079       7.316480       7.448319    
   7.440639       7.294720       7.022079       6.630400       6.131200    
   5.550079       4.929279       4.285439       3.628799       2.965760    
   2.310400       1.675520       1.064160      0.4664000     -0.1031200    
 -0.6342400      -1.120480      -1.564160      -1.955840      -2.316800    
  -2.654720      -2.958080      -3.223040      -3.448320      -3.616000    
  -3.712000      -3.741440      -3.709440      -3.607040      -3.439360    
  -3.226880      -2.999040      -2.771200      -2.552320      -2.352640    
  -2.181120      -2.042880      -1.939200      -1.872640      -1.839360    
  -1.834240      -1.848320      -1.873920      -1.905920      -1.953280    
  -2.003200      -2.033920      -2.026240      -1.967360      -1.847040    
  -1.671680      -1.454080      -1.200320     -0.9465600     -0.7088001    
 -0.5036800     -0.3481600     -0.2552400     -0.2230800     -0.2346800    
 -0.2736400     -0.3248400     -0.3755200     -0.4220800     -0.4715200    
 -0.5260800     -0.5758400     -0.6072000     -0.6217600     -0.6342400    
 -0.6510401     -0.6715200     -0.6953601     -0.7129600     -0.7008001    
 -0.6380800     -0.5148801     -0.3297600     -0.8808000e-01  0.1941600    
  0.4985600      0.8100799       1.114560       1.399040       1.658880    
   1.876480       2.046720       2.169600       2.247680       2.277120    
   2.256639       2.188800       2.077440       1.935360       1.774080    
   1.605120       1.447680       1.318400       1.223840       1.160960    
   1.145120       1.182560       1.279680       1.437440       1.665280    
   1.946880       2.265600       2.599679       2.931200       3.242239    
   3.509760       3.713280       3.843840       3.889920       3.840000    
   3.685120       3.429120       3.070720       2.615040       2.067200    
   1.448960      0.7872000      0.8683999e-01 -0.6374401      -1.372160    
  -2.092800      -2.805760      -3.509760      -4.190721      -4.830720    
  -5.413120      -5.921280      -6.338560      -6.647040      -6.835200    
  -6.912001      -6.890241      -6.781441      -6.594561      -6.339840    
  -6.019840      -5.647361      -5.236481      -4.787200      -4.305921    
  -3.800320      -3.283200      -2.767360      -2.246400      -1.702400    
  -1.125600     -0.5326401      0.9028000e-01  0.7499199       1.447680    
   2.187520       2.941440       3.690240       4.437759       5.190399    
   5.945600       6.680320       7.366400       7.976959       8.503038    
   8.916479       9.189119       9.297918       9.230080       8.975359    
   8.522240       7.873280       7.034880       6.014719       4.826880    
   3.489280       2.036479      0.5236800      -1.004320      -2.502400    
  -3.920640      -5.235200      -6.415360      -7.422720      -8.236801    
  -8.848640      -9.256960      -9.450241      -9.427200      -9.190401    
  -8.741121      -8.090881      -7.270400      -6.312961      -5.259521    
  -4.148480      -3.013120      -1.880320     -0.7736000      0.2665200    
   1.222240       2.072320       2.805760       3.417600       3.921920    
   4.336639       4.678399       4.963840       5.190399       5.361919    
   5.487359       5.565439       5.584640       5.533440       5.425920    
   5.258240       5.015039       4.682240       4.257279       3.735040    
   3.114240       2.403840       1.617920      0.7819200     -0.1013600    
  -1.015680      -1.941760      -2.836480      -3.688960      -4.478721    
  -5.192961      -5.820160      -6.344960      -6.749440      -7.022080    
  -7.150081      -7.130880      -6.960640      -6.640640      -6.186240    
  -5.624320      -4.974080      -4.252160      -3.470080      -2.645760    
  -1.797120     -0.9296000     -0.5801000e-01  0.8214399       1.696000    
   2.556159       3.389440       4.195840       4.962560       5.676800    
   6.325759       6.895359       7.379199       7.768319       8.047359    
   8.203518       8.227839       8.124159       7.884799       7.496960    
   6.955520       6.270720       5.454080       4.497919       3.406080    
   2.199040      0.9004799     -0.4848000      -1.934080      -3.390720    
  -4.807680      -6.140161      -7.345921      -8.385281      -9.219841    
  -9.822721      -10.16576      -10.24000      -10.04928      -9.602560    
  -8.915201      -8.003841      -6.895360      -5.629440      -4.250880    
  -2.808320      -1.354240      0.6925999e-01   1.410560       2.661119    
   3.784960       4.747519       5.527040       6.117120       6.510079    
   6.700799       6.691839       6.499840       6.137599       5.624319    
   4.972799       4.202239       3.339520       2.416640       1.452800    
  0.4788799     -0.4905600      -1.429760      -2.298880      -3.077120    
  -3.741440      -4.270081      -4.648960      -4.872960      -4.935680    
  -4.839681      -4.593921      -4.203521      -3.672320      -3.004160    
  -2.220800      -1.344000     -0.4030400      0.5614399       1.529600    
   2.492160       3.407360       4.239360       4.957439       5.529599    
   5.943039       6.179839       6.237439       6.114559       5.818879    
   5.360640       4.765439       4.067840       3.293440       2.465280    
   1.598720      0.7267200     -0.1334400     -0.9563200      -1.742080    
  -2.484480      -3.185920      -3.840000      -4.426240      -4.931840    
  -5.347840      -5.667840      -5.880321      -5.978880      -5.969920    
  -5.857281      -5.635840      -5.299200      -4.844800      -4.290561    
  -3.662080      -2.968320      -2.219520      -1.422080     -0.5921600    
  0.2396000       1.062880       1.862400       2.626560       3.336960    
   3.980800       4.545280       5.021440       5.405439       5.693439    
   5.881599       5.957119       5.912319       5.745919       5.471999    
   5.090559       4.605439       4.023040       3.342080       2.574080    
   1.734400      0.8521600     -0.6080000e-01 -0.9785601      -1.890560    
  -2.771200      -3.607040      -4.377601      -5.057281      -5.620481    
  -6.055680      -6.348801      -6.489600      -6.478081      -6.314240    
  -6.000640      -5.546241      -4.957440      -4.248321      -3.438080    
  -2.561280      -1.638400     -0.6728001      0.3145199       1.306880    
   2.292480       3.235840       4.108799       4.892159       5.557759    
   6.081280       6.442240       6.632959       6.649599       6.489599    
   6.159359       5.674239       5.044479       4.275200       3.377920    
   2.374400       1.301440      0.1878000     -0.9337600      -2.028800    
  -3.040000      -3.941120      -4.709121      -5.323521      -5.770241    
  -6.041600      -6.144000      -6.074881      -5.840640      -5.437440    
  -4.881921      -4.204801      -3.440640      -2.612480      -1.734400    
 -0.8344001      0.5260000e-01  0.9111999       1.724160       2.479360    
   3.143680       3.697920       4.130559       4.421120       4.560639    
   4.549119       4.389119       4.093439       3.676160       3.155200    
   2.553600       1.891840       1.208000      0.5182400     -0.1470000    
 -0.7644800      -1.320960      -1.780480      -2.124800      -2.339840    
  -2.430720      -2.397440      -2.250240      -2.003200      -1.671680    
  -1.267040     -0.8299201     -0.3862400      0.3573000e-01  0.4139200    
  0.7331200      0.9768000       1.139520       1.222400       1.229760    
   1.167840       1.044640      0.8734399      0.6703999      0.4464000    
  0.2095200     -0.3301001e-01 -0.2745600     -0.5072000     -0.7233601    
 -0.9204800      -1.097120      -1.248800      -1.370880      -1.442560    
  -1.468160      -1.452800      -1.401600      -1.307680      -1.185440    
  -1.027360     -0.8312000     -0.5950401     -0.3222000     -0.2445000e-01
  0.2842799      0.5919999      0.8839999       1.137920       1.333760    
   1.468160       1.525760       1.501440       1.409280       1.271680    
   1.092800      0.8871999      0.6711999      0.4715199      0.3092400    
  0.1847600      0.9175999e-01  0.2715000e-01 -0.1355000e-01 -0.3604000e-01
 -0.4714000e-01 -0.5492000e-01 -0.6736000e-01 -0.9296000e-01 -0.1390800    
 -0.2024400     -0.2676000     -0.3224800     -0.3654400     -0.3929600    
 -0.3972800     -0.3755200     -0.3376000     -0.2963600     -0.2616000    
 -0.2371600     -0.2256400     -0.2292800     -0.2466000     -0.2750000    
 -0.3137600     -0.3649600     -0.4292800     -0.5011201     -0.5643201    
 -0.6096001     -0.6350400     -0.6316800     -0.5888001     -0.5078400    
 -0.3926400     -0.2454400     -0.7612000e-01  0.1021600      0.2763200    
  0.4324800      0.5598400      0.6532799      0.7156799      0.7529600    
  0.7664000      0.7569599      0.7294400      0.6913599      0.6447999    
  0.5904000      0.5385599      0.4995199      0.4718400      0.4539199    
  0.4417599      0.4238400      0.3899199      0.3304000      0.2342800    
  0.9332000e-01 -0.9236000e-01 -0.3202000     -0.5819200     -0.8603201    
  -1.139840      -1.413120      -1.644800      -1.813760      -1.898240    
  -1.886720      -1.777920      -1.573120      -1.273120     -0.9027201    
 -0.4675200      0.1272000e-01  0.5103999       1.004960       1.468160    
   1.890560       2.252800       2.548480       2.759680       2.871040    
   2.881279       2.796800       2.615040       2.329600       1.952000    
   1.492480      0.9751999      0.4089600     -0.1786800     -0.7702401    
  -1.354240      -1.904640      -2.405120      -2.833920      -3.169280    
  -3.404800      -3.545600      -3.581440      -3.500800      -3.301120    
  -2.987520      -2.566400      -2.054400      -1.475840     -0.8483200    
