  0.1017683e-01  -18.31434       16.56002      -12345.00      -12345.00    
   9.993649       50.00895       17.68428      -12345.00       2.000000    
  -12345.00      -12345.00      -12345.00      -12345.00      -12345.00    
  -12345.00      -12345.00      -12345.00      -12345.00      -12345.00    
  -12345.00      -12345.00      -12345.00      -12345.00      -12345.00    
  -12345.00      -12345.00      -12345.00      -12345.00      -12345.00    
  -12345.00       37.45117      -121.7992       265.0000      -12345.00    
   37.51733      -121.6850      -12345.00       5.950000      -12345.00    
   1.600000      0.1100000       88.00000      0.4500000      0.9200000    
   15.00000      -12345.00      -12345.00      -12345.00      -12345.00    
   12.48615       234.0056       53.93445      0.1122927      -12345.00    
  -12345.00      0.8901987e-03         0.       90.00000      -12345.00    
  -12345.00      -12345.00      -12345.00      -12345.00      -12345.00    
  -12345.00      -12345.00      -12345.00      -12345.00      -12345.00    
      1987       173        11         9        56
       363         6    -12345    -12345      3933
    -12345    -12345    -12345    -12345    -12345
         1    -12345    -12345    -12345    -12345
    -12345    -12345    -12345    -12345    -12345
    -12345    -12345    -12345    -12345    -12345
    -12345    -12345    -12345    -12345    -12345
         1         1         1         1         1
CALN    870622111018    
-12345  origin  -12345  
-12345  -12345  -12345  
-12345  -12345  -12345  
-12345  -12345  -12345  
-12345  -12345  satellit
satellit-12345  -12345  
-12345  -12345  -12345  
   1.183349     -0.7739419e-01 -0.4631307      0.5363659       1.540217    
   1.047615     -0.4406127     -0.8410136      0.1111427       1.182523    
  0.8280714     -0.4926139     -0.5397412      0.6021018       1.228056    
  0.2082691      -1.351845      -1.260990      0.1631350       1.145476    
  0.4502428     -0.8841534     -0.7756733      0.3424800      0.9239150    
  0.1547994     -0.8497825     -0.5097414      0.4728541      0.9798253    
  0.2733909     -0.8448269     -0.7202539      0.1742740      0.7181011    
  0.9640163e-01 -0.8465176     -0.5675942      0.2308191      0.6632658    
  0.2279586     -0.5387691     -0.3634258      0.2063006      0.5930046    
  0.3715063     -0.2317636     -0.9806925e-01  0.2606761      0.3766758    
  0.5052199e-01 -0.4964978     -0.3029388      0.1984531      0.6216186    
  0.5780479     -0.1926338e-01 -0.9497368e-01  0.3783504       1.047501    
   1.208668      0.4960072      0.1279964      0.5829536       1.296618    
   1.080064     -0.1824131     -0.8682416     -0.4793253      0.2141597    
 -0.1769256      -1.653097      -2.275711      -1.492852     -0.5175396    
 -0.9050211      -2.157776      -2.223459     -0.9763260      0.3735407    
  0.5833058     -0.2030658     -0.1785007       1.226755       2.415584    
   1.820234      0.5704914      0.7156968       1.939229       2.531529    
   1.349719     -0.4438420     -0.7250809      0.3494244      0.8893796    
 -0.3021367      -1.716573      -1.495660     -0.2887883      0.2226360    
 -0.8713459      -1.926501      -1.293896     -0.6546011e-01  0.2533723    
 -0.7630594      -1.372979     -0.2150744       1.134206       1.181585    
 -0.2926473e-01 -0.8386725     -0.1276349      0.8265440      0.7911692    
 -0.2354981     -0.7105258      0.9787596e-01  0.7158916      0.4102555    
 -0.4763278     -0.7521828      0.8308022e-01  0.7913932      0.7589693    
  0.1768978     -0.7250688e-01  0.3893033      0.6225877      0.3476851    
 -0.2183947     -0.3172169      0.2711471      0.5273600      0.4434254    
  0.1198013     -0.1538266      0.3027784e-01 -0.7919215e-02 -0.2474306    
 -0.5144417     -0.6737678     -0.4681665     -0.2572809     -0.1633455    
 -0.4273562     -0.7087091     -0.4300250     -0.5795947e-01 -0.5537209e-01
 -0.5394194     -0.8919083     -0.6463925     -0.1436865      0.2050270    
 -0.2098431     -0.6812382     -0.1494884      0.7825488       1.128662    
  0.4754409     -0.2043296      0.9866164e-01  0.9638352       1.393365    
  0.6116063     -0.3059114     -0.1323230      0.5007722      0.5011239    
 -0.6503773      -1.420470     -0.6181651      0.4372797      0.5128255    
 -0.4308623     -0.8093499      0.1910031       1.102178      0.7671103    
 -0.5506601     -0.8858486      0.3768944       1.419166       1.200454    
  0.9912927e-01 -0.1182492      0.8816553       1.222588      0.1871790    
  -1.367676      -1.459489     -0.3044922e-01  0.6229503     -0.8632195e-01
  -1.089657     -0.7751214      0.5403996      0.7602770     -0.1980057    
  -1.228660     -0.9128520      0.5150180      0.7692462     -0.3055996    
  -1.209302     -0.6328571      0.8860856       1.185123      0.1511330    
 -0.8713045     -0.6948569      0.2492293      0.2937446     -0.3267921    
 -0.6084359     -0.4861366e-01  0.7771589      0.6324942     -0.9544829e-01
 -0.4851774      0.3916513e-01  0.8978388      0.8119968      0.2439066    
 -0.1222230      0.8714295e-01  0.5519564      0.1608503e-01  -1.113444    
  -1.735902      -1.401838     -0.6541172     -0.5306450     -0.8244278    
  -1.020787     -0.6385871      0.1922337      0.6479607      0.6413299    
  0.3865516      0.5603950       1.140831       1.209818      0.6963720    
 -0.1347401     -0.3618283      0.2046395      0.4780473      0.1882031    
 -0.5172547     -0.6766266      0.9699672e-01  0.6049790      0.2701446    
 -0.6025983     -0.6618888      0.3257623      0.8145040      0.3054626    
 -0.5869858     -0.4342918      0.8043677       1.507822       1.059798    
 -0.2057045     -0.5253653      0.4335164      0.6403093     -0.3061793    
  -1.578602      -1.531539     -0.1496404e-01  0.7661511      0.1210294    
  -1.144170      -1.021003      0.6502038       1.124599     -0.9586842e-01
  -1.470489      -1.265193      0.2538019      0.6961731     -0.3518174    
  -1.533540     -0.9838530      0.8518023       1.166869     -0.5697731e-01
 -0.9923829     -0.4331822      0.8226501      0.7777830     -0.3603584    
  -1.351230      -1.028131      0.1223131      0.2741560e-01  -1.058899    
  -1.569787     -0.6277645      0.7598832      0.6959901     -0.2401783    
 -0.5882693      0.3408720       1.578904       1.182120     -0.2064953    
 -0.7146521      0.9802534e-01  0.9374553      0.5096462     -0.3528875    
 -0.4365867      0.3916209       1.069748      0.6878515      0.3483274e-01
 -0.1089012      0.3022509      0.5806383      0.1130052     -0.4769967    
 -0.4902613      0.1587571      0.7086115      0.5911610      0.1233715    
 -0.3482246     -0.2033357      0.3297862      0.3651469     -0.1714586    
 -0.7792743     -0.4486029      0.4804723      0.8194170      0.5025600    
 -0.3723066e-02  0.2704947      0.9779190      0.9162773      0.1571536    
 -0.7362856     -0.6554702      0.1197073      0.1893534     -0.3322426    
 -0.7946195     -0.3878454      0.4645177      0.4479454     -0.3211059    
 -0.9199888     -0.3036273      0.7982245      0.7260655     -0.3250093    
  -1.163477     -0.6705197      0.3052669      0.6553771e-01 -0.9576670    
  -1.368213     -0.3022464      0.9052857      0.4924282     -0.5559649    
 -0.6427178      0.4398191       1.122301      0.2958313     -0.7140323    
 -0.6259106      0.5338704       1.273564      0.4042542     -0.8311934    
 -0.8854249      0.2090005      0.7608102     -0.3142888e-01 -0.7257785    
 -0.4661938      0.2928537      0.3249510     -0.6713201      -1.137752    
 -0.2081506       1.252623       1.450440      0.2851534     -0.5346875    
 -0.2749190      0.6073399      0.6494203     -0.2196368     -0.4062895    
  0.3648059       1.174708      0.8292118     -0.2086149     -0.5524386    
 -0.2123414      0.2689034      0.3869636e-01 -0.6733562     -0.8242298    
 -0.3758728      0.3726107      0.4242014     -0.9689392e-01  0.5699556e-01
  0.7362437       1.370228       1.227310      0.6517914      0.5226173    
  0.5487073      0.7141035      0.3367643     -0.6913829      -1.356106    
  -1.651998      -1.364206      -1.003601      -1.151848      -1.220245    
  -1.044494     -0.3323422      0.3222671      0.2473474      0.1269092    
  0.3685510       1.151307       1.565743      0.9251030      0.2393346    
  0.1213297      0.6454079      0.8005441     -0.1209434      -1.048612    
  -1.107590     -0.1457791      0.2894645     -0.7318475      -1.465258    
 -0.8628607      0.4708707      0.7739349     -0.4055300      -1.122032    
 -0.4382141      0.8130451      0.9497518     -0.1287668     -0.5524939    
  0.3078277       1.384734       1.025699     -0.4574642      -1.015978    
 -0.1877645      0.9142634      0.5171034      -1.030248      -1.287265    
  0.6095062e-01   1.328687      0.7891564     -0.8176352      -1.090917    
  0.1659562       1.342634      0.7872252     -0.7231378     -0.8659098    
  0.4775797       1.695516       1.210633     -0.8723157e-02  0.1224941    
   1.129108       1.612025      0.6662335     -0.6890222     -0.7008660    
 -0.1692509e-01  0.1049895     -0.8984553      -1.771101      -1.093343    
 -0.7227605e-01  0.2143599     -0.5022809      -1.335998     -0.8518707    
  0.1829212      0.7415983      0.3358715     -0.5259020     -0.4835748    
  0.1970011      0.8336602      0.6248789     -0.3106671     -0.5780122    
 -0.1786585      0.5097683      0.6458111     -0.7648725e-01 -0.2583185    
  0.4518512       1.405290       1.328885      0.1378715     -0.5167295    
 -0.2282115      0.6080420      0.8245931     -0.5548323e-01 -0.6530957    
 -0.3280629      0.6011195      0.7318830     -0.4161575      -1.117787    
 -0.5778071      0.4999583      0.6018107     -0.3572544     -0.6437095    
  0.1190016       1.076840      0.9479248     -0.2825334     -0.8131593    
 -0.4254982e-01  0.8962960      0.4427294     -0.8788943     -0.9171294    
  0.3922196       1.419535      0.8414134     -0.5087450     -0.6799206    
  0.4231032       1.355996      0.5907385     -0.8926506     -0.7983387    
  0.5785872       1.208201     -0.5532268e-01  -1.500192      -1.104382    
  0.2967889      0.9130069     -0.8302084e-01  -1.202838     -0.6856826    
  0.6016641      0.9876558     -0.1615246      -1.280345     -0.8019404    
  0.2125708      0.4811558     -0.1964448     -0.6303189      0.1399851    
  0.9849727      0.8152023     -0.3466240      -1.090052     -0.4651276    
  0.1974976     -0.3799042e-01 -0.9109945      -1.311050     -0.5061682    
  0.3055747      0.3205085     -0.2630917     -0.5939188     -0.8884440e-01
  0.3258080      0.2711003     -0.1331239     -0.4616039     -0.1301770    
  0.2453611      0.2858718     -0.4276315e-01 -0.4305028     -0.2154997    
  0.2588527      0.4984945      0.2387245     -0.1701577     -0.6830333e-01
  0.3134876      0.5542963      0.2681852     -0.1205862      0.8338237e-01
  0.5294546      0.7146375      0.2067604     -0.4241837     -0.1803946    
  0.5440790      0.7775789      0.6615476e-02 -0.8162278     -0.7002303    
 -0.4347743e-01  0.3778684     -0.2560391      -1.062988     -0.6534697    
  0.4310707      0.9207799      0.8081517e-01 -0.7767239     -0.3012528    
  0.6142934      0.7734994     -0.1754876     -0.9636962     -0.4357631    
  0.5558563      0.6995069     -0.3558659      -1.028375     -0.2364992    
  0.9007093      0.9585418     -0.3764714      -1.137092     -0.2445332    
  0.7916744      0.7403514     -0.4005166     -0.8156061      0.2682780    
   1.227492       1.022685     -0.2774114     -0.9057115     -0.2129032e-01
  0.6638230      0.1785089     -0.8674703     -0.6219450      0.8369092    
   1.301916      0.3847043      -1.003695      -1.140181      0.4222045e-01
  0.3683215     -0.4727412      -1.366348      -1.039995      0.2020892    
  0.5498257     -0.6161607e-01 -0.7778491     -0.5894974      0.3975465    
  0.6063767     -0.2842798e-01 -0.5726309     -0.1684631      0.7697257    
  0.8197962      0.3024230      0.7208272e-01  0.5172108       1.176977    
  0.9653046      0.2630371     -0.2103037     -0.8461811e-01  0.3958733    
  0.3280077     -0.1848987     -0.6970699     -0.8010802     -0.5486295    
 -0.4511024     -0.5501047     -0.8107187     -0.4147843      0.5709985    
  0.8783672      0.5949512      0.1454600      0.1838103      0.9025788    
   1.252683      0.8008187     -0.6340943e-02 -0.1056200      0.5218962    
  0.8124853      0.3205521     -0.7915429      -1.081657     -0.2636959    
  0.9380504e-01 -0.4880909      -1.488256      -1.372509     -0.6732360e-01
  0.4531347     -0.2326498      -1.357061      -1.376181     -0.1155185e-01
  0.7362780     -0.8688550e-02  -1.313111      -1.157170      0.3971840    
   1.047494      0.3530774     -0.6686579     -0.3028281       1.353716    
   1.840030      0.7433302     -0.4682038     -0.1360337       1.196857    
   1.165656     -0.1574494      -1.202466     -0.5891534      0.8667960    
  0.8403512     -0.2829912      -1.084970     -0.5708420      0.6780472    
  0.6079854     -0.5120989      -1.339333     -0.8755013      0.3805735    
  0.3818189     -0.6719775      -1.388567     -0.9931476     -0.9369660e-01
 -0.1852635     -0.8222427     -0.9418585     -0.9451994e-01  0.8992797    
  0.5952053     -0.3642083     -0.8033589     -0.2794332      0.4579936    
  0.2728644     -0.2273435     -0.4034501     -0.3999195e-01  0.5030617    
  0.3599090     -0.2144012     -0.5830292     -0.2568067e-01  0.9446205    
   1.039202      0.6332666      0.3617676      0.5850857       1.044629    
   1.013481      0.5734279     -0.4964697e-01 -0.4810524e-01  0.6927583    
   1.048207      0.5098958     -0.6298447     -0.9169798     -0.1320415    
  0.1275499     -0.5695143      -1.498178      -1.347441     -0.1892394    
  0.4018500     -0.2241055e-01 -0.7562978     -0.4729641      0.5709266    
  0.8816062      0.3593080     -0.2539013      0.3293999       1.540030    
   1.251846     -0.2285228      -1.212641     -0.5891578      0.7131792    
  0.6842124     -0.5599723      -1.519384     -0.8818370      0.4299321    
  0.3738061     -0.6127499      -1.093291     -0.2457260      0.8234356    
  0.2292245      -1.127807      -1.383340     -0.1748185      0.8573289    
  0.2267492     -0.8851247     -0.9546643      0.1945202       1.160209    
  0.5748536     -0.4564457     -0.3304656      0.8955411       1.541338    
  0.6950873     -0.2789397     -0.2573411      0.3755897      0.3865028    
 -0.4528459     -0.8997977     -0.3682282      0.4579434      0.3143348    
 -0.6736299      -1.065976     -0.3486173      0.9610387       1.418164    
  0.6934101      0.2306726      0.4959627      0.9495601      0.7396622    
  0.1615897e-01 -0.1830362      0.9277743e-01  0.5301803      0.5833552    
  0.8844150e-01 -0.2303793     -0.1162081      0.3839133      0.4471661    
 -0.1325064     -0.4783964     -0.5317244     -0.1473379      0.2038368    
  0.5087737e-01 -0.1081130     -0.2065672      0.9816471e-01  0.2953084    
 -0.1284925     -0.5635092     -0.9092407     -0.6688818     -0.2706431    
 -0.6069649      -1.094121      -1.109447     -0.2119598      0.6905250    
  0.5736486      0.1536134      0.1380064      0.8889752       1.332934    
  0.5037799     -0.5183825     -0.8555518     -0.2409484      0.2822337    
 -0.3299313      -1.106882      -1.040648      0.3612812e-01  0.8260357    
  0.2217920     -0.6418054     -0.4793211      0.6852201       1.085936    
 -0.4216641e-01 -0.9122584     -0.5161666      0.7332204       1.305545    
  0.3592578     -0.5529521     -0.1929281      0.9413339       1.074544    
 -0.2207802      -1.092648     -0.4636268      0.8969481      0.8644212    
 -0.7184719      -1.456604     -0.5419604      0.8737720      0.9457355    
 -0.2808488     -0.6349137      0.3484784       1.203785      0.4221476    
  -1.152149      -1.359725     -0.2431587      0.6978800      0.1181233    
  -1.126755      -1.097275     -0.1866516e-01  0.7728910      0.2099777    
 -0.7669038     -0.4816545      0.6144485       1.304448      0.5565355    
 -0.6572380     -0.4358237      0.6446085       1.282159      0.7511969    
 -0.2133742     -0.2614795      0.3689921      0.9452408      0.5357306    
 -0.3253856     -0.2529777      0.3157724      0.7586997      0.4105146    
 -0.3548584     -0.2720700      0.1003526      0.2500677     -0.1441540    
 -0.9059018     -0.8462549     -0.2454275      0.1997575     -0.9191477e-01
 -0.7764423     -0.5372510      0.1609591      0.6298458      0.4893711    
 -0.2242742     -0.5085342     -0.1744776      0.6286266      0.8600518    
  0.9204841e-01 -0.3629397     -0.3234246      0.1156435e-01 -0.5925256e-01
 -0.9708854      -1.410852     -0.8760866      0.1822511      0.4649911    
 -0.5593067      -1.176641     -0.5639660      0.6811715       1.153172    
  0.4471593      0.1679666      0.9861284       2.103690       1.861829    
  0.2115549     -0.6197991      0.1208777       1.339211       1.165802    
 -0.4601164      -1.242329     -0.3945214      0.8693029      0.7180097    
 -0.5948611     -0.8821666      0.1455723       1.044017      0.3264044    
  -1.296544      -1.644028     -0.5031741      0.6119556      0.7145971e-01
  -1.320722      -1.405953     -0.2279783      0.6721603     -0.1334779    
  -1.561864      -1.404988     -0.3390400e-02  0.9615174      0.2700409    
 -0.8652651     -0.4579138      0.8476430       1.486109      0.7766719    
  0.2001466       1.314886       3.164051       4.564288       4.779429    
   4.479519       4.577196       3.699275      0.7853239      -3.596716    
  -7.069293      -7.573342      -6.329983      -5.118618      -4.240386    
  -2.647210      0.1151425       2.732949       4.202684       3.916853    
   2.546858       1.312863     -0.6330549e-01  -1.711769      -3.414993    
  -4.243233      -3.351541      -1.683978     -0.7566321e-01  0.7622946    
  0.8877847       1.360259       1.909309       1.907123       1.333502    
  0.7362625      0.4215472      0.3141731e-01 -0.2466837     -0.6152141    
  -1.042125     -0.7881762     -0.3665993e-01  0.8465866       1.341716    
   1.270134       1.141506       1.066646       1.230688       1.309124    
   1.048589      0.8494564      0.4422114     -0.6074249      -2.356512    
  -3.814913      -3.701691      -2.137810     -0.1394645      0.9426407    
  0.9945716       1.053621       1.486359       1.760463      0.9417659    
 -0.1696228     -0.1564814      0.5791967      0.9057147      0.1510130    
 -0.6970050     -0.4569788      0.5876780       1.544433       1.477156    
  0.7943470      0.1207979     -0.8236703      -2.089976      -3.496530    
  -3.757543      -2.136659     -0.7748687e-01  0.6027275     -0.6075754    
  -1.673148      -1.141105     -0.2797265e-01  0.4312352     -0.3057972    
 -0.7687807      0.1666133       1.225663       1.213752      0.4381933    
  0.9887840       3.490164       5.896592       6.536686       5.206105    
   3.787775       3.237830       2.082267     -0.3563860      -3.300952    
  -4.767544      -4.413548      -4.347371      -5.291282      -6.321686    
  -5.826467      -3.859413      -2.378707      -1.923646      -1.906431    
 -0.7985252       1.900528       4.256903       5.183762       5.271393    
   5.775598       6.211944       4.696651       1.591842      -1.538785    
  -3.296016      -3.579151      -3.732862      -3.867949      -3.411628    
  -1.761914      0.6639288       2.335248       2.761760       2.045081    
   1.231605      0.8077996      0.7964928e-02 -0.7687550      -1.122792    
 -0.7211052      0.3974521      0.9571712      0.4534141     -0.5071566    
