  0.1017683e-01  -850.0000       986.0000      -12345.00      -12345.00    
   9.993649       50.00895       17.68428       20.59485       2.000000    
  -12345.00      -12345.00      -12345.00      -12345.00      -12345.00    
  -12345.00      -12345.00      -12345.00      -12345.00      -12345.00    
   41.86667      -12345.00      -12345.00      -12345.00      -12345.00    
  -12345.00      -12345.00      -12345.00      -12345.00      -12345.00    
  -12345.00       37.45117      -121.7992       265.0000      -12345.00    
   37.51733      -121.6850      -12345.00       5.950000      -12345.00    
   1.600000      0.1100000       88.00000      0.4500000      0.9200000    
   15.00000      -12345.00      -12345.00      -12345.00      -12345.00    
   12.48615       234.0056       53.93445      0.1122927      -12345.00    
  -12345.00       11.08975             0.             0.      -12345.00    
  -12345.00      -12345.00      -12345.00      -12345.00      -12345.00    
  -12345.00      -12345.00      -12345.00      -12345.00      -12345.00    
      1987       173        11         9        56
       363         6    -12345    -12345      3933
    -12345    -12345    -12345    -12345    -12345
         1    -12345    -12345    -12345    -12345
    -12345    -12345    -12345    -12345    -12345
    -12345    -12345    -12345    -12345    -12345
    -12345    -12345    -12345    -12345    -12345
         1         1         1         1         1
CALZ    870622111018    
-12345  origin  IPD0    
-12345  -12345  -12345  
-12345  -12345  -12345  
-12345  -12345  -12345  
-12345  -12345  satellit
satellit-12345  -12345  
-12345  -12345  -12345  
   12.00000      -14.00000       4.000000       4.000000       16.00000    
   16.00000      -12.00000       6.000000       4.000000       15.00000    
   17.00000      -10.00000       9.000000       3.000000       10.00000    
   9.000000      -20.00000       2.000000       4.000000       6.000000    
   4.000000      -21.00000      -1.000000             0.       5.000000    
   1.000000      -23.00000             0.             0.       7.000000    
   4.000000      -20.00000       3.000000       2.000000       8.000000    
   10.00000      -19.00000       4.000000       5.000000       8.000000    
   4.000000      -21.00000       3.000000       4.000000       11.00000    
   1.000000      -20.00000       13.00000       4.000000       16.00000    
   6.000000      -17.00000       17.00000       9.000000       18.00000    
   5.000000      -8.000000       26.00000       11.00000       24.00000    
   13.00000      -2.000000       25.00000       20.00000       30.00000    
   13.00000       5.000000       28.00000       17.00000       31.00000    
   22.00000       3.000000       32.00000       31.00000       32.00000    
   25.00000       9.000000       36.00000       26.00000       36.00000    
   22.00000       4.000000       35.00000       29.00000       40.00000    
   19.00000       7.000000       37.00000       31.00000       41.00000    
   24.00000       8.000000       32.00000       27.00000       30.00000    
   19.00000      -2.000000       28.00000       18.00000       23.00000    
   14.00000      -1.000000       31.00000       18.00000       30.00000    
   8.000000      -10.00000       25.00000       12.00000       23.00000    
   3.000000      -1.000000       29.00000       14.00000       28.00000    
   10.00000       2.000000       27.00000       21.00000       17.00000    
   7.000000             0.       26.00000       16.00000       19.00000    
   4.000000      -8.000000       29.00000       17.00000       20.00000    
   5.000000       1.000000       39.00000       18.00000       25.00000    
   4.000000      -4.000000       32.00000       15.00000       19.00000    
   4.000000             0.       28.00000       16.00000       16.00000    
  -2.000000      -4.000000       28.00000       14.00000       16.00000    
   3.000000      -5.000000       27.00000       11.00000       14.00000    
   6.000000      -6.000000       28.00000       12.00000       7.000000    
  -3.000000      -14.00000       26.00000       9.000000       1.000000    
  -7.000000      -16.00000       28.00000       4.000000       6.000000    
  -7.000000      -16.00000       24.00000       2.000000       8.000000    
  -10.00000      -23.00000       18.00000      -6.000000      -3.000000    
  -13.00000      -31.00000       22.00000      -1.000000      -10.00000    
  -22.00000      -32.00000       13.00000      -6.000000      -8.000000    
  -19.00000      -33.00000       16.00000      -8.000000      -6.000000    
  -16.00000      -30.00000       18.00000      -6.000000      -1.000000    
  -16.00000      -26.00000       18.00000      -2.000000      -4.000000    
  -19.00000      -25.00000       23.00000       5.000000       3.000000    
  -9.000000      -18.00000       24.00000       4.000000       9.000000    
  -7.000000      -11.00000       29.00000       8.000000       9.000000    
  -6.000000      -8.000000       31.00000       9.000000       11.00000    
  -3.000000      -6.000000       25.00000       9.000000       10.00000    
  -3.000000             0.       19.00000       13.00000       15.00000    
         0.       2.000000       34.00000       18.00000       14.00000    
   3.000000       4.000000       32.00000       17.00000       14.00000    
   3.000000       4.000000       31.00000       16.00000       12.00000    
   2.000000       3.000000       36.00000       18.00000       7.000000    
  -1.000000       3.000000       30.00000       10.00000       16.00000    
  -3.000000      -1.000000       29.00000       16.00000       22.00000    
  -3.000000       6.000000       35.00000       16.00000       14.00000    
   3.000000       12.00000       22.00000       12.00000       15.00000    
   9.000000       18.00000       33.00000       12.00000       9.000000    
   4.000000       8.000000       26.00000       11.00000       7.000000    
         0.       10.00000       30.00000       8.000000       9.000000    
   6.000000       10.00000       32.00000       8.000000       15.00000    
   6.000000       14.00000       36.00000       6.000000       19.00000    
   5.000000       10.00000       35.00000       5.000000       12.00000    
   3.000000       13.00000       32.00000       4.000000       16.00000    
   1.000000       14.00000       32.00000       3.000000       11.00000    
   3.000000       11.00000       23.00000       2.000000       11.00000    
  -1.000000       8.000000       18.00000      -6.000000       2.000000    
  -5.000000       3.000000       15.00000      -5.000000      -5.000000    
  -10.00000       8.000000       19.00000      -11.00000      -5.000000    
  -6.000000       2.000000       10.00000      -16.00000      -8.000000    
  -17.00000       5.000000       17.00000      -11.00000      -3.000000    
  -11.00000       11.00000       21.00000      -15.00000       1.000000    
  -6.000000       10.00000       19.00000      -10.00000             0.    
  -8.000000       2.000000       14.00000      -9.000000      -5.000000    
  -8.000000       7.000000       13.00000      -13.00000       1.000000    
  -6.000000       7.000000       14.00000      -13.00000      -5.000000    
  -8.000000       14.00000       16.00000      -16.00000      -2.000000    
  -6.000000       11.00000       14.00000      -16.00000      -4.000000    
  -9.000000       6.000000       10.00000      -19.00000      -3.000000    
  -8.000000       11.00000       19.00000      -11.00000       3.000000    
   4.000000       17.00000       21.00000             0.       12.00000    
   7.000000       24.00000       35.00000       1.000000       16.00000    
   15.00000       32.00000       48.00000       3.000000       23.00000    
   19.00000       34.00000       43.00000       3.000000       33.00000    
   30.00000       43.00000       51.00000       12.00000       37.00000    
   37.00000       45.00000       50.00000       19.00000       33.00000    
   34.00000       41.00000       52.00000       16.00000       35.00000    
   27.00000       45.00000       53.00000       13.00000       47.00000    
   42.00000       56.00000       60.00000       21.00000       35.00000    
   38.00000       51.00000       55.00000       19.00000       40.00000    
   33.00000       40.00000       53.00000       14.00000       39.00000    
   32.00000       47.00000       47.00000       19.00000       37.00000    
   29.00000       48.00000       50.00000       17.00000       32.00000    
   34.00000       44.00000       52.00000       13.00000       36.00000    
   33.00000       43.00000       48.00000       15.00000       38.00000    
   33.00000       50.00000       40.00000       11.00000       31.00000    
   29.00000       41.00000       43.00000       16.00000       32.00000    
   27.00000       37.00000       44.00000       11.00000       36.00000    
   34.00000       40.00000       37.00000       14.00000       34.00000    
   31.00000       45.00000       37.00000       16.00000       26.00000    
   27.00000       38.00000       32.00000       5.000000       27.00000    
   25.00000       35.00000       32.00000       7.000000       31.00000    
   24.00000       39.00000       28.00000      -1.000000       24.00000    
   20.00000       32.00000       14.00000      -3.000000       20.00000    
   20.00000       29.00000       16.00000      -7.000000       11.00000    
   11.00000       16.00000       11.00000      -12.00000       4.000000    
   9.000000       15.00000       6.000000      -8.000000       8.000000    
  -3.000000       4.000000             0.      -18.00000       2.000000    
  -1.000000       8.000000             0.      -19.00000       3.000000    
  -1.000000       5.000000      -4.000000      -25.00000       2.000000    
  -12.00000       2.000000      -8.000000      -26.00000       2.000000    
  -7.000000             0.      -7.000000      -30.00000      -4.000000    
  -9.000000       1.000000      -9.000000      -27.00000             0.    
  -3.000000      -2.000000      -7.000000      -26.00000      -3.000000    
  -9.000000      -6.000000      -11.00000      -28.00000       3.000000    
  -4.000000       1.000000      -10.00000      -23.00000       1.000000    
  -4.000000       1.000000      -10.00000      -27.00000             0.    
  -4.000000       5.000000      -12.00000      -25.00000       6.000000    
  -6.000000      -1.000000      -13.00000      -22.00000       2.000000    
  -8.000000      -3.000000      -17.00000      -24.00000             0.    
  -9.000000      -4.000000      -20.00000      -32.00000      -3.000000    
  -13.00000      -8.000000      -20.00000      -30.00000      -4.000000    
  -16.00000      -6.000000      -21.00000      -30.00000      -2.000000    
  -18.00000      -4.000000      -22.00000      -28.00000       5.000000    
  -10.00000      -1.000000      -19.00000      -25.00000       9.000000    
  -7.000000       2.000000      -20.00000      -22.00000       10.00000    
  -11.00000       7.000000      -14.00000      -23.00000       16.00000    
  -2.000000       3.000000      -13.00000      -17.00000       17.00000    
  -3.000000       3.000000      -12.00000      -20.00000       14.00000    
   2.000000       1.000000      -4.000000      -16.00000       19.00000    
         0.       4.000000      -2.000000      -15.00000       18.00000    
   9.000000       7.000000      -5.000000      -15.00000       22.00000    
   14.00000       3.000000      -7.000000      -10.00000       20.00000    
   1.000000       2.000000      -7.000000      -20.00000       20.00000    
   1.000000      -4.000000      -6.000000      -17.00000       20.00000    
   3.000000             0.      -8.000000      -19.00000       22.00000    
         0.       3.000000      -3.000000      -20.00000       25.00000    
   3.000000      -1.000000      -8.000000      -20.00000       29.00000    
   3.000000       9.000000      -1.000000      -15.00000       26.00000    
   4.000000       9.000000      -7.000000      -11.00000       30.00000    
   3.000000       7.000000      -6.000000      -10.00000       25.00000    
   9.000000       14.00000      -2.000000      -6.000000       33.00000    
   14.00000       15.00000       4.000000       6.000000       33.00000    
   15.00000       18.00000       9.000000       2.000000       34.00000    
   23.00000       21.00000       9.000000       5.000000       38.00000    
   22.00000       20.00000       9.000000       3.000000       37.00000    
   19.00000       18.00000       1.000000       4.000000       37.00000    
   13.00000       19.00000       4.000000       4.000000       35.00000    
   14.00000       19.00000       8.000000       13.00000       39.00000    
   23.00000       21.00000       10.00000       18.00000       35.00000    
   20.00000       18.00000       15.00000       15.00000       43.00000    
   21.00000       19.00000       12.00000       12.00000       39.00000    
   19.00000       23.00000       11.00000       18.00000       38.00000    
   20.00000       23.00000       11.00000       21.00000       41.00000    
   19.00000       26.00000       17.00000       22.00000       43.00000    
   23.00000       25.00000       19.00000       29.00000       48.00000    
   22.00000       25.00000       18.00000       20.00000       46.00000    
   16.00000       22.00000       5.000000       13.00000       37.00000    
   7.000000       17.00000       5.000000       15.00000       27.00000    
         0.       13.00000       4.000000       15.00000       26.00000    
   3.000000       12.00000       4.000000       18.00000       28.00000    
   4.000000       15.00000       7.000000       17.00000       31.00000    
   5.000000       6.000000       2.000000       17.00000       28.00000    
  -4.000000       8.000000       3.000000       12.00000       32.00000    
   3.000000       11.00000       1.000000       18.00000       38.00000    
   2.000000       11.00000      -1.000000       13.00000       31.00000    
  -2.000000       10.00000      -2.000000       15.00000       30.00000    
   1.000000       16.00000       6.000000       23.00000       31.00000    
  -1.000000       16.00000       8.000000       25.00000       33.00000    
   8.000000       17.00000       12.00000       28.00000       38.00000    
   3.000000       17.00000       11.00000       26.00000       38.00000    
   4.000000       14.00000       9.000000       24.00000       32.00000    
   2.000000       12.00000      -1.000000       21.00000       36.00000    
  -9.000000       14.00000       4.000000       15.00000       31.00000    
  -4.000000       11.00000       1.000000       18.00000       27.00000    
  -12.00000       13.00000       9.000000       23.00000       31.00000    
  -8.000000       9.000000       8.000000       19.00000       20.00000    
  -11.00000       12.00000       6.000000       17.00000       20.00000    
  -14.00000       5.000000       1.000000       16.00000       20.00000    
  -18.00000      -1.000000      -2.000000       10.00000       13.00000    
  -18.00000       3.000000       1.000000       21.00000       20.00000    
  -12.00000       5.000000       3.000000       13.00000       14.00000    
  -17.00000       2.000000      -3.000000       15.00000       21.00000    
  -11.00000       11.00000       5.000000       20.00000       27.00000    
  -11.00000       4.000000       5.000000       16.00000       24.00000    
  -10.00000       8.000000       8.000000       22.00000       34.00000    
  -3.000000       17.00000       16.00000       23.00000       36.00000    
  -2.000000       14.00000       16.00000       25.00000       38.00000    
   1.000000       22.00000       18.00000       26.00000       35.00000    
  -2.000000       20.00000       16.00000       30.00000       31.00000    
   4.000000       26.00000       20.00000       34.00000       36.00000    
   5.000000       16.00000       13.00000       31.00000       32.00000    
   3.000000       22.00000       23.00000       27.00000       30.00000    
  -5.000000       10.00000       12.00000       22.00000       27.00000    
  -12.00000       11.00000       11.00000       17.00000       21.00000    
  -15.00000       8.000000       8.000000       17.00000       21.00000    
  -15.00000       4.000000      -5.000000       11.00000       8.000000    
  -23.00000       8.000000       10.00000       18.00000       15.00000    
  -4.000000       7.000000       3.000000       17.00000       6.000000    
  -19.00000       2.000000      -1.000000       16.00000       3.000000    
  -17.00000       7.000000       6.000000       3.000000             0.    
  -14.00000       4.000000       1.000000       15.00000      -2.000000    
  -13.00000       8.000000       4.000000       22.00000       4.000000    
  -16.00000       11.00000       5.000000       16.00000       6.000000    
  -11.00000       14.00000       11.00000       16.00000       7.000000    
  -8.000000       12.00000       11.00000       23.00000       16.00000    
  -4.000000       23.00000       10.00000       21.00000       18.00000    
   2.000000       29.00000       24.00000       29.00000       19.00000    
   5.000000       33.00000       22.00000       34.00000       12.00000    
   3.000000       33.00000       22.00000       37.00000       20.00000    
   4.000000       23.00000      -27.00000      -204.0000      -608.0000    
  -837.0000      -772.0000      -744.0000      -633.0000       307.0000    
   986.0000       862.0000       753.0000       812.0000       676.0000    
  -26.00000      -752.0000      -767.0000      -669.0000      -753.0000    
  -319.0000       661.0000       753.0000       470.0000       220.0000    
  -112.0000       267.0000       385.0000      -401.0000      -469.0000    
   421.0000       488.0000      -552.0000      -647.0000      -20.00000    
   261.0000       113.0000      -192.0000      -212.0000      -307.0000    
  -608.0000      -569.0000      -232.0000       56.00000       200.0000    
  -64.00000      -47.00000       220.0000      -16.00000      -484.0000    
  -591.0000      -180.0000       114.0000       305.0000       738.0000    
   694.0000       163.0000      -169.0000      -314.0000      -315.0000    
   356.0000       932.0000       644.0000      -12.00000      -81.00000    
   242.0000      -27.00000      -617.0000      -701.0000      -491.0000    
  -168.0000       333.0000       494.0000       325.0000       51.00000    
  -238.0000      -224.0000       32.00000       275.0000       435.0000    
   548.0000       181.0000      -432.0000      -538.0000      -177.0000    
   253.0000       319.0000       121.0000       212.0000       142.0000    
  -145.0000      -83.00000      -99.00000      -435.0000      -616.0000    
  -405.0000      -101.0000      -91.00000      -69.00000       99.00000    
   279.0000       309.0000       81.00000       272.0000       703.0000    
   547.0000       51.00000      -44.00000       95.00000      -95.00000    
  -413.0000      -374.0000      -410.0000      -472.0000       101.0000    
   760.0000       437.0000      -111.0000       184.0000       448.0000    
  -215.0000      -610.0000       41.00000       468.0000       271.0000    
   323.0000       275.0000      -173.0000      -471.0000      -206.0000    
   319.0000       416.0000      -197.0000      -744.0000      -541.0000    
  -84.00000       72.00000       35.00000       121.0000       204.0000    
   213.0000       59.00000      -431.0000      -572.0000      -123.0000    
