  0.1017683e-01  -2.260385       2.117960      -12345.00      -12345.00    
   9.993649       50.00895       17.68428      -12345.00       2.000000    
  -12345.00      -12345.00      -12345.00      -12345.00      -12345.00    
  -12345.00      -12345.00      -12345.00      -12345.00      -12345.00    
  -12345.00      -12345.00      -12345.00      -12345.00      -12345.00    
  -12345.00      -12345.00      -12345.00      -12345.00      -12345.00    
  -12345.00       37.45117      -121.7992       265.0000      -12345.00    
   37.51733      -121.6850      -12345.00       5.950000      -12345.00    
   1.600000      0.1100000       88.00000      0.4500000      0.9200000    
   15.00000      -12345.00      -12345.00      -12345.00      -12345.00    
   12.48615       234.0056       53.93445      0.1122927      -12345.00    
  -12345.00     -0.1576254e-02   90.00000       90.00000      -12345.00    
  -12345.00      -12345.00      -12345.00      -12345.00      -12345.00    
  -12345.00      -12345.00      -12345.00      -12345.00      -12345.00    
      1987       173        11         9        56
       363         6    -12345    -12345      3933
    -12345    -12345    -12345    -12345    -12345
         1    -12345    -12345    -12345    -12345
    -12345    -12345    -12345    -12345    -12345
    -12345    -12345    -12345    -12345    -12345
    -12345    -12345    -12345    -12345    -12345
         1         1         1         1         1
CALE    870622111018    
-12345  origin  -12345  
-12345  -12345  -12345  
-12345  -12345  -12345  
-12345  -12345  -12345  
-12345  -12345  satellit
satellit-12345  -12345  
-12345  -12345  -12345  
  0.4445087     -0.7670861     -0.9939610     -0.3277899      0.4564163    
  0.2738816     -0.7270914     -0.8477590      0.2425664e-01  0.9273304    
  0.7043515     -0.3780099     -0.6229943     -0.1033236e-02  0.5575210    
  0.3463521e-02  -1.208297      -1.263989     -0.3205410      0.5499160    
  0.3536422     -0.5156380     -0.4640159      0.3199110      0.9978206    
  0.7278400     -0.2576864     -0.3719683      0.4223208       1.163084    
  0.7676582     -0.4241014     -0.6804819     -0.9160013e-01  0.4491301    
  0.8551366e-02  -1.192069      -1.417865     -0.6339539      0.2410468    
  0.2147937     -0.5873013     -0.6058678      0.3647362       1.454989    
   1.325719      0.2532911      0.9648576e-01  0.7712111       1.307904    
  0.7699756     -0.4736689     -0.7388732     -0.5435113e-02  0.7900683    
  0.4379273     -0.7300009     -0.8713038     -0.1403562e-02  0.8691468    
  0.6906147     -0.1219595      0.6705476e-02  0.8680139       1.444735    
  0.7884604     -0.4339005     -0.5510839      0.1329702      0.5879629    
 -0.6476399e-01  -1.199795      -1.103449      0.7915889e-02  0.9239304    
  0.6654992     -0.2844408     -0.4797349     -0.2589078e-01  0.2026802    
 -0.5160013      -1.551708      -1.494214     -0.6685023     -0.1223196    
 -0.4747693     -0.9903155     -0.4641397      0.6090113       1.237776    
  0.7720000     -0.5466380e-01  0.1471603      0.8668059       1.054457    
  0.2729917     -0.7235780     -0.6771631      0.4797946e-01  0.4377640    
 -0.1759915     -0.9546463     -0.5524611      0.3265544      0.5591772    
 -0.2473652      -1.176273     -0.9592749     -0.1423515      0.2351885    
 -0.2860779     -0.8517486     -0.3718220      0.5827891       1.060300    
  0.5279980     -0.1997355      0.1164009      0.9342237       1.172217    
  0.4387014     -0.2322539      0.1142893      0.6514059      0.5162465    
 -0.4255677      -1.111622     -0.6292914      0.1983500      0.3227403    
 -0.5355862      -1.069942     -0.3567704      0.5579805      0.8299736    
  0.1483569     -0.5660663     -0.2370189      0.4319349      0.5098661    
 -0.3206743     -0.9079462     -0.3291187      0.4451818      0.6064951    
  0.3774183e-01 -0.3370426      0.9627362e-01  0.5974545      0.5839747    
 -0.1868310     -0.6425619      0.2189896e-01  0.6769025      0.5061035    
 -0.3855471     -0.7729498      0.3197746e-01  0.8237722      0.6709582    
 -0.4004703      -1.092252     -0.5671552      0.1596333      0.1970917    
 -0.6154525      -1.084506     -0.3989585      0.3202133      0.1896916    
 -0.6338142     -0.7146711      0.3812120       1.076212      0.7237868    
 -0.2507231     -0.6144359      0.5563192e-01  0.4810456      0.4463393e-01
 -0.9493110      -1.188617     -0.2041966      0.6995860      0.8448659    
  0.2019193     -0.2984925     -0.3727444e-01  0.1708049     -0.9792386e-01
 -0.6894000     -0.4755697      0.7891717       1.570327       1.221797    
  0.2047008     -0.5867775e-01  0.6920476      0.9737483      0.3492157    
 -0.6612017     -0.8016263      0.1065352      0.5415964     -0.8849234e-02
 -0.9032841     -0.8798110      0.9143282e-01  0.5735708      0.6035857e-01
 -0.9968584      -1.177855     -0.3340466      0.6249252e-01 -0.1349409    
 -0.5363606     -0.2456441      0.9047366       1.454163      0.9843544    
  0.1085705      0.1554186e-01  0.6939125      0.6580423     -0.1838847    
  -1.041109     -0.8479540      0.1932785      0.4506204     -0.2348024    
  -1.023475     -0.7632875      0.4297840      0.8938041      0.3223591    
 -0.4396222     -0.1212671       1.003811       1.149837      0.1533855    
  -1.118502      -1.334570     -0.5486779     -0.4742920      -1.229402    
  -1.809590      -1.005421      0.6642836       1.173694      0.5484489    
 -0.1553031      0.1537518       1.255009       1.453371      0.5588780    
 -0.5883480     -0.6461466      0.3408032      0.5091687     -0.2582521    
 -0.9628013     -0.6426052      0.3169720      0.3310159     -0.4808733    
  -1.233037     -0.9188625      0.2798631      0.7135338      0.2056215    
 -0.4231751     -0.2699381e-02   1.131227       1.167426      0.2277322    
 -0.7283199     -0.5857520      0.5411844      0.8357070      0.6919058e-01
 -0.8358946     -0.7249534      0.2478247      0.4591034     -0.1627623    
 -0.7672850     -0.3069040      0.8402222      0.9390184      0.1113152    
 -0.7205409     -0.4779926      0.6093733      0.6845759     -0.3290968    
  -1.317935      -1.166250     -0.1800853      0.2360848e-01 -0.6581129    
  -1.287540     -0.7269639      0.5052494      0.6530049     -0.6449744e-01
 -0.6250340     -0.8136642e-01   1.166562       1.322025      0.3644530    
 -0.5004554     -0.1452005      0.8986901      0.8596765     -0.1386275    
 -0.8979946     -0.4892131      0.4762568      0.4202612     -0.5330676    
  -1.299367     -0.9057466      0.3258046e-02 -0.6492732e-01 -0.7015837    
 -0.8818232      0.2952554e-03   1.125460       1.091209      0.3092928    
 -0.3187427     -0.4648141e-01  0.7550686      0.7064655     -0.1416880    
 -0.8171040     -0.4218178      0.4775573      0.3855638     -0.4119794    
 -0.7826491     -0.5406107e-01  0.9428051      0.8729644      0.3359072    
  0.2706857      0.8010457       1.198983      0.7302467     -0.6849336e-01
 -0.3960324      0.2057247      0.8823799      0.3881094     -0.6686332    
  -1.065148     -0.3073699      0.5585746      0.2941003     -0.5612315    
  -1.010550     -0.5167645      0.1477669     -0.1363764     -0.9009964    
  -1.138052     -0.3345319      0.5196462      0.3194846     -0.1425833    
  0.7602189e-01   1.030486       1.535925      0.7858651     -0.1765170    
 -0.4726062      0.6282896e-02  0.2888116     -0.3650991      -1.147501    
  -1.290553     -0.4789118      0.2948120      0.1178107     -0.2966095    
 -0.3187927      0.3764642      0.8365089      0.1415127     -0.6951548    
 -0.7811756      0.8825207e-01  0.8860911      0.6618806      0.1263875    
 -0.9719376e-01  0.2279764      0.3701181     -0.2112218     -0.6221976    
 -0.3566111      0.4808149      0.8967654      0.3969596     -0.8478209e-01
 -0.8058052e-02  0.6694369      0.9436240      0.3089696     -0.2728337    
 -0.2716226      0.4244038      0.6485280     -0.1892833     -0.8215638    
 -0.7206832     -0.8550429e-01 -0.2586977e-02 -0.8635098      -1.393061    
 -0.9719235      0.1820313      0.8115216      0.3535931     -0.5524546e-01
  0.2897098       1.246028       1.427770      0.3295432     -0.6259937    
 -0.6420124      0.4145404e-01  0.1036115     -0.7697080      -1.265393    
 -0.8041287      0.3557620      0.7191139     -0.5071864e-01 -0.3562188    
  0.1944300      0.9925075      0.8845539     -0.1686184     -0.7786271    
 -0.4490888      0.3978034      0.3722002     -0.6021335     -0.9756277    
 -0.4776098      0.4003477      0.4316044     -0.6491534      -1.249757    
 -0.7063322      0.4582164      0.7957512      0.1723812      0.1170665    
  0.7973284       1.571614       1.326257      0.1353946     -0.4620693    
 -0.1703997      0.5419266      0.4315907     -0.6267644     -0.8977522    
 -0.1170566      0.7502393      0.5453084     -0.5826229      -1.211582    
 -0.9654127     -0.2682694     -0.4717545      -1.493816      -1.463408    
 -0.3241621      0.8721731      0.9588509      0.2326787      0.1851383    
  0.7914050       1.490037       1.286676      0.2598704      0.7314526e-01
  0.9160040       1.704535       1.075223     -0.4505853     -0.9238671    
 -0.4109727     -0.1284309e-01 -0.6740531      -1.792234      -1.751897    
 -0.7487741      0.3036678      0.3787253     -0.2383529      0.9416864e-01
   1.195640       1.920310       1.266335     -0.2362500     -0.7472363    
 -0.1695776      0.5212247      0.1566900     -0.8478484     -0.7185336    
  0.2281280      0.8719488      0.4384796     -0.5785237     -0.6013201    
  0.2062648      0.8372568      0.2802400      -1.053247      -1.435610    
 -0.7227438      0.1993445      0.6007891e-01 -0.7083749     -0.3930738    
  0.7053338       1.519569       1.051919     -0.8132325e-01 -0.1058811    
  0.6974007       1.280641      0.7452347     -0.4242894     -0.5442085    
  0.2104429      0.7437056      0.1502625     -0.9722098     -0.9788651    
 -0.1428545e-02  0.9507861      0.7111748     -0.3077039     -0.2616399    
  0.5994076      0.9452993      0.9932856e-01  -1.036025      -1.015702    
 -0.1309336      0.6824389      0.4485462     -0.4212275     -0.3934009    
  0.3997083      0.9020039      0.3633946     -0.5014241     -0.4370986    
  0.1861129      0.4622544     -0.1695821     -0.9576861     -0.7999010    
 -0.2129685e-01  0.6378220      0.3172750     -0.5327175     -0.4939246    
  0.2256123      0.5712425     -0.1055332e-01 -0.7615539     -0.6916627    
 -0.1237836      0.8341805e-01 -0.7393432      -1.518265     -0.8617499    
  0.3052647      0.7190894      0.4045108e-01 -0.7621315     -0.4875939    
  0.2868399      0.6432967      0.2030806     -0.3336810      0.4389380e-01
  0.7592234      0.8502570      0.4468407e-01 -0.5403138      0.9903360e-01
  0.9941421       1.141868      0.3428967     -0.4892959     -0.2474471    
  0.4353249      0.3478041     -0.7193382      -1.428528     -0.9022139    
 -0.7417872e-01  0.2102620     -0.1599061     -0.2512954      0.5621559    
   1.357685       1.288035      0.1882009     -0.7611600     -0.5732398    
 -0.1167250     -0.2915743      -1.147402      -1.452490     -0.5861736    
  0.2989103      0.4843288     -0.1883576e-01 -0.1962094      0.5419587    
   1.118963      0.8836342      0.2597901e-01 -0.3003875      0.4022184    
  0.9677492      0.8135999      0.4406803e-01 -0.3508828      0.1555758    
  0.5418282      0.1359557      -1.007379      -1.555230     -0.8246475    
 -0.9938503e-01 -0.1499978     -0.8212512     -0.9504079      0.5177116e-01
  0.9981637       1.053094      0.2602299     -0.2608026      0.1826680    
  0.6573200      0.5040198     -0.2854383     -0.6366173      0.6453718e-01
  0.6527323      0.3913248     -0.5353963     -0.7821732      0.1498142    
  0.7872154      0.4341224     -0.5310539     -0.8424594     -0.1204171    
  0.3927512      0.1174923     -0.7592208     -0.9653395      0.3968363e-02
  0.6821237      0.3415170     -0.5144351     -0.4533330      0.7626166    
   1.514674       1.073010     -0.2252104     -0.8887275     -0.3142178    
  0.1311310     -0.1762434     -0.7778971     -0.3972687      0.8148891    
   1.197398      0.5584610     -0.4962566     -0.7054960      0.1134859    
  0.3639166     -0.3084331      -1.180218      -1.138679     -0.2627369    
  0.1752537     -0.4621926e-01 -0.4961925     -0.3261309e-02   1.331407    
   1.777049       1.107972      0.4827170e-01 -0.2595327      0.3226432    
  0.4229999     -0.2045337     -0.9208388     -0.6956516      0.3090042    
  0.4993866     -0.2854769      -1.130638     -0.8466696      0.2546560    
  0.5096798     -0.7768673e-01 -0.6210099     -0.1150338       1.058008    
   1.196907      0.2606659     -0.7993196     -0.7608999      0.2123660    
  0.3325909     -0.5596839      -1.391191      -1.045730     -0.2377339e-01
 -0.2278742e-01 -0.8788916      -1.543575     -0.9213582      0.4694412    
  0.7579860      0.1661378     -0.3603904      0.8546548e-01   1.412563    
   1.900549       1.177973      0.1342990      0.7848310e-01  0.8489650    
  0.7715094     -0.2024598      -1.241254      -1.199969     -0.1609881    
  0.1722081     -0.4668150      -1.149439     -0.4754240       1.066893    
   1.323037      0.4600705     -0.3639927     -0.1492366      0.7153975    
  0.4826076     -0.5816209      -1.367639      -1.071233     -0.3646137e-01
  0.1969696     -0.3976652     -0.9628738     -0.5603881      0.5172839    
  0.7000279     -0.3444791e-01 -0.7106631     -0.3518235      0.5530988    
  0.5084090     -0.2782193     -0.8713815     -0.3697706      0.7424641    
  0.8190200     -0.4640378e-01 -0.7241657     -0.2766775      0.6521412    
  0.5668164     -0.2872880     -0.9770738     -0.6040786      0.3837428    
  0.4166209     -0.3711872     -0.9228524     -0.2927721      0.9243660    
   1.010104      0.1792559     -0.3569773      0.1472699      0.8922124    
  0.5726027     -0.3780533      -1.031797     -0.5706574      0.3998057    
  0.4243598     -0.2088949     -0.5996723      0.1282373e-02  0.9936920    
  0.8834857     -0.7471451e-02 -0.5144509      0.6455979e-01  0.8875373    
  0.5290369     -0.6215402      -1.291357     -0.6264009      0.3781661    
  0.3055728     -0.2849391     -0.4930162      0.1201997      0.8753569    
  0.7033966      0.4162879e-01 -0.2543617      0.4037044       1.173870    
  0.7050045     -0.2280249     -0.3923729      0.3635534      0.9178568    
  0.3781836     -0.5273638     -0.8836706     -0.2327070      0.4180180    
  0.2284090e-01 -0.6442419     -0.7755457     -0.9860908e-01  0.5418341    
  0.3007691     -0.1580392     -0.1373132      0.5608891      0.9334386    
  0.1641949     -0.7475539     -0.8452929      0.2387673e-01  0.5463392    
 -0.3241321      -1.429596      -1.654521     -0.8001922     -0.1092613e-01
 -0.1935345     -0.4709612     -0.2415549      0.5205566      0.9513562    
  0.4522819     -0.6925631e-01  0.5647249e-01  0.9244012       1.389606    
  0.6869742      0.2104186e-01  0.1235913      0.7616224      0.8106540    
 -0.2417613      -1.130486     -0.9388254      0.1789302      0.7975809    
  0.2259714     -0.4119763     -0.3474673      0.4201438      0.6918889    
 -0.3737719e-01 -0.5710790     -0.2965654      0.4766912      0.4705038    
 -0.3566028     -0.6533937     -0.3108415      0.3253561      0.2895617    
 -0.6931143      -1.271347     -0.7882230      0.4208434      0.9016619    
  0.2028319     -0.3122286     -0.6133765e-01  0.6919530      0.7535880    
 -0.1465919     -0.6549208     -0.3892499      0.2669393      0.2733065    
 -0.5622409     -0.8818189     -0.2555183      0.7109885      0.7143686    
 -0.2775095     -0.7518387     -0.2818349      0.7582809      0.9877272    
 -0.1384830e-01 -0.5005991      0.2252538       1.319909       1.240305    
  0.6042767e-01 -0.5268632     -0.2283508      0.3675996      0.5238700e-01
  -1.304801      -1.974190      -1.343213     -0.9729670e-01  0.3516389    
 -0.2477724     -0.4837816      0.1229331       1.129863       1.239528    
  0.2682792     -0.2306749      0.8889572e-01  0.6889659      0.4487058    
 -0.6749658      -1.176769     -0.7903765     -0.1046589e-01  0.9169181e-01
 -0.5886351     -0.5650017      0.3721301       1.316247      0.9673082    
 -0.3600262     -0.6893664      0.9560451e-01  0.8429114      0.3602002    
 -0.9267951      -1.198802     -0.4153293      0.5497380      0.5928065    
 -0.1561698     -0.1353053      0.7045460       1.567053       1.378767    
  0.3710354      0.1638498      0.6667011       1.018486      0.3520895    
 -0.8916832     -0.9523383     -0.1772883e-02  0.7541520      0.3017066    
 -0.8323176     -0.9600794     -0.2515163      0.4780155      0.3363131    
 -0.6475362     -0.9731544     -0.3001178      0.7170762      0.6873503    
 -0.4324674     -0.7111878      0.1547054       1.083541      0.6414114    
 -0.8345937      -1.266892     -0.6309187      0.6648050e-01 -0.9907630e-01
 -0.9326664     -0.9586448     -0.9225726e-01  0.9501444       1.103335    
  0.4168886      0.3298610      0.9193921       1.490612       1.030552    
 -0.1290313     -0.4205754      0.1657802e-01  0.4714932      0.1159161    
 -0.7990843     -0.7797253      0.1220080      0.9344227      0.5659028    
 -0.6525097      -1.037268     -0.4924558      0.1210369     -0.1716903    
 -0.9921468     -0.7955987      0.1842418      0.8704530      0.4538349    
 -0.4111145     -0.2576843      0.5997971       1.234983      0.7928005    
 -0.2368610     -0.2818022      0.5260794       1.210742      0.8305221    
 -0.2109245     -0.4292683      0.1875848      0.6903036      0.8724270e-01
 -0.9527977     -0.9077269     -0.1111217      0.3385038     -0.2325769    
  -1.030360     -0.8331155      0.1157673      0.8076260      0.2281654    
 -0.8234899     -0.8138571     -0.2697847e-01  0.5274528      0.1096344    
 -0.6307923     -0.5023124      0.2171584      0.6365411      0.5380407e-01
 -0.8447265     -0.7520661      0.9433793e-01  0.6522439      0.1868381    
 -0.4528338     -0.1084432      0.6752021      0.9705307      0.2684028    
 -0.6709737     -0.6621318      0.1272279e-01  0.3428378     -0.2974643    
 -0.9083553     -0.4488819      0.3441459      0.5465814     -0.2694342    
  -1.064923     -0.5640919      0.4618979      0.7452871      0.2063514e-01
 -0.4329536      0.2377360       1.028687      0.9763991     -0.4165926e-01
 -0.7996718     -0.4192517      0.2402868      0.3270706     -0.5136624    
  -1.088642     -0.3537920      0.4531909      0.4112304     -0.2829105    
 -0.6241179     -0.6936908e-01  0.6122310      0.9288041      0.5744467    
  0.2056943      0.6330014       1.074574      0.7460496     -0.3731210    
  -1.068211     -0.5455644      0.1359648      0.1191367     -0.6446147    
  -1.043282     -0.4642762      0.4359145e-01 -0.1758243      -1.087750    
  -1.416028     -0.4559727      0.4907700      0.5555323     -0.1309368    
 -0.3185678      0.5476411       1.320338       1.279028      0.5434503    
  0.2721357      0.8072235      0.9769085      0.3824551     -0.7280936    
  -1.217110     -0.5585042      0.7737676e-01  0.3183677e-01 -0.6229430    
 -0.6902753      0.2962412      0.9455351      0.6816679     -0.1921494    
 -0.4079395      0.4930524       1.033689      0.5506195     -0.4293649    
 -0.5686613      0.2346251      0.5749450      0.1732494     -0.6396783    
 -0.9540319     -0.5135854     -0.3755600     -0.8168988      -1.497192    
  -1.332322     -0.3778517e-01  0.9746448      0.9149369      0.6491054e-01
 -0.1374933      0.7390839       1.266535      0.8688512      0.4282435e-02
 -0.1373466      0.5113808      0.6230614     -0.4512783e-01  -1.009551    
