  0.1017683e-01  -2.832698       2.896038      -12345.00      -12345.00    
   9.993649       50.00895       17.68428      -12345.00       2.000000    
  -12345.00      -12345.00      -12345.00      -12345.00      -12345.00    
  -12345.00      -12345.00      -12345.00      -12345.00      -12345.00    
  -12345.00      -12345.00      -12345.00      -12345.00      -12345.00    
  -12345.00      -12345.00      -12345.00      -12345.00      -12345.00    
  -12345.00       37.34933      -121.5327       628.0000      -12345.00    
   37.51733      -121.6850      -12345.00       5.950000      -12345.00    
   1.600000      0.1100000       88.00000      0.4500000      0.9200000    
   15.00000      -12345.00      -12345.00      -12345.00      -12345.00    
   23.01061       144.0836       324.1770      0.2069521      -12345.00    
  -12345.00     -0.9691402e-03         0.       90.00000      -12345.00    
  -12345.00      -12345.00      -12345.00      -12345.00      -12345.00    
  -12345.00      -12345.00      -12345.00      -12345.00      -12345.00    
      1987       173        11         9        56
       363         6    -12345    -12345      3933
    -12345    -12345    -12345    -12345    -12345
         1    -12345    -12345    -12345    -12345
    -12345    -12345    -12345    -12345    -12345
    -12345    -12345    -12345    -12345    -12345
    -12345    -12345    -12345    -12345    -12345
         1         1         1         1         1
CAON    870622111018    
-12345  origin  -12345  
-12345  -12345  -12345  
-12345  -12345  -12345  
-12345  -12345  -12345  
-12345  -12345  satellit
satellit-12345  -12345  
-12345  -12345  -12345  
   1.852597      0.4053028     -0.1746724      0.2317224      0.6271765    
  0.1311659e-01  -1.142380      -1.206098     -0.2819051      0.4538481    
  0.1832939e-01 -0.9502825     -0.9229204     -0.1495708      0.3156017    
 -0.2734309      -1.156331     -0.9109929      0.6999750e-01  0.7464108    
  0.4244348     -0.2802036     -0.1341206      0.5854961      0.9470890    
  0.2837325     -0.6065976     -0.3437368      0.6358038       1.088140    
  0.2656230     -0.8849110     -0.8755611     -0.1121121      0.3522160    
 -0.1884504      -1.011203     -0.7315153      0.2584803      0.7216999    
 -0.1593943      -1.272388     -0.9991747      0.3812488e-01  0.6099100    
  0.1435302     -0.5067049     -0.1379999      0.7502413       1.199183    
  0.6690575      0.6376075e-02  0.4047863       1.158267       1.291641    
  0.4393589     -0.6135929     -0.7746074     -0.6945198      -1.094275    
  -1.838856      -1.971993     -0.9481512      0.2029519      0.5368038    
 -0.2418959      -1.002637     -0.6134616      0.1250371      0.3043825    
 -0.3292058     -0.7142877      0.9940668e-01   1.168466       1.514911    
  0.9250988      0.6102915       1.391062       2.147076       2.064829    
   1.010037      0.3493373e-01  0.1103816      0.4248338      0.1317996    
 -0.8844309      -1.500182     -0.9718137     -0.3293142     -0.3608265    
  -1.043238      -1.227987     -0.3398949      0.4199470      0.3198135    
 -0.4502444     -0.6957713      0.1237700      0.7700893      0.4320805    
 -0.6660420      -1.180363     -0.4187332      0.4209507      0.3402275    
 -0.5428010     -0.7947628      0.9194036e-01  0.6911941      0.2763318    
 -0.7266333     -0.9638576     -0.8216220e-01  0.5734820      0.3203591    
 -0.6041337     -0.8406299      0.8507096e-01  0.8317278      0.7597339    
  0.7182588e-01  0.1343358e-01  0.9798083       1.465778      0.8929713    
 -0.9028770e-01 -0.1422848      0.8432589       1.269150      0.5816298    
 -0.6641587      -1.182020     -0.5698619     -0.1225350     -0.5868165    
  -1.551095      -1.591889     -0.5539151      0.6118978e-01 -0.1565552    
 -0.6931981     -0.3348446      0.9381611       1.518824       1.154109    
  0.5453006      0.7364166       1.648157       1.879471       1.184312    
  0.7370715e-01 -0.2493381      0.3359438      0.3231585     -0.5139362    
  -1.557058      -1.640923     -0.7109122     -0.4487934      -1.056855    
  -1.615903      -1.083403      0.2402104      0.6639666      0.4586778e-01
 -0.6822300     -0.3948708      0.6847131      0.8612703      0.2565470e-01
 -0.7401292     -0.3136049      0.8476011      0.9299288     -0.2391638e-01
 -0.8984619     -0.4981523      0.9124165       1.327040      0.4795380    
 -0.4769948     -0.2370004      0.9238738       1.103013      0.9885925e-01
  -1.025088     -0.9337680      0.5112293e-01 -0.5568026e-01  -1.183846    
  -1.989544      -1.234788      0.5552678       1.235273      0.5952393    
 -0.2738816     -0.1315841      0.8336307      0.9214665      0.1757093e-01
 -0.8795200     -0.5360215      0.7033369      0.9461064      0.7999285e-01
 -0.9360493     -0.8720162      0.1166388      0.3288297     -0.3061467    
  -1.014950     -0.6715380      0.6212710      0.9402232      0.1038433    
 -0.7638002     -0.4221321      0.8289636       1.141639      0.4095943    
 -0.4410288     -0.2530990      0.7419991      0.8405198      0.8148752e-01
 -0.6545431     -0.4085300      0.5858868      0.6614370     -0.3021126    
  -1.390274      -1.454483     -0.6131016     -0.4886804      -1.225707    
  -1.925229      -1.486028     -0.1867157      0.1499508     -0.6315404    
  -1.298456     -0.6521342      0.7349105       1.131872      0.6272837    
  0.1490216      0.6226555       1.580856       1.387160      0.2958083    
 -0.4438954      0.7022321e-01   1.120924       1.099748      0.2142110    
 -0.4487485     -0.3392347e-01  0.7693974      0.4958285     -0.3849608    
 -0.7512329      0.6033213e-01   1.250310       1.164157      0.7625170e-01
 -0.6666293     -0.2207775      0.5594141      0.3568113     -0.4038407    
 -0.8009192     -0.2565391      0.4575601      0.6458664e-01 -0.9723843    
  -1.497797     -0.8119236      0.2086548      0.2272889     -0.3887894    
 -0.6588144      0.5382532e-01  0.9186991      0.6377755     -0.3107606    
 -0.7200993      0.4071116e-01  0.9827901      0.9246838      0.3461657    
  0.1044780      0.7484103       1.354338      0.7201155     -0.3880350    
 -0.8245736     -0.1736327      0.4772467      0.4130496e-01 -0.6712411    
 -0.6990665      0.1910203      0.8816584      0.4858525     -0.2626241    
 -0.6784014     -0.2251038      0.2820280     -0.2053541     -0.9143033    
  -1.036154     -0.2952270      0.3124282     -0.9296177e-01 -0.5703810    
 -0.3758208      0.5842833       1.244450      0.7657915      0.1627041    
  0.1692646      0.7861629      0.9670950      0.8472953e-01 -0.7890242    
 -0.9744554     -0.3233903      0.2358070     -0.1863972     -0.7753692    
 -0.7189511      0.6656833e-01  0.4282800     -0.2466703     -0.7905383    
 -0.5806443      0.2402702      0.5250636     -0.2971683     -0.9793683    
 -0.8191380      0.4471677e-01  0.3935097     -0.3747087     -0.9259360    
 -0.4297491      0.8717130       1.578300       1.058074      0.6859257    
   1.207734       2.129704       2.019780      0.5917451     -0.5551940    
 -0.7204827     -0.2399089     -0.3347404      -1.335033      -1.823394    
  -1.228603     -0.8046832e-02  0.4973016     -0.9350969e-02 -0.2792127    
 -0.3871089e-01  0.4875513      0.2968518     -0.8460114      -1.432568    
 -0.9586396      0.1275328      0.4534338     -0.3499770     -0.5987060    
  0.2670838       1.460135       1.571312      0.4961425     -0.1757793    
  0.1317557      0.9960577       1.064144      0.2107370e-01 -0.7110430    
 -0.6447786     -0.1359960     -0.3520253      -1.337232      -1.581739    
 -0.8092695      0.4214342      0.7412180     -0.1023228     -0.4281290    
  0.2012538       1.068242       1.027883      0.2451218      0.1982650    
  0.9287920       1.787169       1.612633      0.3133875     -0.5464551    
 -0.5322210     -0.1301619     -0.5219955      -1.650279      -1.901907    
  -1.089259      0.2506037e-01  0.1405722     -0.6128219     -0.5159833    
  0.4059527       1.127416      0.5778226     -0.7366242     -0.9555767    
  0.3274484e-02   1.113205      0.9976892     -0.6363678e-01 -0.1680967    
  0.6855606       1.460030      0.9957443     -0.4085281     -0.8700503    
 -0.1710438      0.7573076      0.6363631     -0.3864442     -0.5773345    
  0.1694087      0.8439862      0.2384057      -1.199040      -1.587320    
 -0.8614777      0.9278969e-01  0.4542068e-01 -0.8820248     -0.9001448    
  0.1169748       1.143930      0.9981900      0.7589562e-01  0.8600315e-01
  0.9133251       1.596164      0.9698364     -0.5172231     -0.9093168    
 -0.3041764      0.3228256     -0.8027448e-01  -1.254622      -1.427583    
 -0.4865038      0.5339003      0.3674904     -0.5531335     -0.4008704    
  0.6760721       1.608911       1.283751      0.1615742      0.5368366e-01
  0.8308836       1.479765      0.9806203     -0.2262059     -0.4253040    
  0.3166508      0.8560489      0.8302359e-01  -1.260709      -1.386788    
 -0.4760943      0.3373956     -0.1584808      -1.361102      -1.426824    
 -0.4039984      0.5503389      0.1620160     -0.9123816     -0.7762806    
  0.4175420       1.443278       1.226689      0.4654662      0.7033152    
   1.541768       1.885553       1.014595     -0.2558884     -0.4176192    
  0.3361344      0.9306213      0.4040037     -0.6248967     -0.7650921    
 -0.1338574      0.3079501     -0.3644915      -1.335605      -1.166929    
 -0.2336563      0.3647105     -0.2417454      -1.223798      -1.131418    
 -0.3692361     -0.2903759e-01 -0.6605520      -1.343147     -0.9974337    
 -0.2422621     -0.7583164e-01 -0.8013783      -1.249980     -0.4395874    
  0.7217805       1.099874      0.2863898     -0.5876799     -0.3546398    
  0.3747270      0.6483172      0.5205728e-01 -0.3979920      0.2777039    
   1.201319       1.341909      0.4315192     -0.3744026      0.7972393e-01
   1.016285       1.274913      0.4611517     -0.2001792      0.2814982    
  0.9604546      0.9720126      0.6107216e-01 -0.7174355     -0.3454199    
  0.3397820      0.3518235     -0.6049822      -1.279223     -0.6855330    
 -0.2693388e-02 -0.2086292      -1.201361      -1.717650      -1.067350    
 -0.3325129     -0.2751064     -0.8850949      -1.027709     -0.6447850e-01
  0.8273492      0.8221864     -0.2555094e-01 -0.4667469      0.2855285    
   1.084104       1.016633      0.1678294     -0.2217537      0.4304340    
   1.043111       1.002655      0.3441303      0.1441579      0.8597441    
   1.201507      0.6135295     -0.6608354      -1.453881      -1.094934    
 -0.6869993      -1.013582      -1.968122      -2.158418     -0.9913684    
  0.8531558e-01  0.2929764     -0.1063424      0.1159810       1.339037    
   2.275744       2.293669       1.515822       1.058212       1.252409    
   1.027013      0.2374045     -0.7673020     -0.9769611     -0.2245302    
  0.1518177     -0.2909843      -1.189803      -1.248490     -0.1679938    
  0.5366775      0.3629685     -0.2707929     -0.2906846      0.4498729    
  0.6243382     -0.8794758e-01  -1.126520      -1.270628     -0.4918151    
 -0.3054937      -1.021479      -2.025379      -1.959147     -0.6494830    
  0.3073294      0.4868819      0.2710987      0.6982262       1.838103    
   2.125245       1.340879      0.2937064      0.2123456       1.049735    
   1.208173      0.4044847     -0.6499196     -0.7016551      0.2711710    
  0.6284423      0.8853606e-01 -0.5532793     -0.2297695      0.7368343    
  0.7053671     -0.2637598      -1.191191     -0.8995591      0.3677628    
  0.7445103      0.6979804e-01 -0.6655623     -0.3154848      0.7619501    
  0.6957958     -0.6471261      -2.017365      -1.810305     -0.3016102    
  0.3855624     -0.4457803e-01 -0.6574188     -0.2865863      0.8456621    
  0.8479549     -0.2766221      -1.218457     -0.9374483      0.1075653    
  0.2620021     -0.4613667      -1.127636     -0.6418897      0.6684267    
  0.9664066      0.1951428     -0.6695259     -0.4585038      0.6497574    
  0.9287641      0.3181506     -0.3235572      0.5610794e-01   1.237823    
   1.450010      0.5817762     -0.4082267     -0.3703994      0.4559816    
  0.3594370     -0.6671751      -1.592745      -1.185152      0.2534665    
  0.8004723      0.2390988     -0.5363054     -0.3231362      0.6529323    
  0.6541014     -0.2374154     -0.9801365     -0.5677494      0.6222919    
  0.7018052     -0.4391372      -1.605139      -1.520924     -0.4078696    
  0.5041066e-01 -0.3513241     -0.7380782     -0.3698019e-01   1.281851    
   1.506387      0.7002012     -0.1204525      0.9643392e-01  0.8560921    
  0.5765463     -0.3495667     -0.8786882     -0.3105777      0.7088293    
  0.5640027     -0.5053942      -1.300657     -0.8505449      0.2396647    
  0.3620890     -0.3083362     -0.7125022     -0.5900677e-01   1.017443    
  0.9892437      0.2698508e-01 -0.6242132      0.5164004e-01   1.257397    
   1.226246      0.1994432     -0.4703170      0.1054740      0.9998716    
  0.5470142     -0.9119225      -1.960670      -1.445084     -0.1310075    
  0.1797426     -0.3348735     -0.5341493      0.2992158       1.337514    
   1.246181      0.4261004     -0.7557412e-01  0.4399319       1.084811    
  0.6190552     -0.3035800     -0.6884273     -0.1559365      0.3620299    
 -0.2227711      -1.179802      -1.392934     -0.5099013      0.3600862    
  0.1490586     -0.3917321     -0.3614684      0.5266088       1.362785    
   1.155539      0.5328091      0.3442485      0.9753585       1.454430    
  0.7239351     -0.4619237      -1.204468     -0.9861078     -0.5190763    
 -0.8982017      -1.586449      -1.617695     -0.6327751      0.1870226    
 -0.1048263     -0.5570547     -0.3387089      0.5738374       1.004380    
  0.3133245     -0.3626109     -0.3582067      0.3013429      0.6647162    
  0.4773466e-01 -0.5315264     -0.2896496      0.6347377      0.9419226    
  0.2263474e-01 -0.8010938     -0.7542157      0.5766938e-01  0.5676057    
  0.1727587     -0.6471032e-01  0.4493251       1.461854       1.708585    
  0.6873794     -0.2552756     -0.3624135      0.2783254      0.4982409    
 -0.3714063      -1.141727      -1.012171     -0.1391135      0.2036549    
 -0.5227981     -0.9980434     -0.5998770      0.3358040      0.6633223    
 -0.3183088e-01 -0.5411426     -0.2402430      0.6906154      0.9088269    
 -0.1223252     -0.8517663     -0.5450446      0.3415749      0.5426422    
 -0.2032969     -0.5326270      0.2589690e-01   1.101204       1.470010    
  0.6739904      0.2817476e-01  0.1027617      0.5805771      0.3680259    
 -0.7040623      -1.216460     -0.7548023      0.2185568      0.3924709    
 -0.5027229     -0.9173743     -0.3875762      0.5151290      0.4835855    
 -0.4775051     -0.6985588      0.5652270e-01   1.066429       1.105080    
  0.1766298     -0.1710271      0.3271953       1.091602      0.9975335    
  0.3510034e-01 -0.2985999      0.2515135      0.9010762      0.3177839    
  -1.252097      -2.093798      -1.922779      -1.208897      -1.108119    
  -1.685589      -1.486187     -0.4429009      0.6723905      0.7776483    
  0.2207678e-01  0.2380935e-01  0.9263855       1.832784       1.567492    
  0.4129834      0.1165374      0.7550852       1.482855       1.178053    
 -0.5397343e-01 -0.4852794      0.1386931      0.8413141      0.3333020    
  -1.016945      -1.330529     -0.5848902      0.2504230      0.5348942e-01
 -0.9081127     -0.9318972     -0.5657886e-01  0.7996367      0.5616241    
 -0.4599511     -0.4045863      0.8085671       1.991645       1.795746    
  0.4035139     -0.3487444      0.1422600e-01  0.5802737     -0.6836278e-01
  -1.494675      -1.669659     -0.7278223      0.1285019     -0.1446439    
  -1.163902      -1.227340     -0.3335187      0.5636048      0.2764481    
 -0.8799096      -1.001770     -0.3239417e-02   1.052411      0.8678674    
 -0.2764426     -0.4375417      0.4668037       1.366024       1.030547    
 -0.2319599     -0.4513636      0.4827160       1.451271       1.216207    
  0.7690072e-01 -0.2403813      0.2818806      0.8558108      0.4580970    
 -0.6641939     -0.8301147     -0.1006499      0.5439935     -0.3441958e-01
  -1.354550      -1.420899     -0.4020605      0.5029908      0.2516270    
 -0.6952922     -0.5199159      0.5827232       1.262412      0.5498883    
 -0.7543459     -0.8056660      0.1913332       1.037368      0.7644829    
 -0.9345362e-01  0.4071295e-01  0.9611430       1.536678      0.8601589    
 -0.3218518     -0.2967535      0.4783782      0.7003475     -0.2024216    
  -1.376675      -1.307263     -0.3688406      0.1463445     -0.4727275    
  -1.353142      -1.115464     -0.1942689      0.3673133     -0.1273357    
 -0.9079400     -0.5429568      0.5444902       1.203315      0.7026412    
 -0.1489424      0.1133877       1.056536       1.358864      0.3476034    
 -0.8399203     -0.7578631     -0.8883021e-02  0.2722587     -0.4704807    
  -1.403576      -1.224781     -0.3281541      0.1280653     -0.5120544    
  -1.162879     -0.5406836      0.5128815      0.8927908      0.3014848    
 -0.3275744      0.9376024e-01  0.9120556       1.089362      0.2764469    
 -0.4893668     -0.1710678      0.4889763      0.5599716     -0.1972166    
 -0.7863559     -0.3637775      0.3698998      0.6434873      0.6696635e-01
 -0.3583318      0.3324305       1.128762       1.099170      0.1138222    
 -0.6875175     -0.2795341      0.4694947      0.6209363     -0.1114633    
 -0.7015749     -0.2375338      0.3351092      0.1916306     -0.6852704    
  -1.269976     -0.9199573     -0.4971208     -0.5833870      -1.298173    
  -1.712396      -1.081138     -0.1989175      0.3064047      0.1139619    
  0.2439464e-01  0.7614775       1.340567       1.005638     -0.8278716e-01
 -0.5685403      0.1721271      0.9083737      0.8396810      0.1253971    
 -0.3338692e-01  0.7517264       1.320104       1.052196     -0.2775215e-01
 -0.6620242     -0.5430327e-01  0.5810742      0.3833558     -0.5474281    
 -0.9515899     -0.1444831      0.6269779      0.5078087     -0.2799466    
 -0.5106612      0.1128607      0.3391531     -0.2292847      -1.184112    
  -1.300464     -0.2722323      0.4321715      0.1622984     -0.6952559    
 -0.9039415     -0.7354268e-01  0.6037446      0.4425957     -0.3601373    
 -0.4071941      0.5785719       1.093538      0.7980726      0.1154750    
  0.4572751e-01  0.8165035       1.064834      0.2760530     -0.9139683    
  -1.094606     -0.2813981     -0.7233319e-01 -0.6649885      -1.449384    
  -1.345967     -0.2309657      0.4384277      0.2555688     -0.3035400    
 -0.1051509      0.9817474       1.420761      0.7557521     -0.3610143    
 -0.5448871      0.3154039      0.6688024      0.1287132     -0.8106702    
 -0.9580969     -0.2004776      0.2964319e-01 -0.4163048     -0.9164937    
 -0.4955081      0.7469525       1.240205      0.7280571     -0.1290011e-01
  0.1780779       1.225966       1.543222      0.8158075     -0.1612833    
 -0.1313160      0.7720417      0.8651307     -0.2654961e-01  -1.003418    
 -0.9322747      0.1268663e-01  0.1501000     -0.7279625      -1.674336    
  -1.387142     -0.2197446e-01  0.5293165      0.5145956e-02 -0.6646823    
 -0.4356880      0.4639204      0.5276747     -0.2800531      -1.152227    
  -1.007439      0.4597700e-01  0.4327430      0.9287070e-01 -0.2268553    
  0.3771267       1.651807       1.748661      0.5130411     -0.8329259    
 -0.9932244     -0.1732574     -0.4810772e-02 -0.6030924      -1.079367    
 -0.4221574      0.8786687       1.093585      0.3098502     -0.5476913    
 -0.3218693      0.7965428      0.9896238      0.2206039     -0.4733155    
