  0.1017683e-01  -10.30264       14.73351      -12345.00      -12345.00    
   9.993649       50.00895       17.68428      -12345.00       2.000000    
  -12345.00      -12345.00      -12345.00      -12345.00      -12345.00    
  -12345.00      -12345.00      -12345.00      -12345.00      -12345.00    
  -12345.00      -12345.00      -12345.00      -12345.00      -12345.00    
  -12345.00      -12345.00      -12345.00      -12345.00      -12345.00    
  -12345.00       37.34933      -121.5327       628.0000      -12345.00    
   37.51733      -121.6850      -12345.00       5.950000      -12345.00    
   1.600000      0.1100000       88.00000      0.4500000      0.9200000    
   15.00000      -12345.00      -12345.00      -12345.00      -12345.00    
   23.01061       144.0836       324.1770      0.2069521      -12345.00    
  -12345.00     -0.9879541e-03   90.00000       90.00000      -12345.00    
  -12345.00      -12345.00      -12345.00      -12345.00      -12345.00    
  -12345.00      -12345.00      -12345.00      -12345.00      -12345.00    
      1987       173        11         9        56
       363         6    -12345    -12345      3933
    -12345    -12345    -12345    -12345    -12345
         1    -12345    -12345    -12345    -12345
    -12345    -12345    -12345    -12345    -12345
    -12345    -12345    -12345    -12345    -12345
    -12345    -12345    -12345    -12345    -12345
         1         1         1         1         1
CAOE    870622111018    
-12345  origin  -12345  
-12345  -12345  -12345  
-12345  -12345  -12345  
-12345  -12345  -12345  
-12345  -12345  satellit
satellit-12345  -12345  
-12345  -12345  -12345  
  0.8855395     -0.2277486     -0.4254553      0.4439619       1.340022    
  0.9855805     -0.3202687     -0.6946439      0.1358319e-02  0.8726915    
  0.7141998     -0.3709284     -0.6548029      0.4012138e-01  0.8554389    
  0.6213671     -0.4846444     -0.6981367      0.4053593e-01  0.7547351    
  0.3887552     -0.8052344      -1.103729     -0.3689345      0.3865025    
  0.7361341e-01 -0.8908055     -0.8488849      0.1173279      0.8896266    
  0.4238172     -0.6673791     -0.6880220      0.2397837       1.075125    
  0.6957735     -0.4423553     -0.5688115      0.3450219       1.175050    
  0.7155570     -0.4669686     -0.6084818      0.1571289      0.8151860    
  0.4265618     -0.5220059     -0.4592717      0.3661309      0.8604329    
  0.3136174     -0.5585604     -0.3426515      0.5566062       1.044031    
  0.4057290     -0.6097330     -0.4791426      0.4647106       1.005798    
  0.2707753     -0.9580662      -1.086301     -0.4140395      0.3465083e-01
 -0.4532880      -1.316135      -1.213606     -0.3482350      0.2357127    
 -0.2356629     -0.9119618     -0.4754106      0.4188678      0.6958103    
  0.1096532e-01 -0.7480208     -0.4598329      0.3746919      0.6796730    
 -0.8420772e-01 -0.9126366     -0.5670111      0.4155892       1.003724    
  0.6658204      0.3369159      0.9492266       1.570623       1.382474    
  0.3269413     -0.6189274     -0.4381796      0.1473866      0.1124087    
 -0.7583057      -1.364317     -0.8708926     -0.1400329      0.1411036e-01
 -0.6454702      -1.078467     -0.3547529      0.5237259      0.5988987    
 -0.2432677     -0.8441892     -0.2745802      0.5795856      0.8000326    
  0.1980466     -0.2198865      0.1634981      0.5320368      0.3429247    
 -0.4505471     -0.7718873     -0.4276840e-01  0.6931579      0.7845560    
  0.3453333e-01 -0.4805132      0.1243367      0.6809042      0.3330800    
 -0.6987341      -1.111674     -0.3713933      0.3204539      0.3117085    
 -0.2811898     -0.2572570      0.8140491       1.464518       1.037075    
 -0.1342269     -0.8724285     -0.4617390      0.1548653      0.1189829    
 -0.6966848      -1.102720     -0.4472021      0.1447296      0.1907209e-01
 -0.7483228      -1.036084     -0.3371069      0.2336553      0.1482038    
 -0.4691845     -0.4863104      0.5374995       1.341065       1.322780    
  0.6034291      0.3030549      0.8809335       1.166090      0.6833329    
 -0.2790801     -0.5047417      0.3370932      0.8367281      0.3209187    
 -0.8099793      -1.071723     -0.2134940      0.2002869     -0.2659115    
  -1.046854     -0.9551854      0.1209575      0.7493702      0.3507726    
 -0.6979477     -0.9760458     -0.1810700      0.1728284     -0.3780888    
  -1.297164      -1.269381     -0.1702050      0.3879799     -0.8043448e-01
 -0.9072573     -0.6862855      0.5632564       1.160145      0.7403957    
 -0.6625343e-01 -0.5311669e-01  0.7879306      0.9921625      0.4505938    
 -0.1810895      0.6256484e-01   1.067667       1.245631      0.4369673    
 -0.4062895     -0.1779662      0.7616975      0.8130490      0.4088388e-01
 -0.6868704     -0.4623888      0.4290249      0.5022516     -0.2956772    
  -1.135746     -0.8748559      0.2459540      0.5171334     -0.1817215    
 -0.9734682     -0.6684014      0.5382283      0.7865648     -0.7998464e-01
 -0.9501703     -0.7516528      0.1238900      0.8647025e-01 -0.8654631    
  -1.732868      -1.315127      0.1460101e-01  0.4176657     -0.1207320    
 -0.6168280     -0.4627400e-01   1.188916       1.367395      0.5837827    
 -0.1910245      0.1141059e-01  0.8862604      0.8876562      0.1339114    
 -0.5309029     -0.3007500      0.5138336      0.4393254     -0.4890416    
  -1.314224     -0.8789283      0.3979821      0.6287884     -0.2152834    
  -1.089651     -0.7925706      0.3771605      0.6521165      0.9323664e-02
 -0.6546120     -0.2867517      0.8173561      0.9669398      0.1733080    
 -0.5953782     -0.1752493       1.095137       1.287771      0.2906164    
 -0.7050729     -0.5093229      0.2915678      0.6726388e-01 -0.8351335    
  -1.533528      -1.216398     -0.2210759     -0.4188653e-01 -0.5812367    
 -0.9324587     -0.1825226       1.039752       1.096593      0.2823035    
 -0.4255033     -0.4836945e-01   1.004500       1.043996      0.1594713    
 -0.6028322     -0.2341616      0.7706923      0.7154835     -0.3174453    
  -1.170855     -0.7609019      0.3019131      0.3259372     -0.4425616    
 -0.9121719     -0.3363319      0.6844654      0.6977187     -0.2434430    
  -1.088848     -0.7069241      0.2992705      0.2839129     -0.4997430    
 -0.9526287     -0.3196336      0.6906882      0.7907457      0.3572800    
  0.1448445      0.7539821       1.664155       1.495039      0.4836922    
 -0.1371496      0.4396478       1.203310      0.7136098     -0.4616941    
  -1.066116     -0.4177176      0.4312146      0.1206753     -0.7352042    
  -1.102494     -0.4438195      0.3140168     -0.6540667e-01 -0.8434043    
  -1.014530     -0.2630441      0.5737504      0.3478431     -0.5053458    
 -0.8588609     -0.1615130      0.5163078      0.1829490     -0.4901300    
 -0.6430570      0.1654077      0.8697690      0.3625165     -0.4927376    
 -0.6449424      0.1499811      0.7858971      0.4272231     -0.9939782e-01
 -0.9018511e-01  0.6209626      0.9993493      0.3144520     -0.3867585    
 -0.3334456      0.4388013      0.8126270      0.2487563     -0.2072466    
 -0.1837865e-01  0.7781397       1.177285      0.4762129     -0.3303614    
 -0.4479624      0.1491003      0.3659840     -0.3908024      -1.089413    
  -1.008675     -0.1517781      0.2045066     -0.4810834     -0.8899097    
 -0.5188360      0.2924231      0.4312698     -0.4064091     -0.8997415    
 -0.5815483      0.2907675      0.6894690      0.8567386e-01 -0.5437918    
 -0.5757879      0.7837579e-01  0.3084686     -0.4165451     -0.8057415    
 -0.2652191      0.8410759       1.181674      0.3860567     -0.2978690    
 -0.2880952      0.4245425      0.6493219     -0.3211924e-01 -0.2951464    
  0.2133704       1.079259       1.267312      0.5863473      0.1157493    
  0.2700610      0.8877488      0.7961074     -0.2157075     -0.8124770    
 -0.5905268      0.1681838      0.2542614     -0.6150509      -1.057107    
 -0.6187627      0.3130282      0.4623417     -0.4053502     -0.8221378    
 -0.4068832      0.3010339      0.1035088      -1.001763      -1.389257    
 -0.7866127      0.4611567e-01  0.4340656e-01 -0.7011194     -0.9328251    
 -0.4028830      0.4905080      0.5742170     -0.2064348     -0.2795551    
  0.6481892       1.676132       1.471492      0.3549635     -0.8396563e-01
  0.2665115      0.8678992      0.5975078     -0.5518374      -1.000334    
 -0.4061138      0.5395675      0.5270959     -0.4418711     -0.7799232    
 -0.1394726      0.7524779      0.6257724     -0.3630397     -0.6662180    
 -0.1319073      0.5490329      0.2580669     -0.6947888     -0.6810846    
  0.1468384      0.9111251      0.6143963     -0.4723752     -0.6463420    
  0.1300767      0.8187099      0.3006567     -0.9243227      -1.039123    
 -0.4273617e-01   1.073459       1.085466      0.1928468      0.1010306    
  0.8841531       1.614125       1.161819     -0.1039293     -0.4245411    
  0.1354813      0.6686894      0.1488939      -1.141291      -1.367289    
 -0.4321643      0.5359166      0.2937933     -0.7818276     -0.9601817    
 -0.2530818      0.4480252      0.5672032e-01  -1.086804      -1.285612    
 -0.5438281      0.2573543      0.4437990e-01 -0.8664773     -0.8402629    
  0.1657358e-01  0.7555162      0.3864309     -0.6167034     -0.5006988    
  0.5527290       1.363595       1.018991      0.6643359e-01  0.1672742e-01
  0.8695773       1.662591       1.193074      0.1072671      0.1705435    
   1.093106       1.817501       1.316603      0.1378755     -0.1466998e-01
  0.5836240      0.7708403     -0.1945578      -1.394956      -1.328555    
 -0.5004078     -0.2161286e-01 -0.6943669      -1.814916      -1.744511    
 -0.6940744      0.9445697e-01 -0.2309434     -0.8593318     -0.3967663    
  0.7339215       1.380198      0.7293770     -0.4168971     -0.5645427    
  0.3831486e-01  0.4162431     -0.2148422      -1.132214     -0.9514914    
 -0.1036930      0.3705371     -0.1452198     -0.9167820     -0.7048158    
  0.1857531      0.8394917      0.4922144     -0.1936005      0.6275443e-01
  0.8760472       1.244658      0.5461604     -0.3791493     -0.2667623    
  0.5238265       1.020631      0.4394558     -0.4619836     -0.3855377    
  0.1853275      0.3083313     -0.3805673     -0.9693847     -0.5032325    
  0.2733815      0.4283983     -0.3566540      -1.088115     -0.6520522    
  0.2120465      0.3841589     -0.4080810      -1.007593     -0.5652161    
  0.1471263      0.3654267     -0.2928224     -0.8572493     -0.3542964    
  0.4507399      0.7217705      0.1196385     -0.3042743      0.3868217    
   1.271719       1.470520      0.6327294     -0.1690353      0.1357059    
  0.6410608      0.5229123     -0.3133693     -0.8030889     -0.2260354    
  0.4380905      0.5651280     -0.1135425e-01 -0.4551575     -0.4498959e-01
  0.3523255      0.1443027     -0.6479890     -0.9573825     -0.2137702    
  0.4534657      0.3455750     -0.4696756     -0.8033794     -0.4291769e-01
  0.6465652      0.4514960     -0.5606321     -0.9686521     -0.1208314    
  0.6255667      0.4997890     -0.4267092     -0.9638847     -0.3824133    
  0.2312775      0.1067160     -0.6407212     -0.7717604      0.6644697e-01
  0.6031546      0.4236944     -0.2763825     -0.5298129      0.9201203e-01
  0.5479410      0.3026934     -0.4898477     -0.5904815      0.4327866    
   1.155421      0.8113371     -0.2160107     -0.4628464      0.3751370    
  0.8227621      0.2969692     -0.6716035     -0.7000890      0.2441452    
  0.6090816      0.8444303e-01 -0.7589120     -0.7688619      0.1291441    
  0.5416252      0.8403169e-01 -0.7463585     -0.6368853      0.4536071    
  0.7855102      0.1324161e-01 -0.9799196     -0.8447611      0.3052318    
  0.7342145      0.1409840     -0.7017357     -0.5172331      0.6620360    
   1.100983      0.4971685     -0.3407851     -0.2191637      0.7828047    
  0.9972367      0.2266123     -0.5355117     -0.2180341      0.7060789    
  0.7577390      0.1228725     -0.4808805     -0.2182186      0.7071900    
  0.8906780      0.2423942     -0.5640935     -0.4674686      0.3597272    
  0.3896304     -0.4335452      -1.361133      -1.252599     -0.1950293    
  0.2426429e-01 -0.7906700      -1.523701      -1.092703      0.7318874e-02
  0.2020244     -0.4546134      -1.103288     -0.7256888      0.3107210    
  0.4396898     -0.1997340     -0.7409877     -0.2362583      0.9536499    
   1.149865      0.4133990     -0.2776965      0.9286648e-01   1.230981    
   1.524628      0.9073928      0.1894469      0.4884567       1.530301    
   1.485477      0.4167109     -0.6603593     -0.6929429      0.2195361    
  0.3924215     -0.5026828      -1.484422      -1.100511      0.2928431    
  0.6005224     -0.2571627      -1.170622     -0.9910161      0.4635332e-01
  0.2381568     -0.6072065      -1.527072      -1.204731     -0.1663044e-01
  0.1938747     -0.5935912      -1.400955      -1.012671      0.2097505    
  0.5147980     -0.6508581e-01 -0.6158046     -0.1047923       1.074052    
   1.247024      0.4403167     -0.3258104      0.6921513e-02  0.9129617    
  0.7413643     -0.2636227     -0.9368957     -0.3407591      0.8848008    
   1.094682      0.3835415     -0.3148432      0.1022776e-01  0.9016724    
  0.6984628     -0.3655223      -1.018304     -0.3308661      0.8539053    
  0.8029345     -0.2069415      -1.020003     -0.7108759      0.1831746    
  0.8135393e-01 -0.8930160      -1.575964      -1.107287     -0.2431249    
 -0.3539384      -1.064536      -1.343677     -0.4211345      0.8177293    
  0.8685589      0.2380240      0.4250856e-01  0.8963898       1.866770    
   1.548640      0.5412883      0.1129415e-01  0.5051092       1.178337    
  0.8742806      0.1362426     -0.7386046e-01  0.6669891       1.350697    
  0.8474301     -0.1207998     -0.5314567      0.2244708e-01  0.5583205    
  0.1471490e-01 -0.8906577      -1.251352     -0.6948585     -0.3994746e-01
 -0.2570945     -0.7659851     -0.7557541      0.4945761e-01  0.6903649    
  0.2825898     -0.4750625     -0.7352235     -0.1088747      0.4027900    
 -0.2032126      -1.072366      -1.236875     -0.4940701      0.8877676e-01
 -0.2821673     -0.7737535     -0.7107548      0.4779037e-01  0.5623138    
  0.8417325e-01 -0.4720012     -0.3111072      0.6727673       1.348942    
  0.8519744      0.1685540      0.2386204       1.114766       1.531776    
  0.7982621      0.7459161e-01  0.1257390      0.8693776       1.178017    
  0.4603795     -0.2149854     -0.2511487      0.2569207      0.3246367    
 -0.4545200      -1.015820     -0.9545298     -0.2801438      0.3437193e-01
 -0.7154508      -1.334660      -1.053666     -0.1373282      0.1869112    
 -0.4963711     -0.9379287     -0.5870484      0.2645977      0.4755691    
 -0.2863333     -0.7676496     -0.4136268      0.6449825       1.234935    
  0.6019470     -0.1566132     -0.1053825      0.7670404       1.116905    
  0.4097840     -0.7246097e-01  0.2490766       1.068042       1.106879    
  0.4767331e-01 -0.6511747     -0.4258837      0.3678696      0.5644589    
 -0.1529026     -0.6321679     -0.4998416      0.1230004      0.1865192    
 -0.6652231      -1.082459     -0.6445533      0.1502466      0.6891894e-01
 -0.9244957      -1.238056     -0.5556920      0.5232825      0.7043685    
 -0.1903834     -0.5995468     -0.8794583e-01  0.7814409      0.7083691    
 -0.2969118     -0.5995357     -0.3887831e-01  0.7815794      0.7933125    
 -0.1510392     -0.4574807      0.3445850       1.417102       1.377057    
  0.3416742     -0.2987384e-01  0.4828912       1.138198      0.8029436    
 -0.3872441     -0.8670051     -0.4270627      0.2624859      0.2884907e-01
  -1.026747      -1.251600     -0.5006105      0.3772019      0.1848077    
 -0.9258478      -1.214763     -0.4109736      0.5685282      0.4593095    
 -0.4985244     -0.6334590      0.1374815      0.9381739      0.6180751    
 -0.5887198     -0.9005845     -0.1617900      0.6323830      0.2532918    
 -0.9467387      -1.104098     -0.2117154      0.6657699      0.4251768    
 -0.5331588     -0.4531337      0.5628666       1.453143       1.190156    
  0.1672354      0.5079369e-01  0.7213694       1.251749      0.7870742    
 -0.2593829     -0.3919042      0.2190251      0.8314891      0.5066212    
 -0.5800698     -0.7809547     -0.1529209      0.4439757      0.1889477    
 -0.6993679     -0.7614184      0.7077707e-01  0.9848437      0.7777275    
 -0.3300068     -0.6496571     -0.2001084      0.3516009      0.2777576e-01
  -1.031510      -1.093783     -0.2836343      0.3166577     -0.6449044e-01
 -0.8868477     -0.7562927     -0.1970114e-01  0.5603266      0.2965633    
 -0.4983563     -0.3869321      0.5206550       1.308627       1.017280    
 -0.7694782e-02 -0.1462217      0.6322863       1.358143       1.018567    
 -0.1538035e-01 -0.2150741      0.3968183      0.9131663      0.3447523    
 -0.8337768     -0.9854971     -0.2132518      0.4621627      0.5818487e-01
 -0.9025427     -0.8111451      0.1239015      0.8129836      0.4354290    
 -0.4431551     -0.4067150      0.3738472      0.8818872      0.1720535    
  -1.122050      -1.281649     -0.4418903      0.1901668     -0.2810857    
  -1.166903      -1.001541     -0.5703462e-01  0.5914150      0.1765681    
 -0.6030726     -0.3906758      0.4682903      0.9373985      0.3231464    
 -0.6825827     -0.6915691      0.2569506       1.165929      0.9971769    
  0.3713612      0.5227453       1.092223       1.217059      0.2559475    
 -0.8915532     -0.8211588      0.1811161e-01  0.5298525      0.3051017e-02
 -0.7675942     -0.5610608      0.1026213      0.2446577     -0.4974017    
  -1.132733     -0.7445464     -0.7613624e-01  0.9893274e-01 -0.4927869    
  -1.003672     -0.5430710      0.1963619      0.4123698     -0.1990141    
 -0.6665095     -0.9347484e-01  0.6372843      0.6857194     -0.9908252e-01
 -0.6333347     -0.2381525e-01  0.8451543       1.016122      0.2587202    
 -0.2693041      0.3187983       1.051644       1.076889      0.3073477    
 -0.2280581      0.2284703      0.7699379      0.6076049     -0.2807601    
 -0.7978017     -0.3078995      0.1626404     -0.5869563e-01 -0.8357387    
  -1.102335     -0.4055921      0.1243599     -0.9531428e-01 -0.8397429    
  -1.070885     -0.3246881      0.3976111      0.3701560     -0.4832332    
 -0.9632696     -0.4098460      0.1969658e-01 -0.2446163     -0.9634714    
  -1.121515     -0.2366816      0.6309414      0.7355800      0.9741869e-01
 -0.2708484e-01  0.8835253       1.489869       1.265708      0.5239400    
  0.2278454      0.7984199       1.261710      0.9908174      0.8333196e-01
 -0.2043201      0.5730631       1.001242      0.4012259     -0.8333716    
  -1.343396     -0.6530962     -0.9913980e-01 -0.3123807      -1.036911    
  -1.163206     -0.3099498      0.3217512      0.1549615     -0.6206081    
 -0.8480818     -0.1800607      0.2237336     -0.1688761e-01 -0.7471533    
 -0.9203812     -0.1026236      0.4391776      0.6023632e-01 -0.8853554    
 -0.9966781      0.1100536e-01  0.6460344      0.4676558     -0.1215989    
 -0.2389948e-01   1.049619       1.682587       1.229118      0.1900959    
 -0.1001022e-01  0.8539314       1.225113      0.6698411     -0.2111563    
 -0.2386685      0.6084761      0.8803651      0.2888662     -0.6913161    
 -0.8889310     -0.1332167      0.1232054     -0.4056503      -1.198766    
  -1.150570     -0.1525193      0.3208517     -0.7797042e-01 -0.7353209    
 -0.4935415      0.5326618      0.8352511      0.1829567     -0.8550712    
 -0.8950040      0.1379322      0.3839424     -0.4258886      -1.368041    
