  0.1017683e-01  -9.317891       11.83846      -12345.00      -12345.00    
   9.993649       50.00895       17.68428      -12345.00       2.000000    
  -12345.00      -12345.00      -12345.00      -12345.00      -12345.00    
  -12345.00      -12345.00      -12345.00      -12345.00      -12345.00    
  -12345.00      -12345.00      -12345.00      -12345.00      -12345.00    
  -12345.00      -12345.00      -12345.00      -12345.00      -12345.00    
  -12345.00       37.73000      -121.7283       190.0000      -12345.00    
   37.51733      -121.6850      -12345.00       5.950000      -12345.00    
   1.600000      0.1100000       88.00000      0.4500000      0.9200000    
   15.00000      -12345.00      -12345.00      -12345.00      -12345.00    
   23.91202       350.8081       170.7804      0.2150701      -12345.00    
  -12345.00     -0.5163167e-03         0.       90.00000      -12345.00    
  -12345.00      -12345.00      -12345.00      -12345.00      -12345.00    
  -12345.00      -12345.00      -12345.00      -12345.00      -12345.00    
      1987       173        11         9        56
       363         6    -12345    -12345      3933
    -12345    -12345    -12345    -12345    -12345
         1    -12345    -12345    -12345    -12345
    -12345    -12345    -12345    -12345    -12345
    -12345    -12345    -12345    -12345    -12345
    -12345    -12345    -12345    -12345    -12345
         1         1         1         1         1
CDAN    870622111018    
-12345  origin  -12345  
-12345  -12345  -12345  
-12345  -12345  -12345  
-12345  -12345  -12345  
-12345  -12345  satellit
satellit-12345  -12345  
-12345  -12345  -12345  
 -0.4393060      -1.185534     -0.8876722     -0.1768770     -0.2487962e-01
 -0.7473467      -1.344463     -0.7713524      0.2430513      0.6684772    
  0.1282255     -0.4046634      0.4241877e-01  0.6994473      0.6827848    
 -0.2021791     -0.8768402     -0.3750973      0.4541558      0.6526331    
 -0.7765890e-02 -0.4424053      0.2026825      0.9625884      0.9521701    
  0.5060190e-01 -0.7089932     -0.4868909     -0.2779848e-01 -0.6951482e-01
 -0.7716906      -1.130833     -0.4467394      0.3210919      0.4520333    
 -0.8307677e-01 -0.2311176      0.6379170       1.450554       1.442912    
  0.5730358     -0.8792067e-01  0.1799798      0.3907949     -0.9057537e-01
  -1.052384      -1.351261     -0.4530842      0.4814158      0.6078659    
 -0.3477500e-01 -0.2496193      0.5417039       1.135555      0.7923114    
 -0.3106358     -0.9170083     -0.3864333      0.1450621     -0.6480056e-01
 -0.8721242      -1.086233     -0.2846988      0.3336542      0.2340210    
 -0.3894081     -0.4915412      0.2400591      0.6470723      0.3084177    
 -0.5091534     -0.6482321      0.2020059      0.6502343      0.1193963    
 -0.9315994      -1.153154     -0.3509374      0.4858973e-01 -0.3682900    
  -1.208574      -1.302041     -0.3597441      0.2873851      0.1273416    
 -0.4676552     -0.2722355      0.9376284       1.604221       1.134765    
  0.1610180      0.4437146e-01  0.8297746       1.011963      0.3242979    
 -0.6201504     -0.6268972      0.3832206      0.8660648      0.4412478    
 -0.2744046     -0.8385795e-01   1.014018       1.470822      0.9751952    
  0.1309757      0.7945585e-01  0.8011371      0.7627858     -0.1372032    
  -1.041039     -0.8943954      0.8907894e-01  0.3444512     -0.2969353    
  -1.043154     -0.7894332      0.2608281      0.4732755     -0.3147282    
  -1.229482      -1.045597      0.7855082e-01  0.4008477     -0.2691679    
  -1.045932     -0.8095982      0.2125872      0.4014982     -0.1547733    
 -0.6007887     -0.1958151      0.7229459      0.6534292     -0.3221928    
  -1.241141      -1.059658     -0.3926581e-01  0.1296179     -0.6138301    
  -1.290793     -0.8007672      0.5354218      0.9670320      0.4476647    
 -0.1123803      0.3119654       1.472292       1.722264      0.9979509    
  0.1882541      0.3326709       1.077667      0.8649880     -0.4518005e-01
 -0.7440431     -0.3184012      0.8771026       1.093414      0.3219962    
 -0.4902889     -0.2420497      0.8194482      0.9354503      0.1025284e-01
 -0.9792052     -0.8221163      0.1907902      0.2215588     -0.7066149    
  -1.532236      -1.188586     -0.2913640e-01  0.2030634     -0.4893962    
  -1.064861     -0.4379451      0.8591008      0.9765679      0.3655486e-01
 -0.8843027     -0.7483516      0.9590777e-01  0.2387503e-01 -0.9613548    
  -1.894984      -1.650060     -0.5964003     -0.4522563      -1.187332    
  -1.767609      -1.150633      0.2090740      0.6225867      0.1451682    
 -0.2476725      0.3030045       1.304061       1.211582      0.2963672    
 -0.2126354      0.4890754       1.702283       1.873365       1.145044    
  0.6136807       1.178395       2.071789       1.665311      0.2943592    
 -0.7915872     -0.6914983     -0.8433900e-01 -0.4198487      -1.362988    
  -1.844130      -1.170303     -0.6760659e-01  0.1244838     -0.3441595    
 -0.5709856      0.1961219       1.242065       1.111631      0.1629532    
 -0.4831413     -0.1317303      0.4445690      0.7820468e-02 -0.9381168    
  -1.311563     -0.5640059      0.3917181      0.2966672     -0.3668172    
 -0.5410537      0.2942399       1.153108      0.8135432     -0.9394988e-01
 -0.4834445      0.1145301      0.7801051      0.3982456     -0.4064848    
 -0.6277393      0.8788496e-01  0.7040961      0.2214278     -0.5814694    
 -0.7765161     -0.8730277e-01  0.4117085     -0.2397369      -1.066688    
  -1.096604     -0.2378558      0.4086408      0.1321211e-01 -0.5516307    
 -0.4560037      0.5184177       1.276731      0.9133937      0.4547384    
  0.6858925       1.502078       1.748689      0.7626063     -0.3093460    
 -0.5998816     -0.8755868e-02  0.3693511     -0.2508469     -0.8730097    
 -0.7348976      0.2000073      0.8506170      0.5212759      0.1785538    
  0.3944154       1.084749       1.232329      0.2746312     -0.6536603    
 -0.7713023     -0.1403575      0.5871103e-01 -0.7745335      -1.458177    
  -1.235023     -0.2248419      0.3370526     -0.1653736     -0.5676954    
 -0.2123355      0.7135374       1.015888      0.1906437     -0.4901296    
 -0.3403336      0.4040855      0.5405714     -0.3241695     -0.8810318    
 -0.5581027      0.3364264      0.6066758     -0.2123891     -0.9638512    
 -0.9588767     -0.1948216      0.2136123     -0.3056871     -0.6978949    
 -0.4138647      0.3281687      0.3801738     -0.5195108      -1.046035    
 -0.7663590     -0.4986687e-01 -0.3777738e-01 -0.9443210      -1.355476    
 -0.7838839      0.3818992      0.9062930      0.4408130      0.2987515    
  0.8962722       1.800526       1.875143      0.9783044      0.5083709    
  0.8486111       1.494540       1.277547      0.1810848     -0.3058918    
  0.1017146      0.8457965      0.7864971     -0.1774634     -0.6401479    
 -0.3216162      0.2141207     -0.1399619      -1.372784      -1.922158    
  -1.421277     -0.4929493     -0.3330572     -0.9745765      -1.014563    
 -0.3272767      0.4480855      0.2835651     -0.6935437     -0.8446312    
 -0.1088543e-02  0.8925162      0.6182240     -0.5796199     -0.9098716    
 -0.1686714      0.7364855      0.5885342     -0.4034977     -0.5212690    
  0.2872184       1.075564      0.6996778     -0.5621766     -0.9237567    
 -0.3031283      0.3861713      0.1157413     -0.7916882     -0.6546184    
  0.5080433       1.681568       1.653157      0.5896861      0.2371408    
  0.8242341       1.499729       1.096838     -0.8987822e-01 -0.2576393    
  0.6138582       1.469180       1.132207     -0.1139618     -0.5982571    
 -0.2018957      0.3125433     -0.1278509      -1.205230      -1.281076    
 -0.4554681      0.3720456      0.1472124     -0.9524637      -1.317184    
 -0.7685955     -0.4501374e-01 -0.2305984      -1.094627      -1.007671    
 -0.4120224e-01  0.8929666      0.7649717     -0.1866401     -0.3319933    
  0.3685119       1.032022      0.6556904     -0.4167047     -0.6038219    
  0.9615864e-02  0.5343535      0.1969252     -0.5021293     -0.2079764    
  0.8098839       1.591702       1.169384      0.3326511e-01 -0.2090208    
  0.3822365      0.9018919      0.4024546     -0.5983452     -0.5753934    
  0.2947340      0.9533298      0.3753503     -0.7291918     -0.6824781    
  0.1811550      0.7235188      0.1520085     -0.8226413     -0.7144219    
  0.1847738      0.7396309      0.1207437     -0.9208189     -0.9373599    
 -0.1813932      0.3301805     -0.1883892      -1.016074     -0.7707624    
  0.1524295      0.6305664      0.1560144e-02 -0.8927845     -0.7063620    
  0.1685054      0.6507928      0.8209551e-01 -0.6910730     -0.3562500    
  0.6210327       1.084047      0.3726231     -0.5945031     -0.4741731    
  0.2979328      0.6348544     -0.5078194e-01 -0.8799930     -0.6628314    
  0.9067982e-01  0.2961903     -0.5147761      -1.303492     -0.9500675    
 -0.3077134e-01  0.4232809     -0.1577544     -0.7982616     -0.3663012    
  0.4918485      0.7872471      0.1055274     -0.5403037     -0.1370012    
  0.5880336      0.6792225     -0.2070883     -0.9475001     -0.4539775    
  0.5087832      0.9522714      0.5025368      0.1355301      0.7089846    
   1.413176       1.437785      0.5405832     -0.2519076     -0.7031853e-01
  0.2896782      0.1146730     -0.6935086      -1.070185     -0.3309563    
  0.5892473      0.9173807      0.3363532     -0.1603829      0.3031876    
  0.8589544      0.7176709     -0.2220662     -0.7872140     -0.2274663    
  0.4302588      0.3188117     -0.6230180      -1.141632     -0.5993892    
 -0.9634720e-01 -0.2994555      -1.105295      -1.362716     -0.6494540    
 -0.1249487     -0.3614824      -1.240330      -1.556342     -0.7147664    
  0.1060441      0.1617328     -0.4061778     -0.3717295      0.6424726    
   1.310236      0.9619626     -0.1180913     -0.5277928      0.2472815    
  0.9051523      0.7675751      0.3797786e-01 -0.7627711e-01  0.7818646    
   1.381988       1.268997      0.5945648      0.3166500      0.8104349    
  0.9754655      0.4066739     -0.5752221     -0.8363789     -0.1275987    
  0.2162256     -0.2449089      -1.066415      -1.025793      0.6304450e-01
  0.7653047      0.6181933      0.9474824e-03  0.6464396e-01   1.072324    
   1.580763       1.072743      0.1012713     -0.4992019e-01  0.7427909    
  0.9364747      0.7050605e-01  -1.204271      -1.539880     -0.8969986    
 -0.7386547      -1.239907      -1.840821      -1.585869     -0.5525673    
 -0.2069596     -0.7719126      -1.507498      -1.242511     -0.7261482e-01
  0.4405731      0.1626297e-01 -0.6669949     -0.4262886      0.6491151    
  0.9597176      0.3774388     -0.2679155      0.8569726e-01   1.188634    
   1.433810      0.7596714      0.2069249e-01  0.2626241       1.217872    
   1.259885      0.3848081     -0.4943599     -0.3096422      0.6975646    
  0.8532612      0.1097186     -0.6225521     -0.3157139      0.6703845    
  0.6580669     -0.2108772     -0.9130880     -0.4601384      0.7523314    
   1.013101      0.3133784     -0.4777243     -0.2983316      0.6413254    
  0.6187263     -0.4251281      -1.435571      -1.198559      0.2478286e-02
  0.3407359     -0.2638149     -0.8923190     -0.5860093      0.3429346    
  0.1862007      -1.023713      -2.178528      -2.085851     -0.8906219    
 -0.3527935     -0.7518241      -1.247446     -0.6843313      0.7083695    
   1.153138      0.5751572     -0.2836130e-01  0.4542889       1.627789    
   1.736551      0.8780163      0.6333189e-01  0.3005563       1.246423    
   1.276844      0.3902523     -0.4981388     -0.2789184      0.6920422    
  0.7031214     -0.1763672     -0.9964181     -0.7266509      0.2783236    
  0.3490326     -0.4398851      -1.130886     -0.8408956     -0.7338572e-01
 -0.3377107      -1.321069      -1.939461      -1.330862     -0.8965784e-01
  0.1891784     -0.3441138     -0.7331234     -0.1346147      0.9456337    
  0.9928614      0.1922484     -0.3515917      0.2741999       1.439375    
   1.504008      0.6029386     -0.9660887e-01  0.3778831       1.337167    
   1.198359      0.2322521     -0.4498435     -0.4560716e-01  0.7421603    
  0.3953156     -0.7486515      -1.468314      -1.040014     -0.1610014    
 -0.1420532     -0.7423721      -1.027257     -0.3659758      0.4844932    
  0.2238020     -0.7479320      -1.340162     -0.8434104     -0.4925257e-01
 -0.1707342     -0.7141402     -0.8013878      0.2671018e-01  0.9183983    
  0.6702762     -0.1447197     -0.4583642      0.2594078       1.071684    
  0.8070708      0.1494666      0.8490740e-01  0.8657712       1.467305    
  0.8964841     -0.1056997     -0.5364844      0.3074992e-01  0.7121300    
  0.4299199     -0.2696403     -0.4585605      0.2145379      0.7090868    
  0.1367953     -0.5726970     -0.5322942      0.3786181       1.006806    
  0.4660966     -0.3543220     -0.6513240     -0.1585604      0.2329966    
 -0.2513265     -0.7583224     -0.5908965      0.2984974      0.8376621    
  0.2988788     -0.3460376     -0.3247246      0.4444110      0.8833342    
  0.3366262     -0.1499685      0.3778536e-01  0.7442337      0.8830956    
 -0.9776971e-01 -0.9736075     -0.8699228      0.5328114e-01  0.5194556    
 -0.9089714e-01 -0.6962785     -0.6066687      0.1401349      0.4245736    
 -0.3339547     -0.9747615     -0.8036970      0.3155580e-01  0.3809772    
 -0.2488766     -0.7262917     -0.4641838      0.3977355      0.7146072    
 -0.4680741e-02 -0.5503209     -0.4146099      0.1814096      0.2829410    
 -0.4482827     -0.8788109     -0.4943722      0.4554979      0.7155690    
 -0.8358870e-01 -0.4541532      0.1990251       1.356737       1.646535    
  0.8093602      0.3202632      0.6775971       1.454332       1.444747    
  0.4400944     -0.1875245     -0.1267025e-02  0.6295653      0.4821441    
 -0.6655056      -1.332677      -1.084473     -0.3633600     -0.3422832    
  -1.226502      -1.552188     -0.8972400      0.2069711      0.4972783    
 -0.2482365     -0.5495856     -0.1439530e-01  0.7496533      0.5907117    
 -0.4496408     -0.9388599     -0.6857753     -0.1466010     -0.3959502    
  -1.504287      -1.793427     -0.9732666      0.1396773      0.3863110    
 -0.1559558      0.2321240e-01   1.038044       2.078509       1.977620    
  0.8690743      0.4255692      0.8787509       1.457010       1.073671    
 -0.9007397e-01 -0.4230365      0.2133432      0.9596408      0.6440655    
 -0.5194607     -0.8080298     -0.1253408      0.6286964      0.3601622    
 -0.7152742     -0.8708605     -0.4387501e-01  0.7151051      0.3151497    
 -0.9105874      -1.118042     -0.2027406      0.6736003      0.3494023    
 -0.7958719     -0.9895070     -0.2394188      0.4505370      0.1155874    
 -0.8594957     -0.8488300      0.3299917e-01  0.7909863      0.3883153    
 -0.8665197      -1.233367     -0.5576579      0.3222994      0.2611842    
 -0.5737333     -0.5029955      0.4879042       1.454069       1.291115    
  0.1984068     -0.8105055e-01  0.6038753       1.365492       1.118917    
  0.1250171      0.3590964e-01  0.8355931       1.584807       1.182725    
 -0.9036379e-01 -0.6048682     -0.2836545      0.1857814     -0.1542212    
  -1.023896     -0.9381526     -0.3463153e-01  0.7855420      0.4629468    
 -0.6377503     -0.8366844     -0.1971282      0.3757195     -0.1021755    
  -1.265479      -1.390069     -0.5286034      0.2337664     -0.7009983e-01
 -0.9400459     -0.7500917      0.3479147       1.243595      0.9777747    
  0.9132554e-01  0.1275378      0.9228911       1.426814      0.6963735    
 -0.5959927     -0.7729943     -0.5321383e-01  0.4645131     -0.8723437e-01
  -1.109685     -0.9546688      0.1336650      0.8364641      0.3753903    
 -0.5260586     -0.4884550      0.2423252      0.6524176     -0.5120603e-02
  -1.051050      -1.069054     -0.2639851      0.3573180     -0.1845314e-01
 -0.7364922     -0.4823364      0.3563843      0.7786587      0.1655754    
 -0.7539198     -0.7481369     -0.1707364      0.9057871e-01 -0.5046211    
  -1.142249     -0.6147977      0.5496128       1.289519      0.9637236    
  0.3543780      0.7432330       1.587948       1.803115      0.9500226    
 -0.1850505     -0.3945318      0.1963959e-01  0.2492836e-01 -0.8706372    
  -1.648303      -1.283044     -0.4836197     -0.1795642     -0.7200988    
  -1.137672     -0.4590396      0.5128267      0.7868629      0.1005924    
 -0.4591484      0.7894284e-01  0.8677273      0.9470991      0.8370926e-01
 -0.6068522     -0.2019296      0.3641120      0.2394194     -0.5024670    
 -0.7429928     -0.1774727e-01  0.6314833      0.5534689     -0.2539507    
 -0.6731713     -0.8910749e-02  0.6947494      0.6297438     -0.2856344    
 -0.8984807     -0.3621770      0.3544554      0.4054102     -0.3253772    
 -0.7561832     -0.1506405      0.5660890      0.6677274      0.7959194e-01
 -0.1529627      0.5909435       1.227551       1.021092      0.7586950e-01
 -0.4255404      0.1591373      0.7317494      0.5459742     -0.3397164    
 -0.8248637     -0.3090959      0.1460343     -0.1680487      -1.113502    
  -1.466715     -0.7320545     -0.7118880e-01 -0.9516954e-01 -0.6835691    
 -0.7467849      0.7353482e-01  0.5495287      0.1517347     -0.8459885    
  -1.202427     -0.4045765      0.4033956      0.5889316      0.2500542    
  0.4516718       1.366741       1.730016       1.278279      0.3906889    
  0.1375472      0.7768375       1.094116      0.6490068     -0.3133802    
 -0.6595773     -0.6562437e-01  0.1677593     -0.3654477      -1.185695    
  -1.111915     -0.3748113e-01  0.5227987      0.1024267     -0.7677846    
 -0.8216527      0.1291343      0.6502229      0.3173010     -0.3730877    
 -0.2665591      0.7112344       1.085217      0.4626634     -0.5546920    
 -0.6694751      0.2209758      0.5567834     -0.5799225e-01 -0.9823373    
 -0.9539522      0.1927839e-01  0.3454100     -0.2476979      -1.032855    
 -0.8543865      0.1344440      0.3891834     -0.1994701     -0.8969717    
 -0.6956502      0.2189217      0.3065345     -0.5400984      -1.429056    
  -1.153232      0.1129287      0.7303223      0.5359881      0.2099036    
  0.6622022       1.680785       1.807466       1.048298      0.1675449    
  0.1967152       1.008694      0.9622927     -0.7654195e-01  -1.129173    
 -0.9817016      0.7997793e-01  0.2638232     -0.5152780      -1.304410    
  -1.030935     -0.6360089e-02  0.6623580e-01 -0.8103807      -1.594251    
  -1.159519      0.1615366      0.6091388      0.1301579     -0.3305396    
  0.2500869       1.506120       1.672789      0.7600126     -0.1929307    
 -0.1509896      0.6871807      0.7674818     -0.3199897e-01 -0.8349619    
 -0.5298393      0.5703814      0.6813593     -0.2395448      -1.200195    
  -1.012173      0.9084085e-01  0.3299727     -0.3664927      -1.071195    
 -0.6984916      0.4523620      0.6895760     -0.1329965e-01 -0.8029466    
 -0.5533206      0.5531513      0.7856247      0.7892859e-01 -0.6743571    
 -0.4261397      0.6402689      0.9485924      0.3549474     -0.4443901    
 -0.3276483      0.5536053      0.5357312     -0.3405400      -1.152391    
 -0.9349898     -0.3059804e-01 -0.5716074e-01 -0.9262508      -1.625167    
  -1.133647      0.1492180      0.5124249     -0.8844117e-01 -0.7001091    
 -0.2907263      0.7446664      0.8488238      0.2457691     -0.1527877    
  0.4110267       1.460551       1.429363      0.3693126     -0.6754866    
 -0.5054884      0.4989066      0.6434112     -0.6086491e-01 -0.6034231    
 -0.9473183e-02   1.113946       1.111999      0.1839931     -0.5534267    
