  0.1017683e-01  -9.551890       9.315565      -12345.00      -12345.00    
   9.993649       50.00895       17.68428      -12345.00       2.000000    
  -12345.00      -12345.00      -12345.00      -12345.00      -12345.00    
  -12345.00      -12345.00      -12345.00      -12345.00      -12345.00    
  -12345.00      -12345.00      -12345.00      -12345.00      -12345.00    
  -12345.00      -12345.00      -12345.00      -12345.00      -12345.00    
  -12345.00       37.73000      -121.7283       190.0000      -12345.00    
   37.51733      -121.6850      -12345.00       5.950000      -12345.00    
   1.600000      0.1100000       88.00000      0.4500000      0.9200000    
   15.00000      -12345.00      -12345.00      -12345.00      -12345.00    
   23.91202       350.8081       170.7804      0.2150701      -12345.00    
  -12345.00     -0.1854339e-02   90.00000       90.00000      -12345.00    
  -12345.00      -12345.00      -12345.00      -12345.00      -12345.00    
  -12345.00      -12345.00      -12345.00      -12345.00      -12345.00    
      1987       173        11         9        56
       363         6    -12345    -12345      3933
    -12345    -12345    -12345    -12345    -12345
         1    -12345    -12345    -12345    -12345
    -12345    -12345    -12345    -12345    -12345
    -12345    -12345    -12345    -12345    -12345
    -12345    -12345    -12345    -12345    -12345
         1         1         1         1         1
CDAE    870622111018    
-12345  origin  -12345  
-12345  -12345  -12345  
-12345  -12345  -12345  
-12345  -12345  -12345  
-12345  -12345  satellit
satellit-12345  -12345  
-12345  -12345  -12345  
 -0.4496738      -1.275757     -0.9870073     -0.1287385      0.2599257    
 -0.2809140     -0.8980543     -0.5817474      0.1324152      0.4449851    
 -0.2088235e-01 -0.4443557      0.1139298      0.9685168       1.243333    
  0.6343897      0.6888074e-01  0.4328029      0.9447772      0.7852186    
 -0.2166929     -0.9585090     -0.4884272      0.2922350      0.4513400    
 -0.2513496     -0.7816840     -0.1401514      0.7788481      0.8910698    
  0.7268333e-01 -0.4899070     -0.7592325e-01  0.4106924      0.3421761    
 -0.3733442     -0.8229813     -0.3220697      0.2687179      0.2487435    
 -0.4688074     -0.8489781     -0.2791754      0.2295640      0.1903712e-01
 -0.8395205      -1.229478     -0.5698855      0.6107752e-01  0.1841644e-01
 -0.6117568     -0.7751268      0.8507909e-01  0.8247366      0.7281273    
 -0.4498173e-04 -0.1909495      0.5901519       1.073441      0.5684977    
 -0.5812228     -0.9892838     -0.1926499      0.4577887      0.2754826    
 -0.5039709     -0.6389229      0.3433888       1.137681       1.060563    
  0.3077594      0.3674300e-01  0.7076029       1.152643      0.7844678    
 -0.1825129     -0.5301659      0.1104078      0.4446012     -0.5608307e-02
 -0.8342746     -0.8589764      0.6408963e-01  0.5334960      0.1184747    
 -0.7693628     -0.9051665     -0.2563239e-01  0.3928708     -0.1159097    
 -0.9408719     -0.8494981      0.1980318      0.6964307      0.2653640    
 -0.5171574     -0.4541273      0.4554446      0.7026778      0.1782805e-01
 -0.9497817      -1.007749     -0.7806392e-01  0.3735158     -0.6955535e-01
 -0.8633285     -0.7649369      0.3141570      0.8390930      0.5169356    
  0.9248787e-01  0.5805791       1.641811       1.730401      0.8025756    
 -0.2726838     -0.2801574      0.6066814      0.7046545     -0.1198882    
  -1.002950     -0.8459663      0.1420758      0.4005712     -0.1566794    
 -0.7715297     -0.3726823      0.8804363       1.357514      0.8983916    
  0.2197411      0.2650123      0.8542945      0.5237402     -0.6838894    
  -1.844064      -1.832232     -0.8641776     -0.6571602      -1.332526    
  -1.967837      -1.437858     -0.3565958e-01  0.4799596      0.1828055e-01
 -0.5530452     -0.1726347      0.9487545       1.126325      0.2985801    
 -0.5234790     -0.2124899      0.8550500      0.9858873      0.2674299    
 -0.4502730     -0.2399658      0.6701286      0.6948273     -0.1645309    
 -0.9865496     -0.6915528      0.4548395      0.7175022     -0.1196535e-01
 -0.8065612     -0.5053318      0.6277495      0.8187775      0.3622831e-01
 -0.7553062     -0.5131785      0.4964612      0.6530820     -0.7589870e-01
 -0.8420469     -0.6405305      0.1845649      0.5008102e-01 -0.8047113    
  -1.371116     -0.7486680      0.5425642      0.7840265      0.1153843    
 -0.4045598      0.1678370       1.310210       1.374008      0.4472669    
 -0.4670978     -0.2895452      0.5937323      0.5575203     -0.3196107    
  -1.076755     -0.7491791      0.2039210      0.2024020     -0.5506383    
  -1.044785     -0.4971839      0.4892891      0.3819571     -0.5334716    
  -1.165906     -0.6906140      0.3332664      0.4198492     -0.2513455    
 -0.7337840     -0.2328410      0.6970158      0.5701268     -0.3593796    
 -0.9151354     -0.2645090      0.8460976      0.9358451      0.3029229    
 -0.2829405e-01  0.5792153       1.330912      0.9229279     -0.1353248    
 -0.7243458     -0.1458806      0.7960557      0.6781529     -0.1444203    
 -0.6279879     -0.1134694      0.6305404      0.3309376     -0.5450326    
 -0.9158982     -0.2364682      0.6131094      0.4435461     -0.2327310    
 -0.4449860      0.2390109      0.9385601      0.6545972      0.1282129    
  0.2495207       1.136960       1.707918      0.9859570     -0.1964285    
 -0.7851542     -0.3798236      0.3211117e-01 -0.5741563      -1.440681    
  -1.694508      -1.071183     -0.4963288     -0.8525043      -1.392195    
  -1.328493     -0.4049970      0.4426212      0.3182049     -0.1017971e-01
  0.1808434      0.9194471       1.107113      0.2182022     -0.4961804    
 -0.3704252      0.4568473      0.8826671      0.2252081     -0.4981314    
 -0.5074717      0.2879338      0.7819603      0.2531797     -0.3189552    
 -0.2705856      0.4487443      0.8456857      0.2712445     -0.2611559    
 -0.5206929e-01  0.8298974       1.271386      0.7345171      0.3809717    
  0.7847810       1.592548       1.592998      0.3355945     -0.8984491    
  -1.299354     -0.8990948     -0.8446215      -1.658525      -2.112908    
  -1.592431     -0.3936061      0.1885528     -0.3282806     -0.6851917    
 -0.2849850      0.6645061       1.026886      0.3566633     -0.1704658    
  0.3444849e-01  0.7917064      0.9524670      0.5803590e-01 -0.6508133    
 -0.4786612      0.3495951      0.6050954     -0.9161320e-01 -0.4952986    
 -0.1384642      0.6405688      0.6893251     -0.2605093     -0.8538656    
 -0.5897846      0.1912207      0.3384017     -0.4500831     -0.8890575    
 -0.5075401      0.3626014      0.5783300     -0.1164678     -0.3130722    
  0.4668982       1.585891       1.744613      0.8718814      0.3576923    
  0.6152691       1.209196      0.9239970     -0.3027770     -0.9493142    
 -0.6568628      0.5471014e-01  0.1045480e-01 -0.8822896      -1.125954    
 -0.4604430      0.4175237      0.3471438     -0.6379646     -0.9951861    
 -0.4209037      0.4315411      0.3674535     -0.5736724     -0.8426870    
 -0.3248439      0.3300752      0.2020874     -0.5874799     -0.5594091    
  0.2948720       1.101316      0.7876005     -0.4130796     -0.8383638    
 -0.2981634      0.4014216      0.1452151     -0.8308185     -0.9337263    
 -0.1565963      0.6276219      0.3900307     -0.5494596     -0.5146978    
  0.4675724       1.411800       1.251173      0.3016956      0.1516064    
  0.7573290       1.305658      0.7828390     -0.5193143     -0.8384603    
 -0.1151148      0.6371520      0.2490691     -0.9454321      -1.179224    
 -0.4257568      0.3864993      0.1753678     -0.7914635     -0.8117706    
  0.1535141       1.069152      0.7022315     -0.5641367     -0.8391414    
 -0.5205684e-01  0.8735791      0.7820258     -0.1346672     -0.2148307    
  0.5740972       1.381358       1.079577     -0.1149447     -0.4797764    
 -0.2153642e-03  0.4558237     -0.5843823e-01  -1.217571      -1.415145    
 -0.6272681      0.2943563      0.3467184     -0.2766424     -0.2604227    
  0.3918881      0.9850458      0.5856702     -0.4310392     -0.5288369    
  0.2023910      0.8292554      0.4153794     -0.5888932     -0.6884646    
  0.2525857e-01  0.6177742      0.1128572     -0.9223754     -0.9126925    
 -0.2187048e-01  0.7455792      0.3827899     -0.5357922     -0.4293311    
  0.4634661       1.019893      0.4220549     -0.5291468     -0.4145597    
  0.4054042      0.9198501      0.3059732     -0.7568636     -0.7764308    
  0.3891374e-01  0.6777416      0.3601315     -0.2655583      0.2926192e-01
  0.8463352       1.170478      0.4040730     -0.5487062     -0.3972283    
  0.3704277      0.7314441      0.8443321e-01 -0.7841800     -0.6615716    
  0.4198091e-01  0.3427538     -0.3983866      -1.353285      -1.225854    
 -0.4171287      0.2455239e-01 -0.5233800      -1.174533     -0.7286155    
  0.1994326      0.5371593     -0.1341462     -0.8445266     -0.5065998    
  0.3061229      0.6006696     -0.1180321     -0.8783585     -0.5913851    
  0.1318532      0.3388745     -0.3456811     -0.8268776     -0.1609711    
  0.7799788       1.090909      0.4778918     -0.4336179e-02  0.5818115    
   1.352843       1.465520      0.8021858      0.3599112      0.8229540    
   1.363200       1.267955      0.3545243     -0.3666128     -0.1179443    
  0.2134324     -0.1006083      -1.018013      -1.410708     -0.7235755    
 -0.2001252e-01 -0.7037669e-02 -0.6997339     -0.9904206     -0.2698517    
  0.4102467      0.3513497     -0.4952336      -1.019479     -0.4947067    
  0.6727519e-01 -0.6797922e-01 -0.8651085      -1.164842     -0.3428992    
  0.4886121      0.4937126     -0.2806421     -0.5508616      0.2331581    
  0.8810241      0.7473676     -0.4871864e-01 -0.3463175      0.3984402    
  0.9877675      0.7285748     -0.2311824     -0.7023978     -0.1907856    
  0.1351036     -0.2689332      -1.139049      -1.239482     -0.1372031    
  0.8271775      0.9381080      0.2433105     -0.2105775      0.2347874    
  0.6494302      0.4544952     -0.2383454     -0.3494005      0.4688882    
  0.9769849      0.6326495     -0.2653421     -0.4521065      0.3726095    
  0.8064654      0.3392400     -0.6200722     -0.8114190      0.2415141e-01
  0.4841228      0.9917190e-01 -0.7174374     -0.8166956     -0.9045999e-01
  0.6075775e-01 -0.5986173      -1.418981      -1.163251      0.2182939    
   1.117456       1.013030      0.4171796      0.5725061       1.558704    
   1.901456       1.282585      0.2577902     -0.4310436e-01  0.4253925    
  0.2347124     -0.7651793      -1.800697      -1.742724     -0.7650365    
 -0.5048185      -1.120517      -1.805751      -1.476079     -0.3122925    
  0.7770200e-01 -0.4384254      -1.031405     -0.5971256      0.7000406    
   1.265220      0.8969809      0.2711985      0.4465683       1.281333    
   1.272875      0.4639840     -0.3402324     -0.1406719      0.8289018    
  0.9003164      0.3015063e-01 -0.8286325     -0.6053832      0.3846458    
  0.4722220     -0.3068208      -1.073639     -0.8301643      0.2314389    
  0.4494663     -0.2484555     -0.9749712     -0.7245774      0.2776911    
  0.4138621     -0.3061628     -0.9506033     -0.5455970      0.6143146    
  0.8801043      0.3069411     -0.2474832      0.7351154e-01   1.165160    
   1.408939      0.5361666     -0.4568353     -0.3433606      0.5986074    
  0.6195547     -0.3654991      -1.366767      -1.197144     -0.1296286    
  0.5727846e-01 -0.6679035      -1.335883     -0.9340213      0.1664641    
  0.3188992     -0.3790480     -0.9856845     -0.5165934      0.6665208    
  0.9249223      0.3232275     -0.2720469      0.8268338e-01   1.057561    
   1.041128      0.4379381e-01 -0.9290651     -0.6757886      0.4267054    
  0.6494759     -0.3108947e-01 -0.7187245     -0.3995670      0.5523507    
  0.6014174     -0.1620738     -0.8043267     -0.3884032      0.5969489    
  0.5392924     -0.3940989      -1.075828     -0.5677102      0.5290002    
  0.5689459     -0.2742870     -0.8672714     -0.3839571      0.4590684    
  0.1701265     -0.8854999      -1.535367     -0.9085584      0.3302006    
  0.5916807      0.1080727     -0.8274324e-01  0.6312619       1.626122    
   1.614230      0.7701796      0.1071118      0.4814973       1.202003    
  0.8764312     -0.1496956     -0.8431581     -0.5554349     -0.2584722e-01
 -0.4567875      -1.344886      -1.645021     -0.8038976      0.3115349    
  0.4122220     -0.4852982e-01 -0.8165455e-01  0.8010523       1.734418    
   1.537074      0.7220930      0.2929189      0.7870255       1.386969    
  0.9602695      0.3332727e-01 -0.4113511      0.6939802e-01  0.4886411    
 -0.2988867      -1.465513      -1.797769      -1.038954     -0.3529204    
 -0.7042872      -1.312768      -1.360812     -0.6017900      0.5715284e-01
 -0.2512082     -0.7280430     -0.4983411      0.5462648       1.199836    
  0.6773803      0.7452816e-02 -0.2257191e-01  0.7209930       1.289754    
  0.9245825      0.4491150      0.4454309      0.9541836       1.083437    
  0.2429976     -0.5351506     -0.5324687      0.2427452      0.7415892    
  0.2221613     -0.3170882     -0.7509885e-01  0.8645829       1.217461    
  0.3106530     -0.5993251     -0.7278059     -0.1734512      0.1968335e-02
 -0.7212882      -1.234493     -0.9310712     -0.5818858e-02  0.3830638    
 -0.2668843     -0.7949616     -0.5856230      0.1717512      0.3213498    
 -0.5607220      -1.195577     -0.9240646     -0.4388980e-02  0.3031324    
 -0.4115974     -0.8948231     -0.5919077      0.2874779      0.6070250    
 -0.3722779e-01 -0.3463981      0.2404506       1.323665       1.571609    
  0.6492326      0.7267137e-01  0.3820390       1.154769       1.231011    
  0.3334271     -0.2330849     -0.2092092e-01  0.6108841      0.5277590    
 -0.4810684      -1.079207     -0.8215007     -0.1032826     -0.9099857e-01
 -0.9454985      -1.315706     -0.8166205      0.1368040      0.3191560    
 -0.4525592     -0.6961999     -0.5384720e-01  0.8340072      0.7048160    
 -0.4343940     -0.9927087     -0.6200650      0.1550174      0.1876372    
 -0.5458057     -0.5562385      0.2510943       1.166543       1.128689    
  0.1886567     -0.1359015      0.3512943       1.000906      0.7732552    
 -0.2565330     -0.5824144     -0.1594981e-01  0.7109009      0.4382523    
 -0.6841040     -0.9964967     -0.3488159      0.4134654      0.1351358    
 -0.9112191      -1.018541     -0.1425355      0.8444659      0.7985915    
 -0.1156195     -0.1865449      0.7075778       1.650176       1.487257    
  0.4073627      0.6364422e-01  0.4757085      0.8547296      0.2914832    
 -0.9306847      -1.053292     -0.1341361      0.6968840      0.3871199    
 -0.7307485     -0.9307002     -0.1507139      0.6757475      0.4600293    
 -0.6167347     -0.9030539     -0.2576908      0.4640231      0.1350453    
  -1.022696      -1.275609     -0.5530447      0.2216268     -0.2822899e-01
  -1.067861      -1.188542     -0.3048048      0.6357838      0.4921680    
 -0.4899788     -0.5943235      0.1903856      0.9549888      0.6714719    
 -0.3805699     -0.4502978      0.5488293       1.550674       1.369083    
  0.3553276      0.1315168      0.6875176       1.204937      0.7439167    
 -0.3275315     -0.4417277      0.2647739      0.8505572      0.4098100    
 -0.6547697     -0.7787738     -0.2248668e-01  0.7124513      0.4456788    
 -0.4151415     -0.3002062      0.6176183       1.320412      0.8615927    
 -0.2449240     -0.3652211      0.3913886       1.033105      0.6032785    
 -0.4303548     -0.5172185      0.1892844      0.6914866      0.1044011    
  -1.031384      -1.167492     -0.6125622     -0.4793978      -1.376845    
  -2.481727      -2.263205      -1.112872     -0.2951585     -0.6449039    
  -1.450881      -1.224051     -0.2122416      0.5738757      0.3944882    
 -0.1400461      0.3165662       1.445412       2.116344       1.614778    
  0.7220236      0.7531117       1.391840       1.664316      0.8966759    
 -0.1235781     -0.1084259      0.4873543      0.6330375     -0.2036651    
  -1.205475      -1.204690     -0.6153831     -0.3048797     -0.7904837    
  -1.427992      -1.141473     -0.3589299     -0.4214119e-01 -0.6117442    
  -1.133856     -0.6316903      0.2114702      0.5259802     -0.2048947e-01
 -0.5253997      0.3230361e-01  0.9332295       1.190275      0.5049031    
 -0.1127727      0.3464307       1.149674       1.334205      0.5469643    
 -0.2184919      0.6855925e-01  0.6968103      0.7262368     -0.2102543    
  -1.169480      -1.090164     -0.5314559     -0.3908426     -0.9837482    
  -1.305662     -0.6558391      0.4532839e-01  0.1166192     -0.5087374    
 -0.7751268      0.6890799e-01  0.9972567       1.141970      0.3597957    
 -0.2617391      0.1312722      0.6501461      0.5257066     -0.3213688    
 -0.7719811     -0.8968578e-01  0.7240261      0.9450727      0.5007011    
  0.3198329      0.8639865       1.118102      0.6454365     -0.3438663    
 -0.7904745     -0.1714968      0.3751652      0.1421316     -0.6936018    
 -0.9484973     -0.1299167      0.5556553      0.4092591     -0.3855429    
 -0.6407592      0.9929337e-01  0.6666299      0.4773649     -0.3256616    
 -0.6339978      0.4493341e-01  0.5406527      0.2276178     -0.5974631    
 -0.7475190     -0.3852936e-01  0.3228233     -0.1450936e-01 -0.8289436    
  -1.006746     -0.2017597      0.3491032      0.1495653     -0.5683709    
 -0.6821140      0.8313213e-01  0.4939659      0.2111354     -0.4150546    
 -0.3757004      0.4908353      0.9139779      0.4352967     -0.6025193    
 -0.9682910     -0.3555287     -0.1194656     -0.6804518      -1.494179    
  -1.312718     -0.3757574e-01  0.8110601      0.7630571      0.2283672    
  0.3877992       1.376568       1.659084      0.8946675     -0.2272929    
 -0.4013734      0.4825619      0.8719507      0.4173825     -0.2320994    
  0.7637449e-01   1.222210       1.572368      0.8836307     -0.1349987    
 -0.3146768      0.3155697      0.2938837     -0.5232202      -1.512394    
  -1.541770     -0.5511360     -0.6019839e-01 -0.3417519     -0.8213086    
 -0.5347888      0.4816560      0.7976447      0.2210563     -0.5208058    
 -0.3521324      0.5689798      0.6898282     -0.3201666e-01 -0.7572802    
 -0.5290151      0.3777410      0.3710697     -0.5536647      -1.401859    
  -1.057296      0.1759284      0.5266029     -0.1484783     -0.8785285    
 -0.5363899      0.6192223      0.8978330      0.1958851     -0.5161600    
 -0.7293143e-01   1.226689       1.572426      0.7758535     -0.2444978    
 -0.2644538      0.6675953      0.9162328      0.1622003     -0.7226685    
 -0.5170842      0.4572343      0.5242295     -0.2483157     -0.9493037    
 -0.5866967      0.5242153      0.6353137     -0.2990195      -1.250491    
  -1.072202     -0.7870382e-01  0.2534142e-01 -0.7573133      -1.540090    
  -1.237006     -0.2709762e-01  0.4054546     -0.7091337e-01 -0.6276994    
 -0.1632888       1.075113       1.288477      0.3380899     -0.7677492    
 -0.6725690      0.4394961      0.7220180      0.7403634e-01 -0.5688018    
 -0.1534844      0.9854513       1.156592      0.4087826     -0.3310523    
 -0.9847216e-01  0.7982333      0.8100638     -0.2602642e-01 -0.8704233    
 -0.6875665      0.2104996      0.7869833e-01  -1.046332      -2.011293    
  -1.654988     -0.4272210     -0.8576635e-01 -0.5225529     -0.6646296    
  0.2555812       1.422628       1.240841      0.1196471     -0.7718251    
 -0.4564132      0.5417728      0.6166929     -0.9455075e-01 -0.6108969    
