  0.1017683e-01  -1001.000       817.0000      -12345.00      -12345.00    
   9.993649       50.00895       17.68428       19.59752       2.000000    
  -12345.00      -12345.00      -12345.00      -12345.00      -12345.00    
  -12345.00      -12345.00      -12345.00      -12345.00      -12345.00    
   42.29988      -12345.00      -12345.00      -12345.00      -12345.00    
  -12345.00      -12345.00      -12345.00      -12345.00      -12345.00    
  -12345.00       37.56633      -121.6800       250.0000      -12345.00    
   37.51733      -121.6850      -12345.00       5.950000      -12345.00    
   1.600000      0.1100000       88.00000      0.4500000      0.9200000    
   15.00000      -12345.00      -12345.00      -12345.00      -12345.00    
   5.456483       4.653721       184.6544      0.4907684e-01  -12345.00    
  -12345.00      -61.72718             0.             0.      -12345.00    
  -12345.00      -12345.00      -12345.00      -12345.00      -12345.00    
  -12345.00      -12345.00      -12345.00      -12345.00      -12345.00    
      1987       173        11         9        56
       363         6    -12345    -12345      3933
    -12345    -12345    -12345    -12345    -12345
         1    -12345    -12345    -12345    -12345
    -12345    -12345    -12345    -12345    -12345
    -12345    -12345    -12345    -12345    -12345
    -12345    -12345    -12345    -12345    -12345
         1         1         1         1         1
CDVZ    870622111018    
-12345  origin  IPU0    
-12345  -12345  -12345  
-12345  -12345  -12345  
-12345  -12345  -12345  
-12345  -12345  satellit
satellit-12345  -12345  
-12345  -12345  -12345  
  -69.00000      -80.00000      -51.00000      -62.00000      -52.00000    
  -68.00000      -80.00000      -50.00000      -62.00000      -54.00000    
  -68.00000      -76.00000      -48.00000      -66.00000      -52.00000    
  -67.00000      -79.00000      -50.00000      -63.00000      -52.00000    
  -69.00000      -80.00000      -48.00000      -63.00000      -55.00000    
  -71.00000      -80.00000      -49.00000      -61.00000      -56.00000    
  -68.00000      -76.00000      -46.00000      -59.00000      -53.00000    
  -67.00000      -78.00000      -46.00000      -60.00000      -54.00000    
  -69.00000      -78.00000      -44.00000      -63.00000      -59.00000    
  -71.00000      -78.00000      -46.00000      -66.00000      -61.00000    
  -73.00000      -80.00000      -50.00000      -68.00000      -63.00000    
  -75.00000      -83.00000      -49.00000      -68.00000      -65.00000    
  -76.00000      -86.00000      -51.00000      -69.00000      -66.00000    
  -79.00000      -88.00000      -53.00000      -71.00000      -68.00000    
  -78.00000      -87.00000      -52.00000      -70.00000      -69.00000    
  -78.00000      -88.00000      -52.00000      -69.00000      -67.00000    
  -80.00000      -88.00000      -52.00000      -71.00000      -68.00000    
  -79.00000      -88.00000      -52.00000      -68.00000      -66.00000    
  -77.00000      -84.00000      -49.00000      -66.00000      -63.00000    
  -74.00000      -85.00000      -47.00000      -65.00000      -62.00000    
  -73.00000      -83.00000      -45.00000      -64.00000      -61.00000    
  -71.00000      -78.00000      -42.00000      -63.00000      -58.00000    
  -69.00000      -78.00000      -41.00000      -59.00000      -58.00000    
  -70.00000      -74.00000      -40.00000      -62.00000      -56.00000    
  -70.00000      -74.00000      -43.00000      -61.00000      -57.00000    
  -72.00000      -76.00000      -42.00000      -62.00000      -60.00000    
  -73.00000      -75.00000      -43.00000      -62.00000      -63.00000    
  -74.00000      -74.00000      -46.00000      -64.00000      -64.00000    
  -76.00000      -78.00000      -48.00000      -66.00000      -65.00000    
  -78.00000      -75.00000      -48.00000      -68.00000      -64.00000    
  -78.00000      -76.00000      -48.00000      -68.00000      -68.00000    
  -77.00000      -75.00000      -51.00000      -68.00000      -67.00000    
  -77.00000      -73.00000      -48.00000      -66.00000      -67.00000    
  -76.00000      -71.00000      -51.00000      -67.00000      -69.00000    
  -77.00000      -71.00000      -48.00000      -66.00000      -67.00000    
  -75.00000      -68.00000      -48.00000      -67.00000      -65.00000    
  -75.00000      -67.00000      -47.00000      -69.00000      -66.00000    
  -76.00000      -66.00000      -47.00000      -69.00000      -64.00000    
  -76.00000      -65.00000      -46.00000      -69.00000      -64.00000    
  -74.00000      -65.00000      -44.00000      -67.00000      -61.00000    
  -70.00000      -59.00000      -41.00000      -67.00000      -60.00000    
  -68.00000      -58.00000      -40.00000      -66.00000      -58.00000    
  -69.00000      -58.00000      -41.00000      -67.00000      -57.00000    
  -67.00000      -57.00000      -40.00000      -68.00000      -60.00000    
  -67.00000      -55.00000      -40.00000      -69.00000      -57.00000    
  -67.00000      -55.00000      -41.00000      -71.00000      -59.00000    
  -68.00000      -56.00000      -44.00000      -71.00000      -62.00000    
  -70.00000      -57.00000      -44.00000      -72.00000      -62.00000    
  -73.00000      -59.00000      -46.00000      -76.00000      -64.00000    
  -74.00000      -59.00000      -49.00000      -77.00000      -64.00000    
  -74.00000      -59.00000      -45.00000      -75.00000      -60.00000    
  -71.00000      -54.00000      -45.00000      -75.00000      -61.00000    
  -68.00000      -54.00000      -45.00000      -73.00000      -60.00000    
  -67.00000      -53.00000      -43.00000      -72.00000      -58.00000    
  -65.00000      -50.00000      -39.00000      -71.00000      -55.00000    
  -61.00000      -47.00000      -38.00000      -69.00000      -52.00000    
  -59.00000      -42.00000      -38.00000      -69.00000      -55.00000    
  -61.00000      -45.00000      -39.00000      -71.00000      -53.00000    
  -58.00000      -46.00000      -36.00000      -69.00000      -53.00000    
  -57.00000      -44.00000      -37.00000      -69.00000      -52.00000    
  -56.00000      -44.00000      -36.00000      -70.00000      -53.00000    
  -59.00000      -45.00000      -35.00000      -73.00000      -55.00000    
  -56.00000      -46.00000      -37.00000      -72.00000      -53.00000    
  -58.00000      -46.00000      -37.00000      -72.00000      -54.00000    
  -56.00000      -45.00000      -36.00000      -71.00000      -55.00000    
  -59.00000      -45.00000      -38.00000      -75.00000      -55.00000    
  -58.00000      -47.00000      -39.00000      -75.00000      -55.00000    
  -57.00000      -46.00000      -37.00000      -73.00000      -54.00000    
  -57.00000      -46.00000      -37.00000      -73.00000      -54.00000    
  -59.00000      -46.00000      -37.00000      -74.00000      -56.00000    
  -59.00000      -49.00000      -41.00000      -75.00000      -56.00000    
  -59.00000      -48.00000      -42.00000      -76.00000      -58.00000    
  -63.00000      -48.00000      -43.00000      -78.00000      -59.00000    
  -61.00000      -50.00000      -48.00000      -80.00000      -60.00000    
  -63.00000      -53.00000      -48.00000      -80.00000      -63.00000    
  -64.00000      -53.00000      -52.00000      -81.00000      -62.00000    
  -64.00000      -51.00000      -52.00000      -79.00000      -61.00000    
  -63.00000      -49.00000      -53.00000      -79.00000      -61.00000    
  -61.00000      -53.00000      -53.00000      -79.00000      -61.00000    
  -65.00000      -51.00000      -56.00000      -79.00000      -61.00000    
  -61.00000      -50.00000      -56.00000      -81.00000      -62.00000    
  -66.00000      -53.00000      -59.00000      -80.00000      -63.00000    
  -67.00000      -51.00000      -60.00000      -82.00000      -61.00000    
  -65.00000      -55.00000      -63.00000      -82.00000      -65.00000    
  -68.00000      -57.00000      -68.00000      -85.00000      -66.00000    
  -68.00000      -57.00000      -68.00000      -86.00000      -65.00000    
  -74.00000      -61.00000      -68.00000      -87.00000      -63.00000    
  -70.00000      -54.00000      -71.00000      -86.00000      -61.00000    
  -69.00000      -57.00000      -69.00000      -83.00000      -60.00000    
  -66.00000      -55.00000      -69.00000      -83.00000      -59.00000    
  -68.00000      -57.00000      -68.00000      -82.00000      -60.00000    
  -68.00000      -56.00000      -68.00000      -83.00000      -58.00000    
  -68.00000      -58.00000      -70.00000      -81.00000      -57.00000    
  -66.00000      -56.00000      -72.00000      -82.00000      -58.00000    
  -68.00000      -56.00000      -70.00000      -83.00000      -59.00000    
  -68.00000      -57.00000      -72.00000      -84.00000      -57.00000    
  -69.00000      -58.00000      -74.00000      -85.00000      -59.00000    
  -70.00000      -58.00000      -76.00000      -86.00000      -57.00000    
  -69.00000      -62.00000      -77.00000      -87.00000      -57.00000    
  -72.00000      -62.00000      -78.00000      -86.00000      -57.00000    
  -70.00000      -61.00000      -76.00000      -85.00000      -54.00000    
  -69.00000      -61.00000      -78.00000      -85.00000      -54.00000    
  -68.00000      -60.00000      -76.00000      -83.00000      -54.00000    
  -69.00000      -61.00000      -78.00000      -85.00000      -53.00000    
  -68.00000      -63.00000      -77.00000      -83.00000      -53.00000    
  -68.00000      -62.00000      -77.00000      -84.00000      -51.00000    
  -69.00000      -62.00000      -75.00000      -83.00000      -49.00000    
  -65.00000      -62.00000      -75.00000      -82.00000      -49.00000    
  -64.00000      -63.00000      -76.00000      -83.00000      -47.00000    
  -65.00000      -63.00000      -75.00000      -81.00000      -45.00000    
  -64.00000      -61.00000      -71.00000      -79.00000      -41.00000    
  -60.00000      -60.00000      -70.00000      -78.00000      -41.00000    
  -58.00000      -57.00000      -69.00000      -76.00000      -40.00000    
  -59.00000      -56.00000      -69.00000      -76.00000      -41.00000    
  -61.00000      -59.00000      -71.00000      -80.00000      -44.00000    
  -67.00000      -63.00000      -72.00000      -83.00000      -47.00000    
  -68.00000      -61.00000      -74.00000      -84.00000      -47.00000    
  -67.00000      -64.00000      -77.00000      -85.00000      -50.00000    
  -70.00000      -67.00000      -78.00000      -85.00000      -50.00000    
  -70.00000      -68.00000      -78.00000      -83.00000      -49.00000    
  -68.00000      -64.00000      -78.00000      -83.00000      -51.00000    
  -68.00000      -69.00000      -79.00000      -82.00000      -51.00000    
  -68.00000      -69.00000      -78.00000      -79.00000      -48.00000    
  -64.00000      -64.00000      -75.00000      -75.00000      -44.00000    
  -61.00000      -59.00000      -70.00000      -70.00000      -44.00000    
  -58.00000      -58.00000      -69.00000      -68.00000      -40.00000    
  -59.00000      -57.00000      -67.00000      -64.00000      -38.00000    
  -56.00000      -56.00000      -63.00000      -62.00000      -38.00000    
  -56.00000      -52.00000      -63.00000      -59.00000      -37.00000    
  -52.00000      -54.00000      -65.00000      -61.00000      -36.00000    
  -58.00000      -56.00000      -65.00000      -57.00000      -38.00000    
  -58.00000      -54.00000      -63.00000      -60.00000      -37.00000    
  -59.00000      -56.00000      -65.00000      -57.00000      -39.00000    
  -61.00000      -58.00000      -69.00000      -58.00000      -41.00000    
  -62.00000      -59.00000      -69.00000      -59.00000      -42.00000    
  -67.00000      -58.00000      -68.00000      -61.00000      -41.00000    
  -67.00000      -60.00000      -70.00000      -60.00000      -43.00000    
  -67.00000      -58.00000      -68.00000      -57.00000      -41.00000    
  -67.00000      -58.00000      -67.00000      -58.00000      -42.00000    
  -68.00000      -59.00000      -68.00000      -58.00000      -43.00000    
  -69.00000      -59.00000      -68.00000      -55.00000      -42.00000    
  -70.00000      -58.00000      -68.00000      -55.00000      -42.00000    
  -69.00000      -57.00000      -66.00000      -52.00000      -40.00000    
  -67.00000      -59.00000      -68.00000      -52.00000      -40.00000    
  -69.00000      -57.00000      -68.00000      -52.00000      -40.00000    
  -70.00000      -56.00000      -62.00000      -51.00000      -39.00000    
  -68.00000      -54.00000      -62.00000      -49.00000      -38.00000    
  -69.00000      -56.00000      -63.00000      -50.00000      -40.00000    
  -70.00000      -56.00000      -64.00000      -50.00000      -41.00000    
  -73.00000      -56.00000      -62.00000      -49.00000      -38.00000    
  -70.00000      -55.00000      -64.00000      -50.00000      -40.00000    
  -74.00000      -57.00000      -65.00000      -51.00000      -41.00000    
  -75.00000      -60.00000      -65.00000      -50.00000      -42.00000    
  -75.00000      -60.00000      -63.00000      -52.00000      -44.00000    
  -80.00000      -61.00000      -64.00000      -54.00000      -44.00000    
  -76.00000      -60.00000      -62.00000      -52.00000      -43.00000    
  -80.00000      -60.00000      -63.00000      -52.00000      -42.00000    
  -76.00000      -60.00000      -62.00000      -49.00000      -42.00000    
  -78.00000      -60.00000      -63.00000      -51.00000      -42.00000    
  -79.00000      -58.00000      -60.00000      -51.00000      -43.00000    
  -78.00000      -60.00000      -60.00000      -52.00000      -42.00000    
  -77.00000      -57.00000      -62.00000      -51.00000      -38.00000    
  -77.00000      -58.00000      -60.00000      -49.00000      -42.00000    
  -77.00000      -58.00000      -61.00000      -49.00000      -41.00000    
  -79.00000      -58.00000      -61.00000      -52.00000      -45.00000    
  -81.00000      -60.00000      -64.00000      -52.00000      -43.00000    
  -78.00000      -60.00000      -62.00000      -52.00000      -44.00000    
  -80.00000      -61.00000      -64.00000      -53.00000      -51.00000    
  -83.00000      -63.00000      -63.00000      -55.00000      -49.00000    
  -83.00000      -62.00000      -63.00000      -55.00000      -53.00000    
  -83.00000      -65.00000      -65.00000      -55.00000      -54.00000    
  -84.00000      -66.00000      -67.00000      -57.00000      -58.00000    
  -87.00000      -69.00000      -69.00000      -59.00000      -59.00000    
  -90.00000      -69.00000      -71.00000      -59.00000      -60.00000    
  -85.00000      -69.00000      -69.00000      -58.00000      -63.00000    
  -86.00000      -68.00000      -69.00000      -57.00000      -62.00000    
  -86.00000      -67.00000      -68.00000      -56.00000      -61.00000    
  -81.00000      -66.00000      -66.00000      -55.00000      -61.00000    
  -84.00000      -64.00000      -64.00000      -53.00000      -60.00000    
  -82.00000      -61.00000      -63.00000      -52.00000      -60.00000    
  -80.00000      -60.00000      -64.00000      -54.00000      -61.00000    
  -79.00000      -59.00000      -64.00000      -55.00000      -61.00000    
  -81.00000      -59.00000      -61.00000      -51.00000      -63.00000    
  -82.00000      -55.00000      -62.00000      -50.00000      -60.00000    
  -77.00000      -52.00000      -62.00000      -52.00000      -63.00000    
  -77.00000      -54.00000      -63.00000      -51.00000      -64.00000    
  -81.00000      -55.00000      -63.00000      -52.00000      -64.00000    
  -81.00000      -57.00000      -66.00000      -57.00000      -68.00000    
  -83.00000      -58.00000      -67.00000      -57.00000      -54.00000    
   33.00000       356.0000       689.0000       664.0000       201.0000    
  -80.00000       147.0000      -61.00000      -783.0000      -960.0000    
  -833.0000      -568.0000      -357.0000      -366.0000      -14.00000    
   472.0000       723.0000       719.0000       700.0000       676.0000    
   501.0000       210.0000       197.0000       26.00000      -635.0000    
  -949.0000      -797.0000      -751.0000      -834.0000      -817.0000    
  -548.0000      -80.00000       182.0000      -44.00000      -206.0000    
   162.0000       542.0000       659.0000       717.0000       651.0000    
   447.0000       295.0000       85.00000      -225.0000      -721.0000    
  -928.0000      -682.0000      -399.0000      -251.0000      -310.0000    
  -348.0000       42.00000       622.0000       489.0000      -256.0000    
  -374.0000       237.0000       680.0000       488.0000       80.00000    
  -59.00000      -70.00000      -155.0000      -290.0000      -360.0000    
  -441.0000      -440.0000      -463.0000      -554.0000      -630.0000    
  -438.0000       365.0000       808.0000       423.0000      -171.0000    
  -481.0000      -423.0000       61.00000       340.0000      -58.00000    
  -280.0000       82.00000       398.0000       382.0000       141.0000    
  -40.00000      -136.0000      -235.0000      -350.0000      -490.0000    
  -502.0000      -534.0000      -724.0000      -537.0000       194.0000    
   753.0000       654.0000       155.0000      -53.00000       81.00000    
   64.00000      -128.0000      -333.0000      -444.0000      -427.0000    
  -256.0000       14.00000       280.0000       331.0000       53.00000    
  -134.0000      -197.0000      -448.0000      -377.0000      -75.00000    
   117.0000       276.0000       162.0000      -130.0000      -419.0000    
  -376.0000       93.00000       407.0000       299.0000       253.0000    
   495.0000       247.0000      -657.0000      -979.0000      -850.0000    
  -775.0000      -486.0000      -146.0000      -44.00000      -192.0000    
   190.0000       787.0000       778.0000       682.0000       684.0000    
   658.0000       484.0000       106.0000      -329.0000      -750.0000    
  -910.0000      -829.0000      -836.0000      -843.0000      -796.0000    
  -315.0000       399.0000       532.0000       402.0000       540.0000    
   721.0000       732.0000       676.0000       558.0000       94.00000    
  -151.0000       319.0000       732.0000       693.0000       457.0000    
  -204.0000      -848.0000      -919.0000      -720.0000       89.00000    
   789.0000       734.0000       583.0000       36.00000      -882.0000    
  -970.0000      -712.0000      -36.00000       734.0000       709.0000    
   51.00000      -824.0000      -958.0000      -816.0000      -845.0000    
  -866.0000      -829.0000      -838.0000      -798.0000      -522.0000    
   37.00000       662.0000       799.0000       708.0000       686.0000    
   698.0000       707.0000       678.0000       668.0000       562.0000    
   90.00000      -276.0000      -118.0000       153.0000       238.0000    
   464.0000       688.0000       648.0000       514.0000       222.0000    
  -181.0000      -685.0000      -918.0000      -848.0000      -841.0000    
  -853.0000      -827.0000      -537.0000       414.0000       815.0000    
   667.0000       642.0000       456.0000      -422.0000      -1001.000    
  -876.0000      -782.0000      -478.0000       470.0000       811.0000    
   661.0000       638.0000       364.0000      -474.0000      -978.0000    
  -870.0000      -797.0000      -857.0000      -851.0000      -828.0000    
