  0.1017683e-01  -255.7969       283.1243      -12345.00      -12345.00    
   9.993649       50.00895       17.68428      -12345.00       2.000000    
  -12345.00      -12345.00      -12345.00      -12345.00      -12345.00    
  -12345.00      -12345.00      -12345.00      -12345.00      -12345.00    
  -12345.00      -12345.00      -12345.00      -12345.00      -12345.00    
  -12345.00      -12345.00      -12345.00      -12345.00      -12345.00    
  -12345.00       37.56633      -121.6800       250.0000      -12345.00    
   37.51733      -121.6850      -12345.00       5.950000      -12345.00    
   1.600000      0.1100000       88.00000      0.4500000      0.9200000    
   15.00000      -12345.00      -12345.00      -12345.00      -12345.00    
   5.456483       4.653721       184.6544      0.4907684e-01  -12345.00    
  -12345.00     -0.1459314e-03   90.00000       90.00000      -12345.00    
  -12345.00      -12345.00      -12345.00      -12345.00      -12345.00    
  -12345.00      -12345.00      -12345.00      -12345.00      -12345.00    
      1987       173        11         9        56
       363         6    -12345    -12345      3933
    -12345    -12345    -12345    -12345    -12345
         1    -12345    -12345    -12345    -12345
    -12345    -12345    -12345    -12345    -12345
    -12345    -12345    -12345    -12345    -12345
    -12345    -12345    -12345    -12345    -12345
         1         1         1         1         1
CDVE    870622111018    
-12345  origin  -12345  
-12345  -12345  -12345  
-12345  -12345  -12345  
-12345  -12345  -12345  
-12345  -12345  satellit
satellit-12345  -12345  
-12345  -12345  -12345  
 -0.3532977     -0.7156647      0.1083552e-01  0.6199213      0.4517105    
 -0.3095586     -0.5527069      0.1395655      0.5593035      0.1588823    
 -0.7265822     -0.9491619     -0.1676442      0.4546775      0.3400822    
 -0.3610787     -0.4532843      0.4103505      0.8730161      0.4304519    
 -0.5027694     -0.6614001      0.2183096      0.7381921      0.3935126    
 -0.4786122     -0.6909552      0.9661595e-01  0.5224866      0.7978715e-01
 -0.7780105     -0.8612721      0.1937893e-01  0.4692207      0.2564796e-01
 -0.8138573     -0.7758260      0.2583674      0.7451085      0.3046953    
 -0.4844019     -0.5032377      0.2870689      0.4934036     -0.1142916    
 -0.9221141     -0.7708424      0.3460118      0.8504640      0.4051524    
 -0.3308383     -0.1964462      0.7730281       1.070222      0.5036779    
 -0.2384929     -0.1211530      0.6938398      0.6870901     -0.1515148    
 -0.9893546     -0.8363154      0.1459188      0.4439670     -0.9785793e-01
 -0.7131758     -0.3622352      0.6843874      0.7996259     -0.5804364e-01
 -0.9339290     -0.6774448      0.4383689      0.6710612     -0.1342068    
  -1.058375     -0.8705508      0.2366866      0.4858176     -0.2332608    
 -0.9545303     -0.5933677      0.5495230      0.7413037     -0.4750860e-01
 -0.8108724     -0.5028271      0.5363939      0.6506059     -0.1516412    
 -0.9029865     -0.5167763      0.6699808      0.9665687      0.3470959    
 -0.3353317     -0.7363051e-01  0.8660102      0.8984557      0.6297511e-01
 -0.7601004     -0.5336813      0.5100592      0.6680538     -0.1755284    
  -1.101081     -0.9154432      0.1904493      0.4409399     -0.3111483    
  -1.137352     -0.8348858      0.3762517      0.6907473      0.8507245e-02
 -0.7351309     -0.4884925      0.4903458      0.6273117     -0.6346929e-01
 -0.7247875     -0.3809648      0.6341745      0.7475126      0.1148788e-01
 -0.6793491     -0.3120043      0.7002672      0.7040808     -0.1740154    
 -0.9266137     -0.5822248      0.4454771      0.6222667      0.2138859e-02
 -0.5563901     -0.7599229e-01  0.9934739      0.9598457     -0.5311246e-01
 -0.9262709     -0.6550766      0.3024028      0.3679359     -0.4094600    
  -1.058418     -0.6423711      0.3508462      0.3894046     -0.3935431    
 -0.9029667     -0.2326159      0.9049427      0.9451091      0.1397233    
 -0.4180780      0.5554516e-01  0.8772748      0.6648865     -0.3028162    
 -0.9418737     -0.4348170      0.4949103      0.4286519     -0.3495393    
 -0.7877249     -0.1784184      0.7206954      0.6097162     -0.1490448    
 -0.5425282      0.5827347e-01  0.8542314      0.5794490     -0.3323678    
 -0.7964147     -0.1878701      0.6142559      0.3828607     -0.3685353    
 -0.6288942      0.7546504e-01  0.8290873      0.5603619     -0.1016445    
 -0.2638208      0.3893600      0.9364672      0.3738078     -0.5646576    
 -0.8405367     -0.1052930      0.6023507      0.2827964     -0.3227512    
 -0.3624536      0.4010549      0.9683857      0.4912356     -0.1790888    
 -0.2757354      0.3531832      0.7384613      0.1004496     -0.6786323    
 -0.7982205     -0.6875721e-01  0.4262390     -0.1659101     -0.8398820    
 -0.7872270      0.7396458e-01  0.6692668      0.1538258     -0.5391744    
 -0.5591715      0.2154340      0.6310046     -0.4302187e-01 -0.6801785    
 -0.5450590      0.2929924      0.7227009      0.5453672e-01 -0.6229766    
 -0.5353378      0.2868049      0.7322572      0.1514266     -0.3650449    
 -0.1179059      0.7465528       1.036481      0.2116153     -0.5312032    
 -0.4648421      0.3331427      0.6650758     -0.5030739e-01 -0.6149535    
 -0.3763674      0.4743184      0.7406724     -0.4271905e-01 -0.6015387    
 -0.3623894      0.4043337      0.5779873     -0.2701105     -0.9452173    
 -0.7575170      0.1418533      0.4825597     -0.1551078     -0.5269429    
 -0.2059281      0.5455298      0.6513379     -0.1959203     -0.7184004    
 -0.4540910      0.2547307      0.2926984     -0.5292720     -0.8899327    
 -0.3972465      0.5386319      0.6949775     -0.1104977     -0.4359931    
  0.7276887e-01  0.9262483      0.9358540     -0.4959573e-01 -0.5197424    
 -0.5132248e-01  0.7415679      0.6243358     -0.4046926     -0.8393861    
 -0.3751318      0.4519710      0.4875498     -0.3821792     -0.6840504    
 -0.6864762e-01  0.8548011      0.8171234     -0.2586576     -0.7491008    
 -0.2331209      0.5969939      0.4682718     -0.5420610     -0.8476685    
 -0.2569128      0.5419192      0.4738491     -0.4190195     -0.6627663    
 -0.6223348e-01  0.6175453      0.2606035     -0.8612697      -1.081515    
 -0.3189108      0.5522173      0.4259470     -0.4540111     -0.4888970    
  0.3709503       1.254418       1.014797     -0.1114521     -0.4205250    
  0.2009862      0.9069212      0.6166998     -0.4413988     -0.6459894    
  0.7532457e-01  0.9146929      0.7918822     -0.1422387     -0.3061496    
  0.3296753      0.9496730      0.5012859     -0.7608128      -1.032440    
 -0.2502307      0.6164241      0.4441465     -0.5811225     -0.8028533    
 -0.1530669      0.5555945      0.2771571     -0.8021264     -0.9844257    
 -0.2360044      0.5590507      0.4402464     -0.4368394     -0.5225365    
  0.3001773       1.149576      0.8295223     -0.3950094     -0.6736192    
  0.6153949e-01  0.8039446      0.4293443     -0.7227973     -0.8800588    
 -0.8931873e-01  0.6453952      0.3193436     -0.7242596     -0.8251508    
  0.1339807e-01  0.8697467      0.7049519     -0.2113988     -0.2950836    
  0.4092822       1.011711      0.6183439     -0.3954844     -0.4936007    
  0.2730104      0.9320152      0.4685102     -0.5909814     -0.5971357    
  0.2414406      0.9124570      0.5167990     -0.4980171     -0.5623525    
  0.2290299      0.8993482      0.5467775     -0.3437470     -0.2812850    
  0.5600569       1.121357      0.4923955     -0.6586249     -0.7745301    
 -0.7773632e-01  0.4058194     -0.1576960      -1.096015     -0.9988339    
 -0.1942625      0.3025837     -0.2542632      -1.065137     -0.7070973    
  0.3893041       1.027410      0.4308813     -0.5202584     -0.4453955    
  0.2948866      0.7280653      0.1093734     -0.8014034     -0.6627995    
  0.8798809e-01  0.4409432     -0.1910719     -0.9664147     -0.6534439    
  0.2023379      0.5595843     -0.4589524e-01 -0.7280017     -0.4059591    
  0.4171097      0.7794899      0.1396116     -0.5779870     -0.2157500    
  0.6048140      0.8410968      0.1417223     -0.4951272     -0.1882615    
  0.3965573      0.5215459     -0.1308247     -0.6807312     -0.2065243    
  0.5513327      0.6629544     -0.1113034     -0.6989323     -0.2584033    
  0.4290610      0.5491149     -0.1770223     -0.7146761     -0.2206194    
  0.4473673      0.4751560     -0.3781480      -1.040344     -0.5905218    
  0.1158904      0.1920299     -0.5564434      -1.008375     -0.4261918    
  0.2280432      0.2700138     -0.3314209     -0.5630464      0.1660132    
  0.8611268      0.8398298      0.1071062     -0.2916270      0.2640193    
  0.8467762      0.6855189     -0.2647147     -0.7349080     -0.7248579e-01
  0.5978202      0.5045506     -0.3184590     -0.6389979      0.1201941    
  0.7967837      0.6574403     -0.1886121     -0.5124028      0.1814981    
  0.7255211      0.4186829     -0.5978178     -0.9836205     -0.2063011    
  0.5301838      0.4923816     -0.2869729     -0.5377501      0.1988100    
  0.6787798      0.3970096     -0.3858832     -0.5194643      0.2597802    
  0.7071066      0.3539748     -0.5424846     -0.7967708     -0.7053978e-01
  0.3904932      0.4123548e-01 -0.8189062     -0.8817022      0.8305983e-01
  0.6444541      0.3039296     -0.5563337     -0.6642897      0.1720104    
  0.5591378      0.7392606e-01 -0.8642870     -0.9439328      0.3076291e-01
  0.5168520      0.5909726e-01 -0.8388686     -0.9376565     -0.3656937e-01
  0.4428521      0.9001566e-01 -0.5442486     -0.2879322      0.8359752    
   1.333481      0.8703295      0.2792069e-01  0.4256646e-01  0.9131352    
   1.087373      0.3670172     -0.5281147     -0.4521505      0.5081136    
  0.7959513      0.2109313     -0.5275540     -0.3513258      0.5740024    
  0.7665387      0.9918839e-01 -0.7133260     -0.4892304      0.5659233    
  0.6973638     -0.1458537      -1.057231     -0.9349749      0.5447205e-01
  0.2765728     -0.4291606      -1.223745     -0.9544396      0.1470158    
  0.3801785     -0.3269745      -1.086910     -0.7764771      0.4209027    
  0.7749952      0.1440494     -0.5392030     -0.1869247      0.9005891    
   1.066549      0.3173277     -0.4621403     -0.2713551      0.6180006    
  0.6166012     -0.1998316     -0.9513895     -0.6775754      0.3524272    
  0.4763710     -0.3020501      -1.019265     -0.6307265      0.5235426    
  0.7104334     -0.1000138     -0.9808257     -0.7707846      0.3454853    
  0.5977058     -0.1175930     -0.8674495     -0.5622635      0.5796981    
  0.8697901      0.2069635     -0.5135342     -0.2025417      0.8407740    
  0.8823667     -0.3237692e-01 -0.8618981     -0.5627974      0.4451008    
  0.4650453     -0.3790260      -1.120080     -0.8265253      0.1260961    
  0.1639127     -0.5809608      -1.130340     -0.5779293      0.5984148    
  0.7990867      0.8792738e-01 -0.5521871     -0.9816548e-01  0.9293796    
  0.8849186     -0.2104527e-01 -0.6975582     -0.2058042      0.8906577    
  0.9436556      0.8339511e-01 -0.6023641     -0.1795639      0.7818623    
  0.7043332     -0.2499732     -0.9595207     -0.4927726      0.5023760    
  0.4499887     -0.4066243     -0.9406025     -0.3696252      0.5860903    
  0.5100657     -0.2733912     -0.7115641     -0.5722753e-01  0.9722240    
  0.9223365      0.3755517e-01 -0.5960632     -0.1620281      0.6513172    
  0.4975239     -0.3064788     -0.7533564     -0.1800802      0.6497074    
  0.4294938     -0.4462969     -0.9318345     -0.3635037      0.4971146    
  0.3471080     -0.3748293     -0.5765620      0.2580982       1.178995    
   1.001330      0.2770898     -0.2593917e-01  0.5967723       1.296321    
  0.9090522      0.7796339e-02 -0.4177481      0.4355989e-01  0.4896221    
 -0.6055671e-01 -0.8852443      -1.071900     -0.3184845      0.3678107    
 -0.5930329e-01 -0.8275722     -0.9360657     -0.1117785      0.4907098    
 -0.9109331e-01 -0.9247030      -1.121430     -0.4029306      0.2780341    
 -0.3022616e-01 -0.5363815     -0.4529011      0.3947094      0.9830194    
  0.4776561     -0.1787904     -0.2056834      0.4853609      0.9003646    
  0.3512621     -0.2268949     -0.1756084      0.5499797      0.9113619    
  0.2130975     -0.5014904     -0.5039545      0.1665992      0.4675524    
 -0.1814290     -0.7745271     -0.6567841      0.1388083      0.5373319    
 -0.3506870e-01 -0.5276309     -0.3190326      0.4835933      0.7279983    
 -0.8496806e-01 -0.7148204     -0.5050308      0.3584761      0.7250827    
  0.9905307e-01 -0.3920085     -0.2062424      0.4686610      0.5932950    
 -0.1400260     -0.5299717     -0.1909261      0.5740345      0.7263879    
 -0.4238201e-01 -0.5336314     -0.2877839      0.4662235      0.6484827    
 -0.1288080     -0.6291068     -0.3545600      0.3485583      0.3993181    
 -0.4353816     -0.8792978     -0.4696279      0.3757982      0.4267588    
 -0.4668949     -0.8296712     -0.2317836      0.7994296      0.9623166    
  0.7111830e-01 -0.3604787      0.9246512e-01  0.8941349      0.8096554    
 -0.2807375     -0.7957157     -0.2780075      0.6562169      0.7339441    
 -0.1226678     -0.4845980     -0.8839895e-01  0.5626625      0.3828044    
 -0.6744488      -1.028397     -0.4140731      0.3206191      0.5764412e-01
 -0.9703611      -1.213474     -0.5129439      0.4126436      0.4203056    
 -0.3986944     -0.5602703      0.2337834e-01  0.7126213      0.5562320    
 -0.3194790     -0.4330567      0.3415930       1.209409       1.022854    
 -0.2007332e-01 -0.2926602      0.3184622       1.004785      0.6442685    
 -0.5385179     -0.8095083     -0.9962499e-01  0.6641974      0.3997508    
 -0.7050560     -0.9520749     -0.1908729      0.6557601      0.4715994    
 -0.5110770     -0.6276420      0.1597106      0.9688214      0.7212495    
 -0.3932678     -0.6767324     -0.1999738e-01  0.6886642      0.3661080    
 -0.7224646     -0.8783811     -0.6671211e-01  0.7907039      0.5772452    
 -0.5158117     -0.7493338      0.2808050e-01  0.8937490      0.6522262    
 -0.5068244     -0.7685775      0.1637386e-01  0.8457528      0.5612971    
 -0.5316647     -0.6568591      0.2196843       1.096451      0.8533441    
 -0.2065922     -0.3500499      0.4114902       1.106153      0.7196782    
 -0.3775240     -0.5388631      0.1778178      0.8329938      0.4067172    
 -0.7350651     -0.9489085     -0.2943478      0.3282570      0.1923745e-01
 -0.8475211     -0.7333475      0.1990109      0.9048122      0.4907066    
 -0.5126507     -0.5301678      0.2712177      0.8808700      0.3615154    
 -0.7609896     -0.8376477      0.1623068e-02  0.7081251      0.3873084    
 -0.4286442     -0.2783715      0.5958879       1.144374      0.5433521    
 -0.5693751     -0.7062589     -0.4332552e-01  0.4393144     -0.4584598e-01
 -0.8571846     -0.6537812      0.2437813      0.8260937      0.3115711    
 -0.6173540     -0.5039190      0.3682053      0.9095329      0.3359298    
 -0.6342582     -0.5865079      0.1920591      0.6475239      0.3226607e-01
 -0.8575951     -0.6435647      0.2363280      0.6938176      0.1015585    
 -0.7414431     -0.5712400      0.1748600      0.4463967     -0.2685325    
  -1.053105     -0.7946777     -0.7986554e-01  0.1645874     -0.4482735    
  -1.068833     -0.6496114      0.2360155      0.6348901      0.9269477e-01
 -0.5337061     -0.1543478      0.6183944      0.8278751      0.1698389    
 -0.4265930     -0.3183993e-01  0.6981624      0.8790961      0.1613592    
 -0.4937264     -0.1243204      0.5292699      0.6153529     -0.1042545    
 -0.6321709     -0.8432913e-01  0.6836356      0.8208456      0.1271768    
 -0.4025567      0.7235087e-01  0.6896516      0.6680008     -0.1233829    
 -0.6184374     -0.1904298e-01  0.6551298      0.5819773     -0.2944438    
 -0.9119101     -0.4761122      0.6837083e-01 -0.6193670e-01 -0.8802618    
  -1.354867     -0.9135950     -0.6063161      -1.128656      -2.445227    
  -3.433781      -3.268109      -2.651518      -1.910823     -0.8096301    
   1.296227       4.212171       6.617125       7.866433       7.576210    
   6.198060       4.441374       2.235293     -0.2064168      -2.410362    
  -3.074318      -1.834533     -0.4706692     -0.3204618      -1.450098    
  -2.617013      -3.474415      -5.107913      -7.074130      -8.011699    
  -6.663692      -3.063566       1.262111       5.167798       7.964300    
   9.779432       10.17600       7.938916       3.165999      -3.190392    
  -9.008503      -12.49428      -13.56979      -12.20966      -8.357268    
  -1.851371       5.678177       10.70949       11.64453       9.538623    
   6.980475       4.938824       2.479661     -0.1856277      -2.155363    
  -2.160405     -0.4507771       1.003392       1.640082       1.582071    
   1.087721     -0.1492002      -2.689789      -5.317250      -6.647591    
  -5.835028      -3.489943      -1.537887     -0.3677378      0.6813815    
   2.739984       5.622825       7.149559       6.185083       3.237261    
  0.4018532e-01  -2.749971      -5.684290      -7.814763      -8.034170    
  -5.828425      -2.284540      0.4266062       2.362203       4.620464    
   7.550588       9.691156       8.982220       5.850580       2.006320    
 -0.8418345      -2.659944      -4.800946      -6.691463      -6.986710    
  -4.985584      -1.752156      0.2461373      0.3675408     -0.3825870    
 -0.2339002       1.113992       1.712853      0.5744963      -1.802780    
  -3.615149      -3.901792      -3.536791      -2.383705      0.1959125    
   4.252444       7.865620       8.107211       5.199969       1.501804    
 -0.9821442      -2.385291      -4.147893      -5.746656      -5.617159    
  -2.683478       1.702678       4.623435       5.515229       5.242850    
   4.936660       4.605140       3.332436       1.927155       1.062647    
  0.6695458      0.1669111e-01  -2.027251      -4.739812      -6.814695    
  -7.068345      -5.857409      -5.202286      -5.148074      -4.552399    
  -2.709290     -0.8273814      -1.043092      -2.394916      -2.253693    
   1.070260       6.164979       9.728146       11.37829       13.12157    
   17.14987       23.17181       28.42802       31.52896       32.12920    
   29.92661       23.59526       11.67056      -4.707376      -23.87325    
  -45.37195      -70.64702      -100.0326      -127.4716      -143.7520    
  -142.8237      -125.6823      -98.31497      -64.95890      -26.27050    
   18.90388       70.04465       124.0000       177.2409       225.6254    
   263.8808       283.1243       272.2782       226.7780       152.8820    
   64.62981      -23.97319      -103.4926      -168.2821      -216.0515    
  -245.6476      -255.7969      -244.9073      -211.7751      -158.7845    
  -92.06609      -20.48515       46.62485       101.3059       135.1033    
   141.6303       121.6979       84.71260       44.40677       11.35984    
  -9.510036      -18.81679      -21.09579      -21.12820      -22.02663    
  -24.00332      -25.23268      -22.94285      -14.72700      -1.406494    
   14.28771       30.14855       45.31905       58.71413       65.99075    
   61.79225       43.37212       12.79264      -22.71587      -53.53089    
  -70.22609      -68.10562      -49.23056      -19.60797       12.09412    
   36.39668       46.08851       40.04995       23.85325       4.883228    
  -11.24519      -22.92005      -31.40845      -37.61475      -42.06032    
  -45.14030      -47.42499      -47.65820      -41.70274      -26.69061    
  -3.540748       23.11184       47.97296       67.84295       80.77448    
