  0.1017683e-01  -122.1613       87.99413      -12345.00      -12345.00    
   9.993649       50.00895       17.68428      -12345.00       2.000000    
  -12345.00      -12345.00      -12345.00      -12345.00      -12345.00    
  -12345.00      -12345.00      -12345.00      -12345.00      -12345.00    
  -12345.00      -12345.00      -12345.00      -12345.00      -12345.00    
  -12345.00      -12345.00      -12345.00      -12345.00      -12345.00    
  -12345.00       37.56633      -121.6800       250.0000      -12345.00    
   37.51733      -121.6850      -12345.00       5.950000      -12345.00    
   1.600000      0.1100000       88.00000      0.4500000      0.9200000    
   15.00000      -12345.00      -12345.00      -12345.00      -12345.00    
   5.456483       4.653721       184.6544      0.4907684e-01  -12345.00    
  -12345.00      0.1212338e-02         0.       90.00000      -12345.00    
  -12345.00      -12345.00      -12345.00      -12345.00      -12345.00    
  -12345.00      -12345.00      -12345.00      -12345.00      -12345.00    
      1987       173        11         9        56
       363         6    -12345    -12345      3933
    -12345    -12345    -12345    -12345    -12345
         1    -12345    -12345    -12345    -12345
    -12345    -12345    -12345    -12345    -12345
    -12345    -12345    -12345    -12345    -12345
    -12345    -12345    -12345    -12345    -12345
         1         1         1         1         1
CDVN    870622111018    
-12345  origin  -12345  
-12345  -12345  -12345  
-12345  -12345  -12345  
-12345  -12345  -12345  
-12345  -12345  satellit
satellit-12345  -12345  
-12345  -12345  -12345  
 -0.3121873     -0.5011937      0.3463663       1.086099       1.079489    
  0.4130580      0.2529060       1.067759       1.580647       1.170159    
  0.1301643     -0.2832907      0.3353378      0.6886486      0.2172294    
 -0.7562659      -1.018575     -0.2796537      0.1286964     -0.2682655    
  -1.099502      -1.178226     -0.2776998      0.2464517     -0.6605709e-01
 -0.8700864     -0.9675993     -0.8335674e-01  0.3570198     -0.1005721    
 -0.8713345     -0.6706653      0.5157243       1.078400      0.6475613    
 -0.1128468      0.3963023e-01   1.072549       1.442042      0.8797748    
  0.3315007e-01  0.8873291e-01  0.9965187       1.194296      0.4732007    
 -0.4585218     -0.4677596      0.3838485      0.5251384     -0.2589519    
  -1.145888      -1.000421     -0.3356533e-01  0.1925556     -0.4092083    
  -1.041766     -0.6716015      0.4266811      0.6240270     -0.1605068    
  -1.011034     -0.7378662      0.4252357      0.7367818      0.4382123e-02
 -0.9300678     -0.8367225      0.1669386      0.3781611     -0.3151702    
 -0.9864963     -0.5506040      0.6538307      0.8555430      0.2432481e-01
 -0.7968640     -0.5257754      0.5339965      0.7249548     -0.2293251e-01
 -0.7824675     -0.4697855      0.6126724      0.7687346     -0.3340743e-01
 -0.8289150     -0.4958716      0.6634642      0.8759472      0.1105574    
 -0.6679530     -0.4171934      0.5959481      0.7104685     -0.1088429    
 -0.9782000     -0.8183267      0.1813706      0.2839252     -0.5415415    
  -1.287276     -0.9022967      0.3207076      0.6594282      0.5807330e-01
 -0.5416486     -0.4146298e-01   1.230865       1.473556      0.6227531    
 -0.3554242     -0.2650048      0.7016785      0.8029619     -0.3764372e-01
 -0.8606114     -0.5882974      0.3930497      0.3419761     -0.6237332    
  -1.426054      -1.059297      0.6154869e-01  0.2869068     -0.3653367    
 -0.9944696     -0.6192747      0.3547646      0.3609028     -0.4245077    
  -1.019308     -0.5532314      0.4585265      0.5341454     -0.1041316    
 -0.5450883      0.9288698e-02   1.046505       1.083656      0.2987792    
 -0.2889477      0.1854306       1.119740       1.018543      0.1247071    
 -0.4768811      0.6872027e-01   1.073465      0.9957550      0.7076907e-01
 -0.5860801     -0.1287584      0.7064169      0.4464464     -0.5642901    
  -1.214379     -0.7354813      0.2183163      0.3001074     -0.2873875    
 -0.6505320     -0.1251255      0.6016783      0.2593126     -0.6828178    
  -1.102025     -0.4109274      0.5545520      0.4562140     -0.3430491    
 -0.7515639     -0.1387251      0.6210195      0.3039797     -0.5346035    
 -0.8416470     -0.1390684      0.6639302      0.4647774     -0.1764732    
 -0.3186673      0.4412863       1.153898      0.7883500      0.1192672e-01
 -0.1670231      0.6836948       1.449552      0.9720515      0.6057158e-01
 -0.2533292      0.3287410      0.7521754      0.7532703e-01 -0.8263800    
  -1.043134     -0.3533539      0.2329105     -0.1772588     -0.7728986    
 -0.7459344      0.6119486e-01  0.5705671     -0.2754539e-01 -0.7643223    
 -0.8303716     -0.1050951      0.3756225     -0.1149026     -0.6388142    
 -0.4935944      0.3730819      0.8933477      0.4219516     -0.6375718e-01
  0.5859425e-01  0.8357762       1.229751      0.5830783     -0.6317314e-01
 -0.6254441e-01  0.5389940      0.6885347     -0.2078628      -1.004098    
 -0.9823279     -0.2270896      0.1769270     -0.3905435     -0.8843349    
 -0.6480427      0.1700691      0.4170602     -0.3665558     -0.9770925    
 -0.7937505     -0.3791077e-01  0.1824373     -0.4671977     -0.8498760    
 -0.4484234      0.5289831      0.8684733      0.2034794     -0.1709097    
  0.2220819       1.052086       1.173249      0.2832507     -0.2992789    
 -0.3484816e-01  0.7326546      0.8071288     -0.4464168e-01 -0.4707814    
 -0.9071913e-01  0.6710964      0.6926392     -0.2250931     -0.7349530    
 -0.3822391      0.4458437      0.5500927     -0.3051294     -0.8090692    
 -0.5441835      0.1420318      0.8973890e-01 -0.8570580      -1.265397    
 -0.8245087     -0.6340330e-01 -0.8898704e-01 -0.9259583      -1.085997    
 -0.2783069      0.8320770       1.038613      0.3281949      0.1543534    
  0.8038455       1.677533       1.589129      0.5408122      0.7645997e-01
  0.4947609       1.131642      0.8547601     -0.2763390     -0.7725956    
 -0.3854409      0.2531731      0.4764755e-01 -0.9003821      -1.132303    
 -0.5823580      0.5188794e-01 -0.2364179      -1.257545      -1.424115    
 -0.6156372      0.3342202      0.2837859     -0.5580524     -0.5490692    
  0.4044450       1.437489       1.371229      0.3704455      0.1431047    
  0.8037317       1.464696       1.038756     -0.2567909     -0.7370690    
 -0.2677847      0.2883941     -0.1242592      -1.210080      -1.314273    
 -0.4426124      0.4836881      0.3897021     -0.4892084     -0.5238911    
  0.2482525      0.9458545      0.6065474     -0.4633610     -0.6028692    
  0.1448691      0.8554897      0.5248402     -0.5430378     -0.6891720    
  0.8064059e-01  0.8411538      0.5097778     -0.6104267     -0.8232283    
 -0.1363450      0.6017349      0.3481624     -0.7079840     -0.9056013    
 -0.1704719      0.6142842      0.3321097     -0.7463828     -0.8783600    
 -0.6274639e-01  0.7443687      0.5086122     -0.4173278     -0.3640225    
  0.5561675       1.387389       1.130311      0.9046671e-01 -0.7531904e-01
  0.5820068       1.126633      0.6570811     -0.4206162     -0.5395191    
  0.2027273      0.8656621      0.5063332     -0.4704860     -0.5378199    
  0.1659667      0.6970941      0.1467995     -0.9679734      -1.044602    
 -0.2977959      0.2164444     -0.3259690      -1.281559      -1.112023    
 -0.9324745e-01  0.6976072      0.4144626     -0.3237092     -0.4648010e-01
  0.9350852       1.500964      0.8714387     -0.1957954     -0.2109007    
  0.5738209       1.060550      0.3781466     -0.7654101     -0.8498424    
 -0.5510597e-01  0.5193877      0.4448748e-01 -0.6858189     -0.3732388    
  0.5404059      0.9997485      0.2515418     -0.8788326     -0.9475467    
 -0.2496428      0.1945776     -0.3647148      -1.169430     -0.9551280    
 -0.1565803      0.2193861     -0.4105666      -1.161215     -0.8734934    
 -0.8719710e-01  0.2405449     -0.3857363      -1.070410     -0.6820727    
  0.2904917      0.8636106      0.3971466     -0.2448521      0.1099714    
  0.8909554       1.104230      0.3286009     -0.4314168     -0.1332795    
  0.5637970      0.7347398      0.2945282e-01 -0.5117413      0.3701387e-01
  0.8616117       1.035668      0.3215531     -0.1687344      0.4054116    
   1.142580       1.181974      0.3493437     -0.2978677      0.2550242e-01
  0.4789117      0.3026862     -0.6503476      -1.289815     -0.8297617    
 -0.1813015     -0.1696607     -0.9655330      -1.461345     -0.8919911    
 -0.1893420     -0.1217996     -0.7639636     -0.9888355     -0.1672572    
  0.6304504      0.6870355      0.1244253e-01 -0.3034564      0.3267036    
  0.8641198      0.6194611     -0.3320768     -0.7561844     -0.7294621e-01
  0.5982373      0.6084402     -0.4072578e-01 -0.3051374      0.3967780    
   1.020836      0.8331056     -0.9791686e-01 -0.5071098      0.9749109e-01
  0.5055502      0.1295647     -0.7734661     -0.9776382     -0.1412344    
  0.4562145      0.2366408     -0.5731528     -0.7399993      0.8306618e-01
  0.5804827      0.2530136     -0.5944244     -0.7668235      0.4535628e-01
  0.5283428      0.1847877     -0.6391031     -0.7059367      0.2204481    
  0.7527975      0.4357991     -0.3437712     -0.3871264      0.5015424    
  0.9311734      0.4400861     -0.5151378     -0.6267571      0.2953031    
  0.7789517      0.3612163     -0.4623431     -0.4610885      0.4381414    
  0.7996913      0.3120028     -0.4946028     -0.4703726      0.4164336    
  0.7272763      0.1862480     -0.6012060     -0.4865977      0.4840476    
  0.8335669      0.2462264     -0.6361271     -0.5514430      0.3732718    
  0.5798464     -0.9469734e-01 -0.9319024     -0.7457337      0.3024390    
  0.5821967     -0.6397038e-01 -0.8346402     -0.6561866      0.2348953    
  0.3256808     -0.4241747      -1.171629     -0.7972888      0.4346754    
  0.7911878      0.1269542     -0.6296199     -0.3173448      0.7987081    
  0.9813283      0.1174905     -0.8334991     -0.6794049      0.3865871    
  0.6637349      0.4101725e-01 -0.5943063     -0.2378155      0.8045540    
  0.9088196      0.7506461e-01 -0.7786080     -0.6172336      0.2850897    
  0.2998238     -0.5349572      -1.258654     -0.8668472      0.3007838    
  0.5519384     -0.1397172     -0.8417846     -0.5038460      0.5770359    
  0.7096884     -0.9377311e-01 -0.8238804     -0.3908862      0.8322476    
   1.118076      0.4415106     -0.3451473     -0.1193835      0.9302465    
   1.064157      0.2059065     -0.6479106     -0.3839427      0.6075587    
  0.6197817     -0.2731542      -1.116352     -0.8350987      0.2615587    
  0.4341976     -0.3514118      -1.131345     -0.8223817      0.2350955    
  0.3473416     -0.4353001      -1.141078     -0.8339465      0.1538666    
  0.3314669     -0.2800929     -0.8145745     -0.3245464      0.7503130    
  0.8074552      0.2385393e-01 -0.5423045     -0.2461136e-01  0.9777868    
  0.8955235     -0.2440317e-01 -0.7325165     -0.3710116      0.5313336    
  0.4781994     -0.3233836     -0.8210514     -0.2293296      0.7730680    
  0.7326525     -0.1035411     -0.7236312     -0.2677666      0.6590092    
  0.5998514     -0.1999163     -0.7676253     -0.3602840      0.3767942    
  0.1400983     -0.6701997      -1.038785     -0.2913271      0.7838298    
  0.7789903      0.6459200e-01 -0.3009719      0.3553493       1.238731    
   1.047676      0.2176835     -0.2451989      0.2402103      0.9030979    
  0.5439103     -0.3757555     -0.8199190     -0.2510337      0.4419344    
  0.9922724e-01 -0.7367548      -1.102681     -0.5321358      0.1321330    
 -0.1835520     -0.8874033      -1.002537     -0.1243425      0.7649090    
  0.6053287      0.3746870e-01 -0.3457622e-01  0.7541966       1.414106    
  0.9887069      0.2575398      0.6800449e-01  0.6891285       1.151392    
  0.5966047     -0.1340932     -0.2841479      0.2879650      0.6026474    
 -0.1301227     -0.9991675      -1.173830     -0.5107176     -0.5964692e-01
 -0.5979568      -1.197645      -1.125228     -0.2948356      0.2627856    
 -0.2128155     -0.7790745     -0.6902640      0.1103048      0.5990211    
  0.1375633     -0.2876374     -0.4283816e-01  0.8147463       1.221112    
  0.6091908      0.7170904e-01  0.2689382       1.091461       1.382716    
  0.5586346     -0.1901195     -0.1442903      0.5304644      0.6624759    
 -0.2275315     -0.9565963     -0.9255127     -0.2604217     -0.1145445e-01
 -0.6870595      -1.206869     -0.9155068      0.4080338e-01  0.4356221    
 -0.2240628     -0.7686493     -0.5740197      0.2181343      0.4222244    
 -0.3760400     -0.8488403     -0.4441662      0.5096977      0.8742161    
  0.2808118     -0.5493366e-01  0.3808406       1.255212       1.340692    
  0.3684106     -0.2720312     -0.8766843e-01  0.5305207      0.4166045    
 -0.5539322     -0.9565663     -0.4505497      0.4648753      0.5558622    
 -0.4107576     -0.9277455     -0.4962378      0.3865061      0.4896603    
 -0.3372804     -0.6583747     -0.1236673      0.7744108      0.8456342    
 -0.6179013e-01 -0.4765804     -0.1494613e-01  0.7857101      0.7284153    
 -0.2676428     -0.6980789     -0.2220165      0.5818244      0.5542609    
 -0.3462814     -0.6524836     -0.1380077      0.5411747      0.3018023    
 -0.7449298      -1.054887     -0.4378834      0.3786884      0.2421909    
 -0.7663121      -1.055437     -0.4271945      0.3594351      0.1977597    
 -0.7458319     -0.8318376      0.3171008e-01  0.9402438      0.7939539    
 -0.1994264     -0.4414327      0.2318850       1.103097       1.026478    
  0.1260376      0.7272800e-01  0.8682302       1.590006       1.231738    
  0.5202153e-01 -0.2620817      0.3863177       1.056064      0.6086913    
 -0.6708903      -1.066708     -0.5277377      0.7967306e-01 -0.3030764    
  -1.421878      -1.546339     -0.6446291      0.2448948      0.8143307e-02
  -1.002921      -1.079811     -0.2548873      0.5607200      0.3392492    
 -0.6374546     -0.6537394      0.3032736       1.249597       1.042869    
 -0.3748190e-01 -0.2053502      0.5797395       1.358970       1.092396    
  0.8510529e-01 -0.5513104e-02  0.7710288       1.480916       1.067934    
 -0.1811797     -0.5115778      0.8672850e-01  0.6253344      0.1142568    
  -1.009826      -1.107778     -0.3186494      0.4179715      0.1236899    
 -0.8695149     -0.9505606     -0.1718524      0.4948167      0.7620066e-01
 -0.9352058     -0.8830759      0.7194037e-01  0.8503589      0.5256546    
 -0.3649148     -0.2785462      0.5454922       1.060683      0.4470988    
 -0.6528613     -0.6677170      0.1561918      0.7298421      0.2329216    
 -0.6899084     -0.5411331      0.3980390       1.002184      0.4510097    
 -0.5353159     -0.4633375      0.3807153      0.9440798      0.4410865    
 -0.4498429     -0.3152129      0.5561476       1.068308      0.3900759    
 -0.7310768     -0.8526688     -0.1945927      0.2586328     -0.2847136    
  -1.147783     -0.9924210     -0.1405933      0.3592823     -0.1555890    
 -0.9194458     -0.7395899     -0.4675972e-01  0.2322580     -0.4061548    
  -1.152149     -0.8041945      0.1806391      0.7343937      0.2501095    
 -0.4135735     -0.8911980e-01  0.7269726       1.077999      0.4651139    
 -0.2234013      0.9312761e-01  0.8308204       1.060963      0.3505867    
 -0.3456091      0.4174375e-02  0.6901490      0.8131993      0.4788530e-01
 -0.6590059     -0.3205423      0.3492206      0.4090683     -0.4687367    
  -1.221266     -0.8593838     -0.2086295     -0.1633204     -0.9624934    
  -1.528483     -0.9314428     -0.9304655e-01  0.1524283     -0.3350883    
 -0.6133639      0.6951177e-01  0.8409792      0.8691260      0.9043903e-02
 -0.6121975     -0.1764101      0.3944291      0.2994206     -0.5717764    
  -1.170325     -0.8313741     -0.5517030      -1.011929      -2.120919    
  -2.737512      -2.210775      -1.540243      -1.359832      -1.483087    
 -0.5866931       1.778057       3.700588       4.037491       3.831467    
   4.880192       6.480293       6.506200       5.045347       2.714244    
 -0.3810393      -4.867447      -10.73149      -15.18202      -15.54736    
  -11.00529      -3.231427       4.448594       10.13298       13.15375    
   14.03784       13.21036       10.05832       5.313303      0.8058058    
  -1.927297      -3.277418      -4.697343      -6.293708      -7.802688    
  -8.263959      -7.170763      -5.712113      -4.645429      -3.886994    
  -2.397503     -0.7158872e-02   1.757816       2.299566       2.477536    
   4.348733       8.111119       11.35434       12.95389       13.03416    
   11.86608       8.461027       1.849998      -5.941232      -12.29151    
  -15.62181      -16.00156      -14.97823      -13.09766      -9.605940    
  -4.010839       1.834684       5.238364       6.038222       6.035221    
   6.830329       7.543652       6.674884       5.245365       4.509574    
   4.653765       4.450203       2.329659     -0.9441574      -3.621805    
  -4.133727      -3.046095      -3.187365      -4.809574      -5.357521    
  -3.252124     -0.4828675     -0.1481334      -1.943045      -3.174084    
  -1.754937       1.449417       4.441449       6.820022       8.190972    
   8.579730       7.563270       3.867958      -1.515289      -6.313802    
  -8.824434      -9.269209      -9.043638      -8.037751      -5.810885    
  -2.371439       1.224938       3.818815       5.597261       6.204324    
   5.980293       5.730541       4.978598       3.604157       1.844069    
  0.4208496     -0.6893815      -2.682140      -4.964240      -5.564195    
  -3.513052      -1.135142      -1.359639      -3.556060      -5.872643    
  -6.326385      -4.399509      -1.928695      0.1032052       1.301293    
   1.920003       2.274774       2.039962       2.475089       4.726206    
   8.043572       10.22699       9.762205       7.270533       3.092955    
  -2.221461      -7.846613      -13.26615      -16.63069      -16.10777    
  -11.39815      -5.300231      -1.003775       2.679791       7.558562    
   12.78680       15.41408       13.24300       7.791891       1.512506    
  -3.743784      -7.484044      -10.61866      -12.99307      -13.56652    
  -10.53748      -3.578774       4.744158       12.34031       18.18041    
   21.14461       19.30750       12.31682       4.177803     -0.4592870e-01
   2.102755       8.543256       15.23251       21.26896       27.43335    
   32.49230       31.61726       19.16637      -7.033500      -44.57630    
  -84.89960      -114.9442      -122.1613      -100.4774      -55.35490    
  -1.450086       44.37859       71.23363       77.59663       66.43389    
   42.36523       11.68855      -17.69991      -36.87265      -39.83352    
  -26.05591     -0.6157416       28.93817       56.74872       77.93045    
   87.99413       83.95557       66.26922       39.36502       8.523539    
  -22.01445      -49.88290      -72.56343      -84.66161      -80.91177    
  -60.13353      -28.08683       4.710987       29.80494       42.83826    
   42.45102       29.37119       6.940402      -19.15259      -43.32315    
  -60.29325      -66.64143      -62.53980      -50.31769      -32.68410    
  -11.22957       12.01239       33.80085       51.43901       62.93590    
   67.90639       67.35491       62.73228       54.98701       42.95870    
   25.23224       1.692618      -25.10383      -49.18448      -64.40950    
  -66.47550      -54.21165      -29.54710       2.160191       30.57292    
   45.74889       44.67500       31.84447       14.41198      -3.094054    
