  0.1017683e-01  -592.5223       757.6252      -12345.00      -12345.00    
   9.993649       50.00895       17.68428      -12345.00       2.000000    
  -12345.00      -12345.00      -12345.00      -12345.00      -12345.00    
  -12345.00      -12345.00      -12345.00      -12345.00      -12345.00    
  -12345.00      -12345.00      -12345.00      -12345.00      -12345.00    
  -12345.00      -12345.00      -12345.00      -12345.00      -12345.00    
  -12345.00       37.62750      -121.7083       245.0000      -12345.00    
   37.51733      -121.6850      -12345.00       5.950000      -12345.00    
   1.600000      0.1100000       88.00000      0.4500000      0.9200000    
   15.00000      -12345.00      -12345.00      -12345.00      -12345.00    
   12.39953       350.4408       170.4289      0.1115246      -12345.00    
  -12345.00     -0.3181829e-03         0.       90.00000      -12345.00    
  -12345.00      -12345.00      -12345.00      -12345.00      -12345.00    
  -12345.00      -12345.00      -12345.00      -12345.00      -12345.00    
      1987       173        11         9        56
       363         6    -12345    -12345      3933
    -12345    -12345    -12345    -12345    -12345
         1    -12345    -12345    -12345    -12345
    -12345    -12345    -12345    -12345    -12345
    -12345    -12345    -12345    -12345    -12345
    -12345    -12345    -12345    -12345    -12345
         1         1         1         1         1
CMNN    870622111018    
-12345  origin  -12345  
-12345  -12345  -12345  
-12345  -12345  -12345  
-12345  -12345  -12345  
-12345  -12345  satellit
satellit-12345  -12345  
-12345  -12345  -12345  
   2.849275       1.222423      0.7512295      0.3715049     -0.5905218    
  -2.077099      -3.175870      -3.192594      -2.808346      -2.681833    
  -3.111434      -3.100932      -1.984121      -1.018746      -1.064634    
  -2.017154      -2.530546      -1.672406     -0.3923866      0.4149906    
  0.3963562      0.4736038       1.294355       1.676538      0.9723063    
 -0.4369848      -1.247613     -0.8475589     -0.2414515     -0.1516083    
 -0.7607414     -0.9320204      0.5233614e-01  0.9381549      0.9002540    
  0.1492189      0.1415957e-01  0.9733890       1.762972       1.777588    
   1.211734       1.337911       2.613746       3.553752       3.398757    
   2.566952       2.427711       3.215841       3.644892       3.269144    
   2.198420       1.572346       1.823903       1.593288      0.2476600    
  -1.777610      -2.885822      -2.629987      -2.404517      -2.651800    
  -3.224802      -3.226228      -2.320859      -1.708847      -1.840936    
  -2.194990      -1.461011      0.2521783       1.254665       1.409218    
   1.379262       2.131787       3.663155       4.564446       4.456062    
   3.897710       4.125637       4.884595       4.421737       2.819437    
  0.9014462     -0.4882768      -1.361707      -2.815915      -4.816619    
  -6.700522      -7.309904      -6.725041      -6.655050      -7.260205    
  -7.704231      -7.036509      -5.582333      -4.795590      -4.667913    
  -4.516038      -3.282380      -1.278635     -0.3543350     -0.4539729    
 -0.4824372      0.5020506       1.974034       2.357120       1.729906    
  0.8066531      0.6799192       1.317701      0.9753858     -0.5491210    
  -2.153061      -2.458388      -1.658674      -1.443182      -1.898165    
  -2.293525      -1.575830      0.8646759e-01  0.9436560      0.9543690    
   1.075321       2.182717       3.795572       4.374744       4.028967    
   3.338438       3.211121       3.767150       3.557815       2.434961    
   1.235389       1.096987       1.644421       1.021494     -0.6203419    
  -2.213731      -2.726756      -2.271999      -2.341656      -2.977749    
  -3.360636      -2.417017     -0.5216121      0.4127310      0.3379479    
  0.1640155      0.9150113       2.339106       2.743375       2.089613    
   1.403770       1.819333       2.760613       2.439012       1.341095    
  0.7501685       1.404789       2.692942       3.107305       2.678987    
   2.113907       2.338376       2.991315       2.494457       1.114724    
  0.3100406e-01  0.2662506       1.183957      0.9448268     -0.4372404    
  -1.877766      -2.095470      -1.383437      -1.339573      -1.804888    
  -1.840500     -0.8436332      0.3277655      0.1958434     -0.7455096    
  -1.392202     -0.9053140      0.1717399      0.2529950     -0.5825422    
  -1.216870     -0.6037548      0.5693827      0.6882118     -0.3590358e-02
 -0.4583954      0.1409614       1.066723      0.8130124     -0.2727715    
 -0.9618695     -0.4867899      0.1835018     -0.2666721      -1.176960    
  -1.542168     -0.8505401      0.1048903     -0.4780975e-01 -0.9391372    
  -1.351688     -0.6814843     -0.6086533e-01 -0.6592832      -1.671019    
  -2.099605      -1.556625     -0.8008356     -0.7757379     -0.9069989    
 -0.4239031      0.8725902       1.906049       1.669271       1.002745    
  0.8876778       1.723742       2.631959       2.491822       1.835655    
   1.566272       2.037118       2.158940      0.9831546     -0.3968268    
 -0.9352842     -0.6263415     -0.6582162      -1.752694      -2.924975    
  -3.301502      -2.685280      -2.373438      -3.265064      -4.155736    
  -4.179085      -3.177526      -2.091018      -1.882699      -1.916591    
  -1.435447     -0.1335223      0.9849660       1.108747       1.087878    
   1.490145       2.377263       2.794696       2.159840       1.502911    
   1.412759       1.816350       1.546531     -0.7584903e-01  -1.764672    
  -2.548390      -2.370270      -2.279727      -2.807643      -2.958165    
  -2.342458      -1.209489     -0.6889470      -1.211670      -1.383790    
 -0.5829805      0.7019077       1.131906      0.3670489     -0.2367476    
 -0.6679641e-01  0.7612666       1.165224      0.5997760      0.1806373    
  0.5533431       1.672782       2.487030       2.596927       3.028450    
   3.861490       4.621482       4.305414       2.769606       1.433858    
  0.8470882      0.5866723     -0.6689159      -2.852482      -3.952328    
  -3.490296      -2.311303      -1.818251      -2.241300      -2.213473    
  -1.211098      0.4564871       1.361868       1.118782       1.271927    
   2.271269       3.676295       4.377935       4.059733       3.854763    
   4.096066       4.441802       3.632159       1.540288     -0.8179864e-01
 -0.8516483      -1.467059      -2.932506      -5.047592      -6.357255    
  -6.426019      -5.470645      -4.716921      -4.468400      -3.371065    
  -1.445026      0.3805162      0.9456862      0.5141840      0.6975828    
   1.510215       2.191805       1.698268      0.2066302     -0.4480405    
  0.9548110e-01  0.9699070       1.118105      0.8752841       1.583004    
   2.951432       4.226348       4.403173       3.455602       3.000663    
   3.395235       3.784399       2.827434      0.8645284     -0.1505305    
 -0.9135003e-01  0.1321367     -0.6999145      -2.417778      -3.063041    
  -2.252212     -0.9701854     -0.6135181     -0.9464436     -0.2545880    
   1.201930       2.277775       1.932217      0.5755416      0.1179705    
  0.7602606       1.470148      0.9388930     -0.3704098     -0.5248182    
  0.1597169      0.5631196     -0.1666054      -1.769761      -2.670508    
  -2.643019      -2.371734      -2.994713      -4.167552      -3.936126    
  -2.416325     -0.8566359     -0.4154581     -0.8584141     -0.6732746    
  0.2181949       1.166534      0.9736478     -0.1753596     -0.3548402    
  0.4601832       1.296896       1.298437      0.9182468       1.615488    
   3.259460       4.986224       5.487607       4.898134       4.913046    
   5.492767       5.763624       4.860233       3.200629       2.224257    
   1.840966       1.374387     -0.9699905e-01  -2.227332      -3.311457    
  -3.259725      -2.964131      -3.336322      -3.837503      -3.171624    
  -1.922861      -1.119885      -1.438770      -2.200893      -1.828384    
 -0.5924296      0.2028335     -0.4000352      -1.427254      -1.206100    
 -0.1885185      0.4500404     -0.1197694      -1.146203      -1.141279    
 -0.4336797     -0.1561449      -1.173617      -2.572945      -2.737698    
  -2.053632      -1.661253      -2.266420      -3.019388      -2.553545    
  -1.228375     -0.1195324      0.5135256e-01  0.2300851       1.597587    
   3.279849       3.931527       2.877576       1.233645      0.6394578    
  0.7901130      0.5302625     -0.7975831      -2.071398      -2.046889    
  -1.443743      -1.196101      -1.689883      -2.183592      -1.849713    
  -1.245584      -1.032423      -1.481620      -1.657917     -0.8099426    
 -0.4002355e-01 -0.1347952     -0.8395406     -0.8918965      0.4776753    
   2.189469       3.090034       2.744690       2.365596       3.112663    
   3.923201       3.643346       2.138230      0.5649463     -0.2831957    
  -1.090569      -2.304267      -3.982557      -5.006589      -4.696933    
  -4.284998      -4.430198      -4.921329      -4.710917      -3.342522    
  -1.844192     -0.8343256     -0.5407345     -0.1041446       1.104807    
   2.084964       2.178425       1.484233       1.291104       2.224648    
   3.163112       3.523593       3.246212       3.300887       4.335908    
   5.201033       5.075878       4.155281       3.771337       4.268107    
   4.343809       3.649012       2.426555       1.597911       1.611054    
   1.512337      0.8482077     -0.1473713     -0.2316842      0.7984032    
   1.326887      0.7825571     -0.3747488     -0.8777348     -0.3459765    
  0.5753381e-01 -0.2432042      -1.132877      -1.291623     -0.3599083    
  0.2069696      0.6446414e-02 -0.5570608     -0.4984006      0.2808909    
  0.5630964     -0.1750750      -1.813365      -2.915867      -2.890215    
  -3.185997      -4.305391      -5.694216      -6.157057      -5.591170    
  -5.295950      -5.570987      -6.076154      -5.627602      -4.053486    
  -3.094141      -3.268687      -3.732882      -3.045521      -1.293622    
 -0.5805060e-01  0.4086512      0.5052930       1.366260       3.198086    
   4.378109       4.393049       3.862678       3.924897       4.379215    
   3.839278       2.447162      0.8594687      0.1490624      0.3832088    
 -0.7746226e-01  -1.437510      -2.625471      -2.324783     -0.9413868    
 -0.1819702      0.1201588      0.7114007       2.304165       4.451605    
   5.413956       5.093359       4.321999       4.174523       4.424936    
   3.581966       1.994192      0.5672070      0.4818145e-02 -0.7209903e-01
  -1.326597      -3.680873      -5.622661      -5.536493      -3.975551    
  -3.124273      -3.164144      -3.417907      -2.963101      -1.670933    
 -0.7937562     -0.4870745     -0.2869766      0.5841159       1.820853    
   1.907358       1.060617      0.2152341      0.3402553       1.207892    
   1.231630      0.4098788     -0.4189472     -0.1832292      0.7613547    
  0.5452967     -0.6890880      -1.763826      -1.533861     -0.2705915    
  0.1748960     -0.4563752      -1.230421     -0.8612483      0.3190673    
  0.3521162     -0.7064278      -1.687421      -1.612986     -0.8486068    
 -0.6795428     -0.8703138     -0.8759404      0.5215714e-01   1.626709    
   2.122710       1.511120      0.9072621       1.459001       2.647541    
   2.705809       1.753059      0.7778105      0.7994282       1.442438    
   1.124954      0.4263255e-01 -0.7667819     -0.4563021      0.3180334    
  0.1274923     -0.6349361      -1.157023     -0.6580974      0.4528728    
  0.5276955     -0.4581189      -1.415766      -1.293016     -0.6953147    
  -1.192806      -2.492734      -3.450547      -3.060446      -1.842220    
  -1.461351      -1.866922      -1.919496     -0.7385926      0.7863114    
   1.031132      0.3419219     -0.9611557e-01  0.7096813       2.169992    
   2.646945       2.080479       1.553809       2.259159       3.485505    
   3.581224       2.973230       2.803067       3.619602       4.567522    
   4.385820       3.495176       2.870376       3.162143       3.615324    
   2.993335       1.864250       1.321345       1.794766       2.239358    
   1.483704      0.1647619     -0.6672133     -0.4626111     -0.2553492    
  -1.312399      -2.807989      -3.566360      -3.286002      -3.079025    
  -3.926583      -4.974572      -5.315971      -4.634456      -3.902149    
  -4.108462      -4.362336      -3.755130      -2.282182      -1.198238    
  -1.402702      -2.012052      -2.183688      -1.527623     -0.8819202    
  -1.117163      -1.431925      -1.060526      0.7724176e-01  0.8272436    
  0.6152692      0.6081932       1.229413       2.324098       2.996508    
   2.567222       1.928548       1.800258       2.315596       2.397324    
   1.380326      0.3307748     -0.1624171     -0.4954646e-01 -0.1696979    
  -1.013578      -1.595964      -1.392252     -0.4429866      0.9562378e-01
 -0.4684114     -0.9287003     -0.5450616      0.5420840       1.150397    
  0.7519487      0.5575508       1.269096       2.702408       3.427576    
   2.850799       2.414463       2.806114       3.621312       3.549813    
   2.266579       1.248812       1.223994       1.875357       1.757293    
  0.4980021     -0.2665941      0.4864870e-01  0.8363882      0.7144833    
 -0.6235018      -1.865059      -2.359329      -2.020164      -1.949370    
  -2.656992      -2.935024      -2.417304      -1.453391      -1.078649    
  -1.432032      -1.172553      0.4024735e-01   1.747901       2.678424    
   2.594865       2.913575       3.871241       4.841745       4.593786    
   3.065161       1.911431       1.645028       1.846637       1.314856    
 -0.7706115e-01 -0.7933462     -0.6564057     -0.4480716      -1.259386    
  -2.749293      -3.212594      -2.596824      -1.675950      -1.637348    
  -2.580812      -2.932739      -2.311283      -1.477985      -1.806929    
  -3.042297      -3.174204      -2.077844     -0.9224312      -1.141026    
  -2.582704      -3.351772      -3.017068      -2.325530      -2.630577    
  -3.844601      -4.161466      -3.425401      -2.460105      -2.343661    
  -3.023176      -2.961460      -1.925713     -0.6695789     -0.4040197    
 -0.8671236     -0.2808943       1.315099       3.001060       3.735458    
   3.698665       4.528430       6.216704       7.654528       7.543130    
   6.164766       5.388832       5.304960       5.051472       3.817794    
   2.005444       1.045584      0.8877289      0.8654504     -0.1593742    
  -2.133544      -3.258071      -3.275406      -2.949653      -3.297720    
  -4.121447      -4.002102      -3.090766      -2.131904      -2.168687    
  -2.921715      -2.469704     -0.8533675      0.7057074       1.067041    
  0.7095012       1.268814       2.435799       3.280456       2.894592    
   1.585112       1.077857       1.421925       1.541719      0.3507684    
  -1.428070      -1.948447      -1.606080      -1.437120      -2.199535    
  -3.369774      -3.246511      -1.969049     -0.7366602     -0.7014388    
  -1.311216     -0.8083247      0.6330030       1.998467       2.269406    
   1.729138       2.045774       3.328715       4.442995       4.156882    
   3.033108       2.774965       3.168540       3.216392       2.135111    
  0.4762870     -0.3280326     -0.4381042     -0.7436765      -2.058013    
  -3.760729      -4.367509      -4.158430      -4.044031      -4.643589    
  -5.396381      -5.096612      -4.021972      -3.117341      -3.195245    
  -3.584140      -2.859479      -1.322356      0.4960741e-01  0.5166621    
  0.6143996       1.456719       2.719202       3.608828       3.430501    
   2.823568       3.030568       3.494346       3.178805       1.800566    
  0.4911425      0.2968963      0.4810079      0.1952465     -0.9497461    
  -1.989337      -1.599727     -0.4972598     -0.4070307e-02 -0.5505958    
 -0.9415812     -0.1329911       1.065769       1.814453       1.651046    
   1.223980       1.560986       2.209916       2.364996       1.631855    
  0.9989482       1.370970       1.786553       1.396607      0.7274720e-01
  -1.123119      -1.126868     -0.7271454      -1.052283      -2.379374    
  -3.393541      -3.115743      -2.407489      -2.029278      -2.306129    
  -2.469375      -1.737687     -0.8687564     -0.7273076      -1.561433    
  -2.028194      -1.162296     -0.1187288      0.2698815      0.5999191e-01
  0.3141094       1.515716       2.440971       2.363291       1.387509    
  0.7267132       1.045211       1.141966      0.3556046      -1.017991    
  -1.755448      -1.321730     -0.8361440     -0.9406202      -1.540275    
  -1.409064     -0.5044939e-02   1.246255       1.543471       1.040620    
  0.7704175       1.216731       1.423847      0.8961952     -0.2164482    
 -0.6432160      0.1565972      0.8694469      0.8457328      0.2404614    
  0.1340315      0.9492981       1.637287       1.730193       1.250581    
   1.338591       2.434434       3.032388       2.585823       1.728823    
   1.702835       2.503671       2.724751       2.112642       1.051432    
  0.6515309       1.326179       1.821500       1.540450      0.8423017    
   1.011860       2.132224       2.732884       2.577744       2.108933    
   2.338700       3.421303       4.027858       3.706163       2.751366    
   2.291687       2.433619       1.756529      0.1452851      -1.679371    
  -2.492012      -2.215476      -2.425252      -3.559746      -5.084846    
  -5.674181      -5.135805      -4.993706      -5.659029      -6.909275    
  -8.037673      -8.970253      -10.37688      -11.21087      -10.44571    
  -8.305340      -5.919197      -3.590406      0.5593901       6.226621    
   9.607476       7.059798     -0.9079256      -9.614958      -15.21434    
  -15.83150      -11.93291      -5.352588       4.416901       17.73536    
   31.17177       37.29761       31.06391       17.43465       5.633706    
 -0.9195361      -6.017700      -12.59716      -17.12880      -15.86840    
  -10.05354      -4.914763      -4.082763      -5.803087      -7.648048    
  -8.538229      -8.359906      -6.782812     -0.9024436       10.81231    
   24.95601       34.67326       36.74960       35.22764       33.36392    
   30.52546       25.67425       20.06415       17.09166       17.01857    
   17.22574       15.65004       11.36957       3.494884      -10.86778    
  -32.52260      -57.90112      -81.36313      -96.42044      -98.48117    
  -85.43528      -59.87690      -29.60668      -1.865605       19.36368    
   33.19174       37.82825       30.60168       14.70577      -1.841038    
  -12.00117      -14.67753      -13.31315      -10.57734      -9.169704    
  -10.71019      -13.58251      -13.79668      -7.287763       6.677174    
   26.18989       46.12965       59.42379       63.44171       60.66663    
   55.43413       50.18941       45.36353       41.40471       37.39795    
   32.24055       24.55990       12.23907      -4.885985      -24.81729    
  -42.29795      -50.65608      -47.19869      -35.23723      -21.93466    
  -12.03405      -6.797715      -6.585699      -10.57294      -16.65542    
  -20.60639      -19.76714      -15.28908      -7.417330       4.053003    
   16.60951       25.11679       25.65597       18.62273       6.655193    
  -6.301051      -16.74208      -23.16309      -25.78536      -27.51170    
  -31.34602      -38.95573      -49.94285      -59.72420      -62.87946    
  -58.40865      -51.77561      -48.09861      -43.77587      -29.64486    
 -0.3128028e-01   39.93067       76.53221       98.20879       102.7104    
