  0.1017683e-01  -781.0000       800.0000      -12345.00      -12345.00    
   9.993649       50.00895       17.68428       20.67627       2.000000    
  -12345.00      -12345.00      -12345.00      -12345.00      -12345.00    
  -12345.00      -12345.00      -12345.00      -12345.00      -12345.00    
   44.94154      -12345.00      -12345.00      -12345.00      -12345.00    
  -12345.00      -12345.00      -12345.00      -12345.00      -12345.00    
  -12345.00       37.62750      -121.7083       245.0000      -12345.00    
   37.51733      -121.6850      -12345.00       5.950000      -12345.00    
   1.600000      0.1100000       88.00000      0.4500000      0.9200000    
   15.00000      -12345.00      -12345.00      -12345.00      -12345.00    
   12.39953       350.4408       170.4289      0.1115246      -12345.00    
  -12345.00      -15.65370             0.             0.      -12345.00    
  -12345.00      -12345.00      -12345.00      -12345.00      -12345.00    
  -12345.00      -12345.00      -12345.00      -12345.00      -12345.00    
      1987       173        11         9        56
       363         6    -12345    -12345      3933
    -12345    -12345    -12345    -12345    -12345
         1    -12345    -12345    -12345    -12345
    -12345    -12345    -12345    -12345    -12345
    -12345    -12345    -12345    -12345    -12345
    -12345    -12345    -12345    -12345    -12345
         1         1         1         1         1
CMNZ    870622111018    
-12345  origin  IPU0    
-12345  -12345  -12345  
-12345  -12345  -12345  
-12345  -12345  -12345  
-12345  -12345  satellit
satellit-12345  -12345  
-12345  -12345  -12345  
  -11.00000      -31.00000      -5.000000      -19.00000      -4.000000    
  -16.00000      -34.00000      -2.000000      -13.00000      -5.000000    
  -23.00000      -44.00000      -15.00000      -28.00000      -14.00000    
  -22.00000      -43.00000      -15.00000      -25.00000      -10.00000    
  -25.00000      -42.00000      -4.000000      -14.00000      -4.000000    
  -25.00000      -43.00000      -10.00000      -23.00000      -12.00000    
  -26.00000      -35.00000       2.000000      -17.00000      -8.000000    
  -22.00000      -34.00000      -2.000000      -14.00000      -2.000000    
  -26.00000      -45.00000      -5.000000      -20.00000      -6.000000    
  -24.00000      -36.00000      -6.000000      -24.00000      -5.000000    
  -16.00000      -31.00000             0.      -24.00000      -15.00000    
  -29.00000      -43.00000      -6.000000      -24.00000      -7.000000    
  -20.00000      -34.00000      -3.000000      -20.00000      -8.000000    
  -24.00000      -34.00000       4.000000      -21.00000      -12.00000    
  -26.00000      -36.00000             0.      -18.00000      -6.000000    
  -22.00000      -33.00000       7.000000      -13.00000      -11.00000    
  -30.00000      -40.00000       3.000000      -15.00000      -10.00000    
  -27.00000      -40.00000             0.      -22.00000      -13.00000    
  -21.00000      -29.00000       12.00000      -14.00000      -14.00000    
  -28.00000      -39.00000       2.000000      -24.00000      -21.00000    
  -35.00000      -41.00000       3.000000      -18.00000      -16.00000    
  -28.00000      -36.00000       4.000000      -21.00000      -14.00000    
  -27.00000      -40.00000             0.      -21.00000      -11.00000    
  -22.00000      -33.00000       8.000000      -12.00000      -9.000000    
  -24.00000      -32.00000       13.00000      -14.00000      -11.00000    
  -24.00000      -36.00000       7.000000      -22.00000      -18.00000    
  -25.00000      -36.00000       7.000000      -17.00000      -14.00000    
  -31.00000      -43.00000       3.000000      -23.00000      -26.00000    
  -40.00000      -44.00000       5.000000      -21.00000      -15.00000    
  -35.00000      -45.00000       3.000000      -21.00000      -20.00000    
  -39.00000      -46.00000       4.000000      -13.00000      -12.00000    
  -31.00000      -37.00000       7.000000      -12.00000      -12.00000    
  -30.00000      -36.00000       8.000000      -17.00000      -18.00000    
  -31.00000      -34.00000             0.      -20.00000      -13.00000    
  -25.00000      -35.00000       3.000000      -15.00000      -13.00000    
  -30.00000      -34.00000       4.000000      -18.00000      -25.00000    
  -40.00000      -35.00000       4.000000      -14.00000      -10.00000    
  -23.00000      -22.00000       7.000000      -20.00000      -25.00000    
  -41.00000      -35.00000       1.000000      -17.00000      -24.00000    
  -42.00000      -38.00000      -4.000000      -21.00000      -19.00000    
  -32.00000      -25.00000       2.000000      -18.00000      -16.00000    
  -30.00000      -26.00000       4.000000      -18.00000      -20.00000    
  -33.00000      -20.00000       11.00000      -11.00000      -10.00000    
  -24.00000      -18.00000       7.000000      -16.00000      -13.00000    
  -22.00000      -14.00000       8.000000      -21.00000      -14.00000    
  -19.00000      -6.000000       16.00000      -16.00000      -13.00000    
  -26.00000      -17.00000       7.000000      -20.00000      -10.00000    
  -22.00000      -12.00000       8.000000      -20.00000      -9.000000    
  -18.00000      -6.000000       15.00000      -15.00000      -5.000000    
  -18.00000      -6.000000       12.00000      -24.00000      -11.00000    
  -25.00000      -12.00000       11.00000      -16.00000      -5.000000    
  -20.00000      -10.00000       10.00000      -18.00000      -3.000000    
  -17.00000      -11.00000      -1.000000      -35.00000      -21.00000    
  -26.00000      -7.000000       10.00000      -24.00000      -11.00000    
  -24.00000      -6.000000       7.000000      -29.00000      -15.00000    
  -25.00000      -7.000000       4.000000      -36.00000      -20.00000    
  -22.00000      -2.000000       10.00000      -28.00000      -8.000000    
  -18.00000      -3.000000       11.00000      -29.00000      -12.00000    
  -24.00000      -8.000000       7.000000      -28.00000      -12.00000    
  -24.00000      -4.000000       14.00000      -27.00000      -16.00000    
  -24.00000      -1.000000       10.00000      -30.00000      -9.000000    
  -21.00000      -12.00000      -2.000000      -36.00000      -15.00000    
  -24.00000      -9.000000       2.000000      -33.00000      -15.00000    
  -21.00000      -2.000000       11.00000      -32.00000      -15.00000    
  -23.00000      -4.000000       5.000000      -33.00000      -9.000000    
  -15.00000      -5.000000       4.000000      -34.00000      -17.00000    
  -27.00000      -6.000000       13.00000      -24.00000      -7.000000    
  -16.00000       2.000000       12.00000      -31.00000      -5.000000    
  -5.000000       12.00000       15.00000      -32.00000      -10.00000    
  -16.00000      -5.000000       8.000000      -29.00000       1.000000    
  -7.000000       3.000000       14.00000      -29.00000      -11.00000    
  -15.00000      -2.000000       5.000000      -39.00000      -13.00000    
  -18.00000      -9.000000       4.000000      -35.00000      -11.00000    
  -16.00000      -5.000000       9.000000      -31.00000      -11.00000    
  -22.00000      -12.00000       2.000000      -38.00000      -13.00000    
  -19.00000      -6.000000       7.000000      -36.00000      -7.000000    
  -15.00000      -3.000000       7.000000      -36.00000      -3.000000    
  -15.00000      -2.000000       9.000000      -31.00000      -8.000000    
  -12.00000       7.000000       16.00000      -28.00000      -4.000000    
  -13.00000       3.000000       9.000000      -25.00000       3.000000    
  -1.000000       10.00000       8.000000      -28.00000      -4.000000    
  -7.000000       12.00000       13.00000      -26.00000      -6.000000    
  -9.000000       5.000000       2.000000      -36.00000      -11.00000    
  -4.000000       11.00000       3.000000      -29.00000      -1.000000    
  -6.000000             0.      -6.000000      -33.00000      -6.000000    
  -8.000000       2.000000      -6.000000      -38.00000      -16.00000    
  -17.00000       1.000000             0.      -25.00000      -5.000000    
  -13.00000             0.      -9.000000      -32.00000      -6.000000    
  -7.000000       3.000000      -11.00000      -35.00000      -13.00000    
  -21.00000      -1.000000      -4.000000      -30.00000      -15.00000    
  -23.00000      -7.000000      -15.00000      -36.00000      -15.00000    
  -22.00000      -6.000000      -17.00000      -37.00000      -10.00000    
  -15.00000      -1.000000      -12.00000      -39.00000      -12.00000    
  -11.00000       1.000000      -15.00000      -38.00000      -13.00000    
  -13.00000       5.000000      -8.000000      -28.00000             0.    
  -11.00000             0.      -16.00000      -40.00000      -13.00000    
  -25.00000      -11.00000      -25.00000      -44.00000      -12.00000    
  -21.00000      -13.00000      -32.00000      -44.00000      -6.000000    
  -17.00000      -10.00000      -34.00000      -50.00000      -16.00000    
  -29.00000      -16.00000      -28.00000      -44.00000      -16.00000    
  -29.00000      -9.000000      -23.00000      -42.00000      -11.00000    
  -19.00000      -6.000000      -27.00000      -42.00000      -9.000000    
  -24.00000      -9.000000      -26.00000      -39.00000      -7.000000    
  -20.00000      -3.000000      -19.00000      -28.00000             0.    
  -16.00000             0.      -24.00000      -43.00000      -7.000000    
  -20.00000             0.      -26.00000      -42.00000      -1.000000    
  -12.00000             0.      -24.00000      -38.00000      -3.000000    
  -23.00000      -13.00000      -33.00000      -46.00000      -6.000000    
  -22.00000      -12.00000      -35.00000      -44.00000      -7.000000    
  -26.00000      -17.00000      -34.00000      -43.00000      -4.000000    
  -23.00000      -18.00000      -42.00000      -47.00000      -1.000000    
  -20.00000      -12.00000      -25.00000      -30.00000       11.00000    
  -14.00000      -12.00000      -28.00000      -29.00000       14.00000    
  -13.00000      -12.00000      -25.00000      -31.00000       5.000000    
  -10.00000             0.      -13.00000      -25.00000       11.00000    
  -18.00000      -19.00000      -27.00000      -34.00000       13.00000    
  -8.000000      -9.000000      -27.00000      -34.00000       15.00000    
  -5.000000      -8.000000      -27.00000      -38.00000       7.000000    
  -13.00000      -12.00000      -32.00000      -45.00000             0.    
  -20.00000      -14.00000      -25.00000      -36.00000       9.000000    
  -15.00000      -13.00000      -26.00000      -33.00000       10.00000    
  -18.00000      -20.00000      -32.00000      -40.00000       4.000000    
  -20.00000      -20.00000      -32.00000      -34.00000       16.00000    
  -10.00000      -8.000000      -21.00000      -33.00000       8.000000    
  -16.00000      -10.00000      -23.00000      -31.00000       12.00000    
  -13.00000      -11.00000      -30.00000      -35.00000       15.00000    
  -7.000000      -11.00000      -30.00000      -40.00000       4.000000    
  -16.00000      -11.00000      -25.00000      -35.00000       5.000000    
  -14.00000      -8.000000      -22.00000      -35.00000       5.000000    
  -17.00000      -11.00000      -26.00000      -29.00000       11.00000    
  -17.00000      -22.00000      -36.00000      -34.00000       1.000000    
  -19.00000      -18.00000      -32.00000      -37.00000      -7.000000    
  -28.00000      -26.00000      -42.00000      -42.00000      -4.000000    
  -23.00000      -23.00000      -34.00000      -28.00000       3.000000    
  -22.00000      -27.00000      -38.00000      -33.00000      -5.000000    
  -25.00000      -25.00000      -38.00000      -34.00000      -7.000000    
  -31.00000      -29.00000      -37.00000      -26.00000       2.000000    
  -22.00000      -22.00000      -40.00000      -32.00000      -6.000000    
  -24.00000      -15.00000      -23.00000      -20.00000      -3.000000    
  -21.00000      -16.00000      -29.00000      -24.00000       2.000000    
  -20.00000      -13.00000      -26.00000      -17.00000       8.000000    
  -17.00000      -11.00000      -29.00000      -19.00000       12.00000    
  -16.00000      -11.00000      -22.00000      -11.00000       8.000000    
  -21.00000      -11.00000      -23.00000      -13.00000       10.00000    
  -20.00000      -11.00000      -22.00000      -9.000000       17.00000    
  -17.00000      -15.00000      -27.00000      -6.000000       19.00000    
  -16.00000      -13.00000      -26.00000      -10.00000       9.000000    
  -24.00000      -12.00000      -21.00000      -6.000000       11.00000    
  -24.00000      -15.00000      -26.00000      -11.00000       6.000000    
  -27.00000      -16.00000      -27.00000      -8.000000       11.00000    
  -24.00000      -9.000000      -18.00000      -3.000000       7.000000    
  -29.00000      -11.00000      -24.00000      -10.00000       7.000000    
  -25.00000      -12.00000      -28.00000      -8.000000       9.000000    
  -25.00000      -10.00000      -21.00000      -4.000000       13.00000    
  -24.00000      -8.000000      -17.00000             0.       13.00000    
  -26.00000      -6.000000      -19.00000      -1.000000       18.00000    
  -17.00000      -10.00000      -27.00000      -5.000000       13.00000    
  -25.00000      -5.000000      -16.00000      -5.000000       5.000000    
  -33.00000      -15.00000      -28.00000      -7.000000       7.000000    
  -32.00000      -18.00000      -27.00000      -6.000000       7.000000    
  -36.00000      -21.00000      -29.00000      -9.000000       2.000000    
  -38.00000      -18.00000      -26.00000      -13.00000      -1.000000    
  -38.00000      -15.00000      -27.00000      -14.00000      -1.000000    
  -39.00000      -16.00000      -25.00000      -12.00000             0.    
  -35.00000      -12.00000      -20.00000      -8.000000       1.000000    
  -42.00000      -19.00000      -23.00000      -7.000000       7.000000    
  -34.00000      -6.000000      -12.00000      -3.000000       11.00000    
  -29.00000      -9.000000      -16.00000       4.000000       20.00000    
  -27.00000      -7.000000      -15.00000      -3.000000       6.000000    
  -42.00000      -14.00000      -9.000000       9.000000       17.00000    
  -35.00000      -7.000000      -12.00000       1.000000       14.00000    
  -31.00000      -8.000000      -13.00000       7.000000       22.00000    
  -25.00000      -2.000000      -5.000000       12.00000       17.00000    
  -30.00000      -6.000000      -5.000000       12.00000       15.00000    
  -29.00000      -3.000000      -8.000000       4.000000       14.00000    
  -26.00000      -2.000000      -6.000000       12.00000       17.00000    
  -30.00000      -14.00000      -17.00000      -4.000000      -2.000000    
  -34.00000      -12.00000      -19.00000      -7.000000      -4.000000    
  -37.00000      -12.00000      -16.00000      -1.000000       3.000000    
  -28.00000      -7.000000      -17.00000      -1.000000       3.000000    
  -33.00000      -16.00000      -19.00000      -6.000000      -10.00000    
  -42.00000      -16.00000      -18.00000      -4.000000      -4.000000    
  -35.00000      -15.00000      -14.00000      -1.000000      -6.000000    
  -32.00000      -9.000000      -15.00000      -5.000000      -12.00000    
  -41.00000      -16.00000      -11.00000       4.000000      -5.000000    
  -34.00000      -9.000000      -12.00000      -5.000000      -13.00000    
  -36.00000      -14.00000      -12.00000       2.000000      -6.000000    
  -31.00000      -10.00000      -16.00000      -3.000000      -11.00000    
  -35.00000      -11.00000      -12.00000       2.000000      -12.00000    
  -35.00000      -9.000000      -17.00000      -10.00000      -17.00000    
  -37.00000      -10.00000      -16.00000      -2.000000      -14.00000    
  -43.00000      -18.00000      -22.00000      -2.000000      -12.00000    
  -34.00000      -8.000000      -21.00000      -11.00000      -25.00000    
  -43.00000      -10.00000      -19.00000      -5.000000      -22.00000    
  -42.00000      -11.00000      -24.00000      -13.00000      -25.00000    
  -45.00000      -14.00000      -24.00000      -13.00000      -28.00000    
  -42.00000      -8.000000      -27.00000      -12.00000      -23.00000    
  -42.00000      -13.00000      -23.00000      -8.000000      -21.00000    
  -43.00000      -9.000000      -26.00000      -17.00000      -30.00000    
  -47.00000      -12.00000      -24.00000      -12.00000      -31.00000    
  -45.00000      -9.000000      -26.00000      -16.00000      -30.00000    
  -44.00000      -12.00000      -29.00000      -15.00000      -32.00000    
  -49.00000      -14.00000      -23.00000      -7.000000      -27.00000    
  -47.00000      -10.00000      -23.00000      -8.000000      -26.00000    
  -41.00000      -3.000000      -21.00000      -16.00000      -36.00000    
  -49.00000      -7.000000      -18.00000      -8.000000      -25.00000    
  -41.00000      -9.000000      -31.00000      -24.00000      -31.00000    
  -38.00000      -2.000000      -25.00000      -20.00000      -41.00000    
  -48.00000      -4.000000      -20.00000      -15.00000      -26.00000    
  -36.00000      -2.000000      -25.00000      -23.00000      -38.00000    
  -35.00000       66.00000       204.0000       388.0000       366.0000    
   65.00000      -209.0000      -258.0000      -93.00000      -88.00000    
  -219.0000      -159.0000      -56.00000      -28.00000      -112.0000    
  -161.0000      -147.0000      -185.0000      -113.0000      -28.00000    
   6.000000       21.00000      -108.0000      -181.0000      -111.0000    
  -79.00000      -152.0000      -155.0000       40.00000       144.0000    
   176.0000       147.0000      -55.00000      -12.00000       79.00000    
  -117.0000      -306.0000      -248.0000       2.000000       139.0000    
   170.0000       163.0000       90.00000       174.0000       219.0000    
   66.00000      -35.00000      -21.00000       56.00000       28.00000    
  -16.00000       10.00000      -37.00000      -35.00000      -47.00000    
  -91.00000      -110.0000      -160.0000      -69.00000       52.00000    
   52.00000      -8.000000      -19.00000       121.0000       103.0000    
  -61.00000      -7.000000       87.00000       41.00000      -114.0000    
  -125.0000      -10.00000       29.00000       102.0000       92.00000    
  -34.00000      -132.0000      -188.0000      -161.0000      -188.0000    
  -173.0000      -41.00000      -15.00000       17.00000       88.00000    
   147.0000       140.0000      -8.000000      -109.0000      -152.0000    
  -96.00000       111.0000       179.0000       76.00000      -89.00000    
  -159.0000      -116.0000      -55.00000       55.00000       75.00000    
   71.00000       162.0000       181.0000       163.0000       171.0000    
   231.0000       255.0000       161.0000       53.00000      -169.0000    
  -324.0000      -271.0000      -267.0000      -310.0000      -333.0000    
  -266.0000      -159.0000      -176.0000      -243.0000      -268.0000    
  -142.0000       20.00000       20.00000       3.000000       87.00000    
   330.0000       534.0000       451.0000       161.0000      -113.0000    
  -102.0000       47.00000       4.000000      -162.0000      -266.0000    
