  0.1017683e-01  -67.66112       64.60033      -12345.00      -12345.00    
   9.993649       50.00895       17.68428      -12345.00       2.000000    
  -12345.00      -12345.00      -12345.00      -12345.00      -12345.00    
  -12345.00      -12345.00      -12345.00      -12345.00      -12345.00    
  -12345.00      -12345.00      -12345.00      -12345.00      -12345.00    
  -12345.00      -12345.00      -12345.00      -12345.00      -12345.00    
  -12345.00       37.62750      -121.7083       245.0000      -12345.00    
   37.51733      -121.6850      -12345.00       5.950000      -12345.00    
   1.600000      0.1100000       88.00000      0.4500000      0.9200000    
   15.00000      -12345.00      -12345.00      -12345.00      -12345.00    
   12.39953       350.4408       170.4289      0.1115246      -12345.00    
  -12345.00      0.3006296e-03   90.00000       90.00000      -12345.00    
  -12345.00      -12345.00      -12345.00      -12345.00      -12345.00    
  -12345.00      -12345.00      -12345.00      -12345.00      -12345.00    
      1987       173        11         9        56
       363         6    -12345    -12345      3933
    -12345    -12345    -12345    -12345    -12345
         1    -12345    -12345    -12345    -12345
    -12345    -12345    -12345    -12345    -12345
    -12345    -12345    -12345    -12345    -12345
    -12345    -12345    -12345    -12345    -12345
         1         1         1         1         1
CMNE    870622111018    
-12345  origin  -12345  
-12345  -12345  -12345  
-12345  -12345  -12345  
-12345  -12345  -12345  
-12345  -12345  satellit
satellit-12345  -12345  
-12345  -12345  -12345  
  0.7472399      0.6414092e-01  0.4372336       1.006886       1.033000    
  0.3089108     -0.2940558      0.9644099e-01  0.6490772      0.4961196    
 -0.4631477      -1.132549     -0.7608460     -0.2565367     -0.2868593    
 -0.8229488     -0.9431314     -0.2233368      0.3703059      0.3013527    
 -0.4327036     -0.7905879     -0.7438259e-01  0.6356100      0.5336908    
 -0.3032788     -0.6786961      0.6580421e-01  0.8891720      0.9868214    
  0.2805025     -0.1525085      0.2988492      0.6959591      0.4897662    
 -0.2567393     -0.4351532      0.5266007       1.304493      0.9996513    
 -0.1774472     -0.9014126     -0.5426222     -0.1706039     -0.4601879    
  -1.353814      -1.667096     -0.8251792      0.1333151e-01  0.2030706    
 -0.1695123     -0.8929478e-01  0.7630363       1.154599      0.6630829    
 -0.2942169     -0.4498840      0.4615972      0.8866490      0.3575054    
 -0.5582056     -0.6749747      0.2703415      0.9578997      0.8062895    
  0.3626744e-01 -0.2065722      0.4497090      0.7495116      0.2904927    
 -0.6033832     -0.8733318     -0.2686156     -0.1243156     -0.7642888    
  -1.665054      -1.677691     -0.7256725     -0.3912744      -1.011419    
  -1.803483      -1.513314     -0.1506671      0.6173067      0.4058694    
  0.2318582e-01  0.6249742       1.936070       2.242241       1.407691    
  0.4005931      0.4145344       1.328841       1.549322      0.7555533    
 -0.2240772     -0.1762986      0.6048489      0.5471435     -0.2946958    
  -1.139234      -1.007766     -0.7300482e-01  0.1016974     -0.6114401    
  -1.339144      -1.009680     -0.1380591e-01  0.6036279e-01 -0.6688094    
  -1.236832     -0.6337944      0.6503244      0.8483884      0.5027356e-01
 -0.6978101     -0.3880830      0.6002601      0.6881068     -0.3872135e-01
 -0.7689289     -0.5735171      0.3224235      0.3775605     -0.2820650    
 -0.7231534     -0.4598599e-01   1.381094       1.793708       1.047423    
  0.6424121e-01  0.7031817e-01  0.8608384      0.6783167     -0.3764218    
  -1.242986     -0.8555441      0.4319205      0.7584286      0.8428671e-01
 -0.6343490     -0.4425872      0.3810666      0.2007109     -0.9556921    
  -2.061326      -2.005658     -0.9001284     -0.3942063     -0.7732688    
  -1.201749     -0.5671851      0.8582883       1.370466      0.8502615    
  0.1710468      0.2775958      0.8751752      0.5407996     -0.6030442    
  -1.511634      -1.172047     -0.1076786      0.4101278e-01 -0.5810121    
  -1.060328     -0.5564488      0.5410827      0.7202736      0.9477839e-01
 -0.3394264      0.3778136       1.623931       1.609207      0.5498661    
 -0.3075312     -0.2847769e-01  0.7383696      0.4918088     -0.4113020    
 -0.8846017     -0.2233149      0.8143308      0.7338220     -0.1821179    
 -0.8475133     -0.3273800      0.7727113      0.8410308      0.8418983e-01
 -0.3314323      0.3749617       1.400826       1.281896      0.3279724    
 -0.4287553     -0.2280451      0.2217639     -0.4088666      -1.512020    
  -1.899353      -1.106244     -0.8638804e-01 -0.1367730     -0.8113338    
  -1.087819     -0.3243902      0.7744176      0.8066237      0.7029170e-01
 -0.2930619      0.3163966       1.068812      0.8221557      0.1344579    
 -0.1754194e-01  0.6865629       1.290722      0.8730020      0.1316750    
 -0.2061581      0.1628463      0.6162468      0.2189554     -0.6118536    
 -0.9982288     -0.4818084      0.4626587e-01 -0.4203396      -1.183201    
  -1.234298     -0.2125043      0.7414590      0.4864782     -0.1468065    
 -0.1806759      0.5911950       1.098409      0.4586335     -0.5134785    
  -1.011952     -0.6502628     -0.1961843     -0.4519177     -0.6649438    
 -0.1974522      0.9385186       1.647548       1.252681      0.6939281    
  0.6280025       1.247903       1.581469      0.8020177     -0.1432572    
 -0.4316713      0.6758995e-01  0.2485898     -0.4916580      -1.050833    
 -0.9087810     -0.1146435      0.3195315     -0.3113544     -0.9318758    
 -0.8177863     -0.8840270e-01  0.2121109     -0.3805576     -0.7422884    
 -0.3698336      0.4348271      0.5568019     -0.3503618     -0.8529484    
 -0.2523938       1.038884       1.643371       1.027585      0.4687102    
  0.6916451       1.415554       1.464872      0.5066088     -0.3293119    
 -0.4616027      0.4012203e-01  0.1017690     -0.7325068      -1.251278    
 -0.8607188     -0.1648422e-02 -0.4245694e-01  -1.232658      -2.041285    
  -1.825799     -0.9724571     -0.6697735      -1.172057      -1.335448    
 -0.8272349      0.1166867      0.4496427     -0.6454250e-01 -0.1521652    
  0.5284808       1.511891       1.630620      0.7907771      0.5184046    
   1.132102       1.789786       1.292357     -0.1399726     -0.9002529    
 -0.6610981      0.2723959e-01  0.7763847e-01 -0.6690612     -0.8986661    
 -0.3028517      0.4280046      0.9799211e-01  -1.061471      -1.424746    
 -0.8351291      0.6628217e-01  0.1779718     -0.5592127     -0.7717515    
 -0.2491339      0.4924732      0.3935980     -0.4874010     -0.5807403    
  0.1332731      0.8306322      0.6863982     -0.1256807     -0.3114672    
  0.2994320       1.110682       1.058196      0.1924685      0.3260295e-01
  0.7389148       1.508827       1.224106     -0.6897663e-02 -0.4930205    
 -0.1780891e-01  0.5589647      0.1836339     -0.8861630     -0.9962691    
 -0.1157967      0.6735682      0.2104524      -1.087311      -1.369080    
 -0.4838541      0.5727864      0.5364586     -0.4311822     -0.6214684    
  0.8452013e-01  0.8071606      0.4315873     -0.8105865      -1.217372    
 -0.6736655      0.1925950e-01 -0.2082585      -1.111513      -1.007939    
  0.1637098       1.392902       1.395118      0.5015081      0.5086718    
   1.425714       2.258373       1.847484      0.5277206      0.1851116e-01
  0.3674735      0.8160329      0.3315472     -0.8473003     -0.9683764    
 -0.9703557e-01  0.6279035      0.1827446     -0.9927543      -1.259020    
 -0.5610730      0.2401478      0.1314916     -0.4690139     -0.9534721e-01
   1.015254       1.817460       1.216035     -0.2348203     -0.7097179    
 -0.1659485      0.4434864     -0.6755358e-01  -1.302340      -1.467074    
 -0.6615492      0.9958288e-01 -0.1178329     -0.8567033     -0.5722073    
  0.3839495      0.9312208      0.4495836     -0.4512838     -0.3880911    
  0.3973084      0.8951979      0.3627430     -0.4778627     -0.1674123    
  0.8184064       1.234115      0.4071893     -0.7188216     -0.6593693    
  0.2153682      0.7312242      0.1951448e-01  -1.052208     -0.9964575    
 -0.2193226      0.2255670     -0.4074461      -1.396917      -1.321076    
 -0.3770153      0.4382184      0.3227111     -0.9558050e-01  0.3134082    
   1.128672       1.347891      0.3829881     -0.7373896     -0.6366242    
  0.2079687      0.6311576     -0.7122116e-01 -0.8646147     -0.3631700    
  0.7318795       1.183959      0.4851846     -0.4501970     -0.3620431    
  0.3466251      0.5811804     -0.2152129     -0.9761630     -0.5944043    
  0.2221114      0.5023666     -0.2267374     -0.9710829     -0.5790374    
  0.2464666      0.5393357     -0.5104598e-01 -0.5625318      0.8022798e-02
  0.8062744      0.7079798     -0.3742011      -1.178409     -0.8275571    
 -0.6262470e-01  0.2305798     -0.2940673     -0.6672342     -0.1112447    
  0.5659126      0.5983594     -0.8957696e-01 -0.3754305      0.4012792    
   1.277506       1.329573      0.3564292     -0.4190028     -0.2026634    
  0.1747699      0.4333442e-02 -0.8858367      -1.349177     -0.6970288    
 -0.5480781e-01 -0.1529977     -0.8349861     -0.9359118     -0.2037028e-01
  0.7643263      0.6995422     -0.1697217     -0.6024542     -0.1457761e-01
  0.4762515      0.2208979     -0.5843863     -0.7361127      0.8326737e-01
  0.6851797      0.5819288     -0.6491417e-01 -0.1664409      0.6718156    
   1.295810       1.014591     -0.2426208e-01 -0.4384503      0.1476879    
  0.4853343      0.1040394     -0.8167523      -1.011228     -0.1862251e-01
  0.8076518      0.7381400     -0.3729770e-01 -0.1702036      0.7208556    
   1.196100      0.7450017     -0.2260116     -0.5794332      0.1236939e-01
  0.3304866     -0.1831099      -1.202906      -1.432659     -0.4957604    
  0.2501109      0.1904909     -0.4046583     -0.3753108      0.5120317    
  0.8632728      0.2905149     -0.6756364     -0.8473284     -0.1546288    
 -0.1137450     -0.9203908      -1.767452      -1.452481     -0.7470838e-01
  0.6871662      0.4360942     -0.2290470     -0.1315987      0.7845306    
   1.024354      0.4478571     -0.2042571      0.4038583e-01   1.114546    
   1.516943      0.9430720      0.1205443      0.1989587      0.9733291    
  0.8796546     -0.9976508e-01  -1.141837      -1.071477     -0.5828509e-01
  0.1445674     -0.5855929      -1.332278     -0.9414951      0.3582198    
  0.8318978      0.3336789     -0.2470080      0.9371762e-01   1.046415    
   1.059027      0.8484008e-01 -0.9280932     -0.7192814      0.5106932    
  0.8208530     -0.1040246      -1.196267      -1.155869     -0.2228572    
 -0.1038513     -0.8743033      -1.686114      -1.452871     -0.2749410    
  0.2046978     -0.2584246     -0.8308825     -0.3274699      0.9726067    
   1.278707      0.6183810     -0.2583413e-01  0.3261295       1.341508    
   1.366499      0.4855041     -0.4180802     -0.3458993      0.6241245    
  0.7871339     -0.9103672e-01  -1.053645     -0.8708256      0.3036596    
  0.6541476     -0.8482818e-01 -0.9489877     -0.7017666      0.3518285    
  0.4756353     -0.2442416     -0.7606497     -0.9968685e-01   1.249838    
   1.598097      0.9152609      0.6165165e-02 -0.5859039e-01  0.5539954    
  0.3187000     -0.6627092      -1.481564      -1.144579     -0.7590436e-03
  0.2109396     -0.5814241      -1.412341      -1.157654     -0.1547989    
  0.2452116e-01 -0.5607243      -1.043706     -0.4354374      0.7899227    
  0.9572868      0.1701107     -0.5506774     -0.2227949      0.6306249    
  0.5179342     -0.3498234      -1.112576     -0.8281879      0.1777562    
  0.3825926     -0.1459240     -0.4155769      0.4148612       1.681615    
   1.786945      0.9055765      0.2429219      0.6910704       1.477557    
   1.206347      0.2176576     -0.5408235     -0.3138048      0.3040837    
 -0.5657605e-01  -1.139683      -1.880075      -1.475023     -0.6584978    
 -0.7376156      -1.309588      -1.468518     -0.7255746      0.2174665    
  0.2740924     -0.1712632     -0.1966021      0.6980119       1.542142    
   1.165205      0.2861239      0.3976738e-01  0.8275196       1.620795    
   1.348185      0.5561301     -0.2934866e-01  0.8417953e-01  0.2664127    
 -0.3863561      -1.149290      -1.141207     -0.1659873      0.6249101    
  0.1947045     -0.5213466     -0.5161504      0.3717060      0.9515577    
  0.3385293     -0.4203277     -0.5175809      0.1244772      0.5814210    
  0.4217913e-01 -0.7588001     -0.9748673     -0.2539039      0.4072805    
  0.9023002e-01 -0.4592527     -0.5395930      0.5259975e-01  0.3213609    
 -0.4615517      -1.086803     -0.7710292      0.2735803      0.8728359    
  0.3912413     -0.1073827      0.8589287e-01  0.9102643       1.219524    
  0.4410999     -0.2607658     -0.1534828      0.6504322       1.033839    
  0.3778874     -0.3152555     -0.2418592      0.4777004      0.5610241    
 -0.3875215      -1.101071     -0.8943216      0.7892425e-01  0.5473729    
 -0.6508473e-01 -0.5553766     -0.1488947      0.8909396       1.138007    
  0.2831714     -0.2850015     -0.1142926      0.5971162      0.7607383    
 -0.1767155     -0.9907165     -0.9630682     -0.2167432      0.4635385e-01
 -0.6003376     -0.8769325     -0.3950513      0.3903497      0.3657518    
 -0.4242676     -0.5016466      0.3342016       1.363515       1.280891    
  0.1246224     -0.4869724     -0.1404688      0.6188369      0.5097137    
 -0.5539671      -1.033265     -0.5902852      0.2342979      0.2436783    
 -0.6394519     -0.8648984     -0.1600655      0.7900730      0.6789621    
 -0.5310596      -1.021026     -0.3272151      0.7486796      0.8652554    
 -0.4778359e-01 -0.4387603      0.1178342       1.009964      0.8869560    
 -0.3722411      -1.151328     -0.9987431     -0.4191749     -0.5706975    
  -1.448069      -1.450759     -0.4046675      0.7941374      0.8232615    
 -0.2161746     -0.5624644      0.1105023       1.093273       1.250872    
  0.6029475      0.6370423       1.440387       2.132667       1.628870    
  0.1825392     -0.4501171     -0.6548500e-01  0.4647428     -0.2327299e-02
  -1.337957      -1.784319      -1.127823     -0.3792611     -0.6601047    
  -1.503436      -1.156987      0.2412104       1.481690       1.233164    
 -0.1080001     -0.5263746      0.1307629      0.9423307      0.7153364    
 -0.4353552     -0.6525282      0.2168136       1.056655      0.7102188    
 -0.4788764     -0.6974160      0.8612937e-01  0.7895966      0.3288417    
 -0.9174373      -1.215689     -0.5341181      0.2040658     -0.3840770e-01
  -1.064870      -1.243713     -0.4504264      0.4452738      0.3817444    
 -0.3909820     -0.1883418      0.8530446       1.594916       1.163602    
  0.1052635     -0.3248530e-01  0.5518565      0.9687175      0.4011049    
 -0.6983595     -0.7526742      0.1927465       1.174992       1.074218    
  0.2333023      0.3083164       1.208549       1.839142       1.212019    
 -0.8704841e-01 -0.3543510      0.2923867      0.6576488     -0.2650026    
  -1.668239      -1.812323     -0.9632933     -0.1432406     -0.3312916    
  -1.154016      -1.073145     -0.2519880      0.2641374     -0.3006259    
  -1.137670     -0.6976690      0.6392890       1.651725       1.383217    
  0.5299664      0.5542889       1.130416       1.392268      0.6584157    
 -0.4850916     -0.6401439     -0.7233611e-01  0.3036192     -0.1952868    
 -0.9772697     -0.7105164      0.2373012      0.7704817      0.1367973    
 -0.9923032      -1.211062     -0.6982962     -0.3183902     -0.7784281    
  -1.507201      -1.229756     -0.3298824      0.8177787e-01 -0.5256577    
  -1.135754     -0.4945664      0.7611147       1.420966      0.8865643    
  0.1364804      0.4545889       1.303047       1.564529      0.6529402    
 -0.4802421     -0.5773020     -0.8250073e-01  0.6468920e-01 -0.6113597    
  -1.152582     -0.5954756      0.3257555      0.7692357      0.3133069    
 -0.1914832      0.2598239      0.9673163       1.039011      0.1539009    
 -0.6607744     -0.3378707      0.2946170      0.2987776     -0.4147503    
 -0.8141823     -0.2124066      0.4549206      0.4503983     -0.3516055    
  -1.036245     -0.8023517     -0.3153720     -0.3104997      -1.060708    
  -1.402229     -0.5503744      0.4280575      0.8632553      0.5822589    
  0.4131417       1.026781       1.422210      0.9422801     -0.1924044    
 -0.8377383     -0.3486014      0.1825182     -0.6006908e-01 -0.9282920    
  -1.267081     -0.4162379      0.4714652      0.4418583     -0.3428306    
 -0.6398153      0.1385549      0.8402553      0.6247017     -0.3123522    
 -0.6163535      0.3364710       1.198529       1.050091      0.1610942    
 -0.1596221      0.5449841       1.067516      0.7824792     -0.9411817e-01
 -0.4207908      0.2105304      0.6217120      0.2564743     -0.6365311    
 -0.8795334     -0.1413388      0.3255739      0.8714350e-01 -0.6398066    
 -0.8253857     -0.1316311      0.1934783     -0.3207982      -1.221995    
  -1.201520     -0.6370758e-01  0.7291959      0.6491449     -0.1469759    
 -0.5786780     -0.1455450      0.2629757e-01 -0.4490383      -1.186453    
  -1.059258      0.1018114      0.8450049      0.6897737      0.7466353e-01
  0.1315428      0.9469390       1.171515      0.6158789     -0.2637808    
 -0.4717123      0.2576062      0.6425102      0.2164993     -0.4867817    
 -0.2345997      0.8942151       1.388968       1.015881      0.3408343    
  0.5070995       1.457982       1.660547      0.7755703     -0.6637184    
  -1.315433     -0.8382028     -0.5870205     -0.8592279      -1.215151    
 -0.7817184      0.3161480      0.4807113     -0.4945951      -1.626010    
  -1.499459     -0.2364721      0.3852330      0.1442049     -0.1807330    
  0.3437189       1.257410      0.9304156     -0.4159884      -1.722620    
  -1.849235      -1.035509     -0.8268410      -1.168840      -1.308760    
 -0.4061692      0.9556439      0.9891906     -0.1638012      -1.448889    
  -1.774319      -1.198684     -0.8914231     -0.7675455     -0.3888979    
  0.9263930       2.704617       3.105133       2.246847       1.150402    
  0.8607701       1.375414       1.253554      0.4859047     -0.5374074e-01
  0.4323559       1.508212       1.689255      0.9558731      0.4662667e-01
 -0.7253741e-01  0.3646661     -0.7924914e-01  -1.292984      -2.396214    
  -2.382993      -1.547124      -1.488065      -2.088998      -2.337950    
  -1.402518      0.2118339      0.8435062      0.4175517     -0.6824572e-01
  0.5768187       2.037493       2.444192       1.582730      0.3786477    
 -0.2127407e-01  0.3288679      0.5722966e-01 -0.7323266      -1.162520    
 -0.3064223       1.304162       1.742657      0.8956412     -0.2077644    
 -0.3515827      0.2106285     -0.2486170      -1.674924      -2.856042    
  -2.645691      -1.660185      -1.821254      -2.988405      -3.896173    
  -3.417257      -1.868766     -0.9422846     -0.9221839     -0.9698459    
 -0.8704634e-01   1.336159       1.940884       2.070687       2.717310    
   4.716641       7.390460       8.719935       8.546914       7.937606    
   7.754208       7.381238       5.302109       1.696962      -2.171549    
  -5.053662      -7.081362      -9.326825      -11.34507      -11.97817    
  -10.73425      -8.794066      -7.668103      -6.883439      -5.194588    
  -1.816630       1.975637       4.139867       5.061955       6.181995    
   8.176413       9.829601       9.333521       6.948996       4.229169    
