  0.1017683e-01  -27.82437       32.23404      -12345.00      -12345.00    
   9.993649       50.00895       17.68428      -12345.00       2.000000    
  -12345.00      -12345.00      -12345.00      -12345.00      -12345.00    
  -12345.00      -12345.00      -12345.00      -12345.00      -12345.00    
  -12345.00      -12345.00      -12345.00      -12345.00      -12345.00    
  -12345.00      -12345.00      -12345.00      -12345.00      -12345.00    
  -12345.00       37.69000      -121.7000       155.0000      -12345.00    
   37.51733      -121.6850      -12345.00       5.950000      -12345.00    
   1.600000      0.1100000       88.00000      0.4500000      0.9200000    
   15.00000      -12345.00      -12345.00      -12345.00      -12345.00    
   19.20941       356.0546       176.0444      0.1727789      -12345.00    
  -12345.00     -0.5778254e-02         0.       90.00000      -12345.00    
  -12345.00      -12345.00      -12345.00      -12345.00      -12345.00    
  -12345.00      -12345.00      -12345.00      -12345.00      -12345.00    
      1987       173        11         9        56
       363         6    -12345    -12345      3933
    -12345    -12345    -12345    -12345    -12345
         1    -12345    -12345    -12345    -12345
    -12345    -12345    -12345    -12345    -12345
    -12345    -12345    -12345    -12345    -12345
    -12345    -12345    -12345    -12345    -12345
         1         1         1         1         1
CPSN    870622111018    
-12345  origin  -12345  
-12345  -12345  -12345  
-12345  -12345  -12345  
-12345  -12345  -12345  
-12345  -12345  satellit
satellit-12345  -12345  
-12345  -12345  -12345  
  0.1386992     -0.6754698     -0.5281863      0.1780359      0.4661976    
 -0.2970278      -1.317621      -1.374156     -0.9056408     -0.8832290    
  -1.890874      -3.000278      -2.963050      -2.376007      -2.203664    
  -2.937679      -3.784239      -3.546534      -2.635477      -1.902985    
  -1.761453      -1.372088      0.3837815e-01   1.466562       2.066055    
   1.829728       1.782882       2.711144       3.804340       4.204154    
   3.530909       2.736591       2.833251       3.152775       2.940301    
   2.004159       1.300990       1.508639       1.710047       1.216422    
 -0.5538203e-01  -1.072704      -1.111165      -1.068430      -1.521951    
  -2.505445      -2.997941      -2.231796      -1.243161     -0.9753043    
  -1.596243      -1.954514      -1.317419     -0.7267967     -0.8666802    
  -1.648376      -1.894481      -1.075886     -0.3193153     -0.1598929    
 -0.4767987     -0.2563917      0.9398226       2.042146       2.484362    
   2.226698       2.223433       2.953476       3.371541       2.961603    
   1.763950      0.7306222      0.2993877     -0.4944621      -1.918619    
  -3.545500      -4.158928      -3.525753      -3.054826      -3.240760    
  -3.675877      -3.158868      -1.550480     -0.3218620      0.1528423    
  0.3483220       1.164211       2.530941       3.208682       2.912462    
   1.911453       1.231654       1.348051       1.295551      0.7268074    
  0.2314004e-01  0.2262893       1.259159       1.648975       1.198060    
  0.5861507      0.9547690       2.207929       2.773377       2.309586    
   1.382830       1.245338       1.982836       2.046483       1.119462    
 -0.1640062     -0.6330525     -0.3150355     -0.7083617      -1.991404    
  -3.455462      -3.876870      -3.132413      -2.704557      -2.931176    
  -3.170993      -2.338589     -0.6848801      0.7653825e-01 -0.2146315    
 -0.6815971     -0.2932990      0.5902470      0.4834314     -0.4753622    
  -1.461294      -1.451928     -0.6136050     -0.5791926      -1.426824    
  -2.112796      -1.466161      0.7370765e-01  0.7198513      0.5487499    
  0.5581561       1.707739       3.566169       4.375750       3.988200    
   3.191668       2.944180       2.828330       1.318489     -0.9955144    
  -2.801011      -3.241117      -2.712724      -2.715616      -3.219155    
  -3.367240      -2.242986     -0.4569754      0.3152809e-01 -0.6829469    
  -1.353972     -0.7703742      0.7813218       1.586961       1.599578    
   1.690051       2.762794       4.322977       4.579441       3.577156    
   2.295375       1.887660       2.260241       1.758403      0.3853954    
 -0.8224149     -0.8271157     -0.1351601e-01 -0.7918122e-01  -1.171149    
  -2.398143      -2.278307     -0.9385388     -0.3919428     -0.8992194    
  -1.603493      -1.530157      -1.053864      -1.710321      -3.289061    
  -4.727874      -4.868536      -4.073642      -4.037187      -4.607534    
  -4.764536      -3.537449      -1.513666     -0.6207491     -0.7635816    
 -0.6888831      0.7468000       3.149141       4.650113       4.956717    
   5.063991       6.019056       7.177511       6.852687       5.373591    
   4.073741       3.952401       4.328350       3.650062       2.246269    
   1.237993       1.391201       1.882224       1.143063     -0.4672955    
  -1.710769      -1.692663      -1.210227      -1.788620      -3.126299    
  -4.144777      -3.980314      -3.294911      -3.584631      -4.625327    
  -5.290047      -4.815494      -3.999014      -4.119021      -4.690574    
  -4.709554      -3.570889      -2.154001      -1.865464      -2.007838    
  -1.295862      0.6410006       2.635534       3.283586       3.102285    
   3.243838       4.343301       5.550597       5.567019       4.848298    
   4.437619       4.774451       4.921161       3.954002       2.668832    
   1.994152       2.231388       2.397546       1.498159      0.3099016    
 -0.2070555      0.1746321      0.2507579     -0.9937547      -2.563038    
  -3.424002      -3.380288      -3.534867      -4.705017      -5.830730    
  -5.869100      -4.630874      -3.482100      -3.456132      -3.437018    
  -2.489349     -0.6237251      0.9635726       1.387130       1.576391    
   2.332286       3.715129       4.572025       4.154050       3.626253    
   3.740780       4.344625       4.258476       2.818493       1.117854    
 -0.3347606e-02 -0.3649165     -0.9083008      -2.028136      -2.676069    
  -2.569193      -1.828712      -1.414017      -1.929942      -2.268706    
  -1.741487     -0.5335863      0.1512201e-01 -0.7795604      -1.629476    
  -1.596840     -0.6989391     -0.1830136     -0.6735676      -1.011151    
 -0.5398172      0.5546507       1.003731      0.1899441     -0.7306820    
 -0.8794939     -0.6477261e-01  0.5171709      0.1360743     -0.7826578e-01
  0.5754631       1.914616       2.630820       2.139456       1.623173    
   1.705695       2.113761       1.553724     -0.1992801      -1.480103    
  -1.593279     -0.8718151     -0.6049067      -1.263682      -1.571003    
 -0.9818247      0.1722414      0.5952725     -0.8319660e-01 -0.4158769    
  0.1110013      0.9326101      0.7839036     -0.4085025      -1.056734    
 -0.6578211      0.2192314      0.1163190      -1.269175      -2.345155    
  -2.409223      -1.669050      -1.363820      -1.793068      -1.500840    
 -0.1847134       1.504895       2.298647       2.078567       2.303303    
   3.215815       4.239177       4.274585       3.203638       2.513010    
   2.624125       2.865453       2.007434      0.2360846     -0.8002417    
 -0.9683910      -1.015909      -2.036364      -3.805334      -4.536145    
  -3.972275      -3.065357      -3.173481      -4.171545      -4.252284    
  -3.100135      -1.649404      -1.245664      -1.679923      -1.147082    
  0.4600146       2.138296       2.570439       1.972651       2.175418    
   3.252302       4.226072       3.828390       2.351740       1.813828    
   2.476484       3.441263       3.412578       2.392325       1.915245    
   2.026540       1.912101      0.5873993      -1.396834      -2.172873    
  -1.841805      -1.374473      -1.887504      -3.099663      -3.206357    
  -2.170175     -0.9748864     -0.8657047      -1.576292      -1.245557    
  0.9466384e-01   1.301463       1.189653      0.1491049     -0.3785509e-02
  0.7220119       1.276651      0.5644282     -0.8949617      -1.109672    
  0.2018910e-01   1.254300       1.197523      0.1089455     -0.3279115    
 -0.2420692e-01  0.2235332     -0.4998174      -1.679349      -1.631004    
 -0.4810819      0.6542140      0.6605569      0.5370215e-02  0.2767088    
   1.317082       2.081474       1.474239      0.1270200     -0.5634702e-01
  0.8514087       1.741143       1.538711      0.7475516      0.9108220    
   1.744947       2.152409       1.176133     -0.5710287      -1.399290    
  -1.322763      -1.350429      -2.369778      -3.596382      -3.416077    
  -2.169640      -1.219610      -1.611050      -2.685448      -2.928239    
  -2.364163      -1.890280      -2.355586      -3.051278      -2.556935    
  -1.139457      0.1409687      0.3833602      0.3118092       1.348013    
   3.131148       4.407592       4.134722       3.139970       3.040941    
   3.538157       3.507106       2.345601       1.020311      0.7192629    
   1.078299       1.194364      0.1939033      -1.256271      -1.754390    
  -1.520435      -1.535895      -2.388373      -3.146441      -2.709228    
  -1.701849      -1.196252      -1.717905      -2.239358      -1.647013    
 -0.5197726      0.3071330      0.3084360      0.2346250       1.068497    
   2.241891       2.874986       2.576695       2.335600       2.933807    
   3.513234       3.319789       2.116955      0.8091329      0.3282913    
  0.2080378     -0.2867210      -1.507476      -2.407706      -2.123712    
  -1.442937      -1.174554      -1.659049      -1.992218      -1.533759    
  -1.069002      -1.141039      -1.946030      -2.435203      -1.779924    
 -0.9209623     -0.6302167     -0.8635578     -0.4084722       1.063565    
   2.139198       2.097971       1.049945      0.2908617      0.6078907    
  0.9267471      0.5232305     -0.4438314     -0.7316108      0.2518503    
   1.284746       1.497905      0.8624389      0.5017884      0.9921896    
   1.238991      0.6870071     -0.4172464     -0.9005618     -0.3594783    
 -0.1245206e-01 -0.3745991      -1.151907      -1.233757     -0.3528767    
  0.2147604     -0.2748048e-01 -0.8093319     -0.8911635      0.2786470    
   1.477486       1.913248       1.634362       1.842385       2.761215    
   2.935029       1.939107      0.2530011     -0.7254328     -0.5653771    
 -0.5740489      -1.157899      -2.026648      -2.184885      -1.397904    
  -1.009504      -1.502731      -2.393640      -2.376247      -1.330872    
 -0.8314247      -1.202308      -1.801515      -1.437373     -0.2769326e-01
  0.9298336      0.9870192      0.6535475       1.132461       2.424850    
   2.974919       2.455541       1.406479      0.9730705       1.365782    
   1.317567      0.5656214     -0.4280199     -0.6598936     -0.1286274    
 -0.1866548     -0.9039882      -1.618132      -1.348861     -0.3042589    
 -0.4286714e-01 -0.7654722      -1.751464      -1.615640     -0.2753474    
  0.5017585      0.2708255     -0.2593439      0.1616642       1.353993    
   1.545244      0.6617543     -0.3401137     -0.3133408      0.6175210    
  0.8577576      0.2072927     -0.6147592     -0.5408414      0.3020297    
  0.2758150     -0.7082178      -1.622326      -1.355788     -0.2566375    
 -0.2219966e-01 -0.7194865      -1.493168      -1.329393     -0.3649000    
 -0.8068725e-02 -0.2665615     -0.6114574     -0.3183579      0.4510080    
  0.3306549     -0.4187796     -0.8058819      0.9145760e-01   1.813369    
   2.465611       1.927638       1.102489      0.9963902       1.409738    
  0.8944007     -0.3762264      -1.503025      -1.543121     -0.7404159    
 -0.6478503      -1.221999      -1.645796      -1.015279      0.3083407    
  0.6494566      0.7547773e-01 -0.4657404     -0.2603122e-01  0.9924210    
  0.9838957      0.1993168     -0.3070864      0.2099580       1.223899    
   1.276348      0.4914307     -0.2059634      0.1869793       1.206129    
   1.223002      0.3868890     -0.3522228     -0.4416078e-01  0.9900994    
   1.229060      0.6596959      0.7054072e-01  0.2075604      0.5372837    
 -0.3724369      -2.216874      -3.767436      -3.936489      -3.238283    
  -3.132046      -3.427821      -3.263146      -1.868542      0.1142892    
   1.122997       1.417688       1.944783       3.139348       4.225791    
   3.902628       2.585235       1.553190       1.688101       2.241429    
   1.759764      0.4837546     -0.5465066     -0.5234154     -0.1447089    
 -0.7258728      -1.915280      -2.821343      -2.734198      -2.165866    
  -2.272855      -2.647378      -2.327942     -0.8368956      0.7692536    
   1.126472      0.8023603      0.8554746       1.799472       2.829108    
   2.897535       2.493986       2.320434       2.640993       2.621573    
   1.527013      0.2744960     -0.2680206      0.1139232      0.3608198    
 -0.4724418      -1.511736      -1.963302      -1.602856      -1.161084    
  -1.438224      -1.910815      -2.013601      -1.478944      -1.154214    
  -1.805893      -2.529123      -2.569122      -1.734101     -0.9008478    
 -0.8599715     -0.8850215     -0.3253787      0.9364113       1.857269    
   1.735902       1.449067       1.509614       1.999581       2.101165    
   1.371809      0.7933166      0.7955192       1.345835       1.360626    
  0.9232581e-01  -1.356740      -2.123452      -2.030580      -2.010989    
  -2.519462      -2.444262      -1.317062      0.5000310       1.645401    
   1.564993       1.476102       1.961616       2.903613       3.204431    
   2.406944       1.781682       1.964566       2.776379       3.061581    
   2.268822       1.418661       1.010700      0.9981537      0.4751705    
 -0.9691694      -2.315895      -2.931712      -2.707130      -2.757091    
  -3.601804      -4.040106      -3.630484      -2.641124      -2.135486    
  -2.390765      -2.160904      -1.120190      0.2989829      0.9320217    
  0.6165201      0.7741569       1.657276       2.705983       2.807420    
   1.836857       1.242739       1.492745       2.242559       2.288702    
   1.305161      0.6598713      0.7024441      0.9308182      0.2946773    
  -1.140919      -1.956180      -1.889799      -1.320494      -1.431635    
  -2.434201      -2.904091      -2.649997      -2.158697      -2.292288    
  -2.857196      -2.442922      -1.056967      0.6571262       1.635921    
   1.778363       2.370549       3.523534       4.604060       4.491153    
   3.273707       2.566351       2.607140       2.775056       2.008671    
  0.4306241     -0.3720898     -0.3277517     -0.2084938     -0.9010769    
  -2.013906      -2.022914      -1.176148     -0.4794900     -0.9365035    
  -2.238773      -2.796910      -2.486184      -1.896754      -1.994014    
  -2.650892      -2.331298      -1.074920      0.8852500e-01  0.5392335e-01
 -0.7009125     -0.3015791       1.114102       2.332314       2.208688    
   1.051207      0.6660892       1.184623       1.655496       1.003513    
 -0.3475651     -0.6204464      0.6442890e-01  0.7460905      0.5416116    
 -0.2377587     -0.1186814      0.7055725       1.193917      0.2954055    
  -1.466723      -2.137378      -1.653891     -0.9009763     -0.8681266    
  -1.379128     -0.7751133      0.9064308       2.437777       2.662523    
   1.876843       1.677572       2.175188       2.584891       1.953530    
  0.6675525      0.3851386       1.056669       1.669788       1.167016    
 -0.4929632e-01 -0.4202822     -0.1731892     -0.1482586      -1.071772    
  -2.433843      -2.630907      -1.906797      -1.298341      -1.600877    
  -2.289241      -1.937156     -0.8512735     -0.2049740e-01 -0.1997730    
 -0.7136838     -0.6939247e-01   1.292249       2.239389       2.018093    
   1.173852       1.014646       1.406428       1.594352      0.8523749    
 -0.1600708     -0.1263953      0.4491724      0.6425632     -0.1271286    
  -1.247695      -1.368557     -0.7207771     -0.3371376      -1.095628    
  -2.288279      -2.348442      -1.597369      -1.191965      -1.740020    
  -2.334161      -1.668092     -0.2422804      0.8774598       1.012306    
  0.7926529       1.386064       2.287148       2.480799       1.593908    
  0.6710481      0.9840820       1.944881       2.346581       1.472013    
  0.2927927      0.2382272      0.7595287      0.6911064     -0.4814031    
  -1.690285      -1.670384      -1.123623      -1.125907      -1.935816    
  -2.529352      -1.908688     -0.7651876     -0.1632022     -0.5472192    
 -0.8910438     -0.1652143      0.7642792      0.8402476     -0.7414667e-01
 -0.7672666     -0.2971324      0.6192802       1.118415      0.7176125    
  0.3224314      0.8745041       1.529703       1.442005      0.5276964    
 -0.1047186      0.3037033      0.8475273      0.7402382     -0.2334673    
  -1.055099     -0.8588833     -0.5179959     -0.8204637      -1.859194    
  -2.522871      -2.037131      -1.396515      -1.308911      -1.702930    
  -1.491689     -0.1565720       1.203763       1.805458       1.471317    
   1.408554       2.391954       3.211620       3.074797       2.017601    
   1.219946       1.387421       1.396966      0.5473078     -0.9454378    
  -1.822046      -1.551554      -1.375113      -1.979969      -3.082732    
  -3.303419      -2.092978     -0.8581431     -0.4861374     -0.7799086    
 -0.4166863       1.041309       2.173966       2.216385       1.430552    
  0.9927591       1.413388       1.686664       1.150295     -0.1934316e-01
 -0.4876893      0.1922770      0.6894667      0.3738672     -0.4238363    
 -0.5218582      0.2974423      0.7827470      0.4587306     -0.3855803    
 -0.4936045      0.4276501      0.9299240      0.4954683     -0.4363171    
 -0.6933794     -0.1074494      0.2007843e-01 -0.6016529      -1.572913    
  -1.831829      -1.157643     -0.8707339      -1.431588      -2.294455    
  -2.089960     -0.8283140     -0.1356294     -0.3128392     -0.6975942    
 -0.1206769       1.315839       2.077163       1.941904       1.563045    
   2.089555       3.426995       3.919681       3.251632       2.202877    
   2.040794       2.590107       2.190928      0.7207798     -0.9156221    
  -1.428133     -0.8720860     -0.8430775      -1.610493      -2.397386    
  -2.027948     -0.8605171     -0.7571698      -1.833318      -2.970053    
  -2.845410      -1.745297      -1.491346      -2.228595      -2.899908    
  -2.240793     -0.4759790      0.6731458      0.9646494       1.038082    
   1.798699       3.023975       3.159756       2.184536       1.098836    
   1.165523       2.097469       1.973152      0.7221267     -0.4637943    
 -0.4339590      0.3422031      0.1185009     -0.9127437      -1.752627    
  -1.551120     -0.6839417     -0.8393392      -1.919665      -2.744316    
  -2.197342     -0.7302958     -0.2560784     -0.8616971      -1.400118    
 -0.6406857      0.9938274       1.493791      0.7040722     -0.2300837    
 -0.1268455e-01   1.069049       1.137991      0.1343978     -0.8127713    
 -0.4564453      0.8728833       1.258979      0.4876583     -0.5863870    
 -0.7246979     -0.3217403e-03  0.4456340e-01 -0.4993823     -0.8870294    
 -0.2502925       1.088122       1.370236      0.5369040     -0.4018130    
 -0.1659790      0.9815592       1.072086     -0.7016541e-02  -1.063703    
 -0.8270513      0.3972249      0.7980291      0.1532480     -0.6076586    
 -0.3230386      0.6243396      0.4551879     -0.8316564      -2.046473    
  -1.876760     -0.7372054     -0.4650985     -0.9909158      -1.200536    
 -0.2434746       1.152219       1.249145      0.2388223     -0.5781183    
