  0.1017683e-01  -151.0000       164.0000      -12345.00      -12345.00    
   9.993649       50.00895       17.68428      -12345.00       2.000000    
  -12345.00      -12345.00      -12345.00      -12345.00      -12345.00    
  -12345.00      -12345.00      -12345.00      -12345.00      -12345.00    
  -12345.00      -12345.00      -12345.00      -12345.00      -12345.00    
  -12345.00      -12345.00      -12345.00      -12345.00      -12345.00    
  -12345.00       37.69000      -121.7000       155.0000      -12345.00    
   37.51733      -121.6850      -12345.00       5.950000      -12345.00    
   1.600000      0.1100000       88.00000      0.4500000      0.9200000    
   15.00000      -12345.00      -12345.00      -12345.00      -12345.00    
   19.20941       356.0546       176.0444      0.1727789      -12345.00    
  -12345.00      -8.599033             0.             0.      -12345.00    
  -12345.00      -12345.00      -12345.00      -12345.00      -12345.00    
  -12345.00      -12345.00      -12345.00      -12345.00      -12345.00    
      1987       173        11         9        56
       363         6    -12345    -12345      3933
    -12345    -12345    -12345    -12345    -12345
         1    -12345    -12345    -12345    -12345
    -12345    -12345    -12345    -12345    -12345
    -12345    -12345    -12345    -12345    -12345
    -12345    -12345    -12345    -12345    -12345
         1         1         1         1         1
CPSZ    870622111018    
-12345  origin  -12345  
-12345  -12345  -12345  
-12345  -12345  -12345  
-12345  -12345  -12345  
-12345  -12345  satellit
satellit-12345  -12345  
-12345  -12345  -12345  
  -8.000000      -31.00000      -13.00000      -22.00000      -15.00000    
  -22.00000      -45.00000      -21.00000      -27.00000      -16.00000    
  -21.00000      -43.00000      -20.00000      -23.00000      -9.000000    
  -11.00000      -29.00000      -6.000000             0.       23.00000    
   9.000000      -8.000000       23.00000       23.00000       31.00000    
   15.00000      -5.000000       19.00000       11.00000       16.00000    
   3.000000      -19.00000       5.000000      -1.000000       2.000000    
  -14.00000      -31.00000      -13.00000      -23.00000      -14.00000    
  -22.00000      -51.00000      -24.00000      -33.00000      -24.00000    
  -32.00000      -40.00000      -15.00000      -27.00000      -18.00000    
  -25.00000      -38.00000      -16.00000      -18.00000       4.000000    
  -8.000000      -28.00000       5.000000       7.000000       18.00000    
  -1.000000      -8.000000       22.00000       7.000000       16.00000    
   8.000000      -6.000000       23.00000       12.00000       21.00000    
   3.000000      -13.00000       23.00000       10.00000       19.00000    
   2.000000      -8.000000       16.00000      -1.000000       15.00000    
         0.      -19.00000       11.00000      -6.000000      -5.000000    
  -20.00000      -32.00000      -9.000000      -23.00000      -10.00000    
  -25.00000      -37.00000      -9.000000      -22.00000      -15.00000    
  -36.00000      -46.00000      -10.00000      -24.00000      -19.00000    
  -31.00000      -40.00000      -9.000000      -19.00000      -5.000000    
  -18.00000      -26.00000       4.000000      -12.00000             0.    
  -11.00000      -19.00000       20.00000       3.000000       6.000000    
  -3.000000      -11.00000       16.00000      -4.000000       5.000000    
  -14.00000      -27.00000       8.000000      -13.00000      -7.000000    
  -22.00000      -24.00000       12.00000      -9.000000      -2.000000    
  -10.00000      -23.00000       8.000000      -2.000000      -1.000000    
  -17.00000      -26.00000       13.00000      -6.000000      -1.000000    
  -8.000000      -20.00000       18.00000      -7.000000      -6.000000    
  -17.00000      -33.00000       6.000000      -15.00000      -15.00000    
  -29.00000      -38.00000      -8.000000      -28.00000      -28.00000    
  -39.00000      -48.00000      -12.00000      -30.00000      -22.00000    
  -31.00000      -40.00000             0.      -18.00000      -11.00000    
  -23.00000      -31.00000       7.000000      -10.00000      -4.000000    
  -8.000000      -11.00000       28.00000       9.000000       14.00000    
   2.000000      -8.000000       30.00000       6.000000       12.00000    
  -1.000000      -8.000000       26.00000       8.000000       11.00000    
  -6.000000      -12.00000       19.00000      -7.000000      -10.00000    
  -25.00000      -28.00000       3.000000      -13.00000      -11.00000    
  -30.00000      -38.00000      -5.000000      -26.00000      -22.00000    
  -34.00000      -44.00000      -19.00000      -36.00000      -35.00000    
  -49.00000      -49.00000      -8.000000      -22.00000      -18.00000    
  -26.00000      -23.00000       10.00000       1.000000       7.000000    
  -4.000000             0.       32.00000       21.00000       21.00000    
   10.00000       14.00000       40.00000       23.00000       21.00000    
  -2.000000      -5.000000       21.00000      -7.000000      -11.00000    
  -23.00000      -26.00000      -9.000000      -30.00000      -34.00000    
  -45.00000      -46.00000      -24.00000      -39.00000      -36.00000    
  -48.00000      -42.00000      -11.00000      -22.00000      -15.00000    
  -17.00000      -10.00000       15.00000             0.       7.000000    
  -5.000000       4.000000       25.00000       3.000000       10.00000    
   6.000000       13.00000       29.00000       11.00000       13.00000    
  -1.000000       1.000000       14.00000      -14.00000      -15.00000    
  -31.00000      -28.00000      -7.000000      -36.00000      -29.00000    
  -43.00000      -39.00000      -24.00000      -45.00000      -37.00000    
  -48.00000      -35.00000      -17.00000      -39.00000      -31.00000    
  -39.00000      -17.00000       2.000000      -23.00000      -4.000000    
  -10.00000       2.000000       27.00000       7.000000       15.00000    
   12.00000       29.00000       49.00000       15.00000       27.00000    
   19.00000       32.00000       47.00000       16.00000       20.00000    
   10.00000       21.00000       26.00000      -1.000000       10.00000    
  -4.000000       3.000000       12.00000      -27.00000      -28.00000    
  -42.00000      -18.00000      -15.00000      -46.00000      -31.00000    
  -42.00000      -36.00000      -19.00000      -47.00000      -35.00000    
  -42.00000      -24.00000      -12.00000      -41.00000      -25.00000    
  -27.00000       1.000000       19.00000      -8.000000       11.00000    
   6.000000       14.00000       24.00000      -1.000000       13.00000    
   4.000000       16.00000       23.00000      -4.000000             0.    
  -16.00000       5.000000       19.00000      -28.00000      -16.00000    
  -18.00000      -8.000000      -2.000000      -30.00000      -11.00000    
  -20.00000      -8.000000       4.000000      -26.00000      -6.000000    
  -19.00000             0.       15.00000      -17.00000      -2.000000    
  -6.000000       9.000000       17.00000      -13.00000       8.000000    
   2.000000       6.000000       12.00000      -24.00000      -7.000000    
  -11.00000             0.       2.000000      -31.00000      -10.00000    
  -19.00000      -11.00000      -7.000000      -39.00000      -17.00000    
  -23.00000      -14.00000      -1.000000      -36.00000      -10.00000    
  -12.00000      -1.000000       10.00000      -26.00000      -11.00000    
  -19.00000      -4.000000       6.000000      -27.00000      -3.000000    
  -8.000000       10.00000       19.00000      -23.00000      -4.000000    
  -2.000000       14.00000       26.00000      -15.00000       12.00000    
   3.000000       15.00000       33.00000       1.000000       20.00000    
   15.00000       32.00000       30.00000      -9.000000       12.00000    
   4.000000       14.00000       20.00000      -20.00000      -11.00000    
  -15.00000      -3.000000      -6.000000      -39.00000      -24.00000    
  -28.00000      -27.00000      -20.00000      -55.00000      -37.00000    
  -39.00000      -19.00000      -11.00000      -40.00000      -20.00000    
  -15.00000       6.000000       13.00000      -12.00000       8.000000    
   6.000000       32.00000       33.00000       2.000000       25.00000    
   22.00000       26.00000       23.00000      -5.000000       10.00000    
   6.000000       12.00000       12.00000      -14.00000       4.000000    
         0.       14.00000       7.000000      -14.00000      -8.000000    
  -7.000000       9.000000       6.000000      -14.00000       4.000000    
   7.000000       22.00000       17.00000      -1.000000       19.00000    
   12.00000       25.00000       18.00000      -12.00000       4.000000    
   1.000000       20.00000       10.00000      -18.00000      -4.000000    
  -11.00000       5.000000      -2.000000      -32.00000      -15.00000    
  -18.00000      -11.00000      -16.00000      -36.00000      -15.00000    
  -17.00000      -8.000000      -9.000000      -29.00000      -11.00000    
  -14.00000       4.000000      -10.00000      -25.00000             0.    
  -5.000000       7.000000      -7.000000      -23.00000       2.000000    
         0.       14.00000       1.000000      -23.00000             0.    
  -10.00000       3.000000      -4.000000      -25.00000      -12.00000    
  -14.00000      -2.000000      -22.00000      -35.00000      -5.000000    
  -19.00000      -8.000000      -12.00000      -26.00000             0.    
  -13.00000       3.000000      -5.000000      -22.00000             0.    
  -8.000000       9.000000      -7.000000      -23.00000      -1.000000    
  -10.00000      -4.000000      -23.00000      -40.00000      -15.00000    
  -27.00000      -20.00000      -40.00000      -53.00000      -26.00000    
  -34.00000      -23.00000      -37.00000      -45.00000      -6.000000    
  -18.00000      -6.000000      -19.00000      -35.00000      -1.000000    
  -5.000000       3.000000      -18.00000      -31.00000       2.000000    
  -11.00000      -12.00000      -23.00000      -28.00000      -1.000000    
  -21.00000      -10.00000      -24.00000      -35.00000      -7.000000    
  -24.00000      -13.00000      -29.00000      -37.00000      -4.000000    
  -12.00000      -9.000000      -25.00000      -23.00000       15.00000    
         0.       3.000000      -11.00000      -15.00000       17.00000    
   1.000000       12.00000      -7.000000      -20.00000       10.00000    
  -6.000000      -7.000000      -27.00000      -37.00000      -9.000000    
  -29.00000      -29.00000      -49.00000      -57.00000      -23.00000    
  -40.00000      -35.00000      -42.00000      -43.00000      -13.00000    
  -28.00000      -18.00000      -30.00000      -38.00000       4.000000    
  -7.000000       1.000000      -15.00000      -24.00000       7.000000    
  -11.00000      -4.000000      -18.00000      -35.00000             0.    
  -19.00000      -17.00000      -23.00000      -36.00000      -3.000000    
  -21.00000      -11.00000      -20.00000      -30.00000       8.000000    
  -6.000000      -5.000000      -17.00000      -18.00000       20.00000    
   1.000000       6.000000       5.000000      -1.000000       36.00000    
   15.00000       7.000000      -8.000000      -13.00000       23.00000    
   4.000000       3.000000      -11.00000      -25.00000       5.000000    
  -24.00000      -28.00000      -41.00000      -46.00000      -12.00000    
  -36.00000      -31.00000      -40.00000      -48.00000      -5.000000    
  -15.00000      -15.00000      -26.00000      -29.00000       4.000000    
  -15.00000             0.      -12.00000      -21.00000       11.00000    
  -2.000000      -2.000000      -24.00000      -29.00000       8.000000    
  -12.00000      -13.00000      -20.00000      -25.00000       4.000000    
  -15.00000      -8.000000      -19.00000      -18.00000       8.000000    
  -13.00000      -7.000000      -17.00000      -11.00000       28.00000    
   12.00000       15.00000       7.000000       10.00000       40.00000    
   22.00000       22.00000       11.00000       8.000000       35.00000    
   19.00000       8.000000      -6.000000      -2.000000       17.00000    
  -2.000000      -6.000000      -22.00000      -31.00000      -11.00000    
  -26.00000      -26.00000      -39.00000      -32.00000      -10.00000    
  -27.00000      -24.00000      -35.00000      -26.00000       2.000000    
  -10.00000      -10.00000      -18.00000      -7.000000       11.00000    
  -5.000000       5.000000      -4.000000       4.000000       32.00000    
   7.000000       8.000000      -5.000000      -2.000000       23.00000    
  -2.000000      -5.000000      -20.00000      -12.00000       7.000000    
  -20.00000      -12.00000      -16.00000      -8.000000       10.00000    
  -12.00000      -3.000000      -4.000000       11.00000       36.00000    
   15.00000       23.00000       7.000000       19.00000       41.00000    
   9.000000       11.00000       2.000000       5.000000       15.00000    
  -12.00000      -3.000000      -26.00000      -19.00000       3.000000    
  -29.00000      -23.00000      -30.00000      -23.00000      -15.00000    
  -38.00000      -17.00000      -24.00000      -18.00000      -3.000000    
  -21.00000      -13.00000      -27.00000      -8.000000       12.00000    
  -10.00000       4.000000      -5.000000       8.000000       23.00000    
         0.       8.000000             0.       9.000000       20.00000    
  -7.000000             0.      -11.00000      -1.000000       9.000000    
  -28.00000      -11.00000      -23.00000      -10.00000      -1.000000    
  -25.00000      -16.00000      -22.00000      -3.000000       2.000000    
  -24.00000             0.      -8.000000       10.00000       36.00000    
   11.00000       29.00000       18.00000       28.00000       40.00000    
   6.000000       20.00000       8.000000       15.00000       20.00000    
  -18.00000      -12.00000      -25.00000      -8.000000      -3.000000    
  -44.00000      -28.00000      -42.00000      -25.00000      -11.00000    
  -42.00000      -16.00000      -23.00000      -5.000000       8.000000    
  -24.00000      -9.000000      -7.000000       2.000000       5.000000    
  -20.00000       3.000000      -7.000000       1.000000       6.000000    
  -25.00000      -3.000000      -7.000000      -6.000000      -1.000000    
  -32.00000      -18.00000      -24.00000      -3.000000       5.000000    
  -34.00000      -12.00000      -10.00000      -2.000000       12.00000    
  -25.00000       2.000000       5.000000       9.000000       21.00000    
  -12.00000       4.000000       3.000000       16.00000       22.00000    
  -12.00000       5.000000      -9.000000      -2.000000       7.000000    
  -25.00000      -8.000000      -13.00000      -2.000000       8.000000    
  -24.00000      -7.000000      -12.00000      -1.000000       10.00000    
  -34.00000      -13.00000      -20.00000      -13.00000       2.000000    
  -29.00000      -12.00000      -17.00000      -6.000000       12.00000    
  -20.00000      -10.00000      -16.00000      -3.000000       8.000000    
  -30.00000      -5.000000             0.       5.000000       7.000000    
  -28.00000      -18.00000      -24.00000      -5.000000       2.000000    
  -34.00000      -7.000000      -8.000000      -1.000000       6.000000    
  -24.00000      -2.000000      -2.000000       13.00000       24.00000    
  -5.000000       15.00000       19.00000       30.00000       25.00000    
  -4.000000       8.000000       2.000000       8.000000       7.000000    
  -23.00000       1.000000      -7.000000       1.000000       1.000000    
  -33.00000      -23.00000      -13.00000             0.      -12.00000    
  -36.00000      -16.00000      -19.00000      -13.00000      -18.00000    
  -39.00000      -23.00000      -24.00000      -6.000000      -8.000000    
  -33.00000      -15.00000      -12.00000      -12.00000      -20.00000    
  -46.00000      -29.00000      -27.00000      -18.00000      -23.00000    
  -45.00000      -28.00000      -20.00000      -8.000000      -15.00000    
  -30.00000      -11.00000      -12.00000      -2.000000      -4.000000    
  -21.00000             0.       6.000000       19.00000       12.00000    
  -7.000000       16.00000       11.00000       17.00000       7.000000    
  -10.00000       7.000000             0.       8.000000      -1.000000    
  -20.00000      -3.000000      -6.000000      -3.000000      -12.00000    
  -30.00000      -9.000000      -21.00000      -7.000000      -25.00000    
  -46.00000      -21.00000      -25.00000      -19.00000      -37.00000    
  -48.00000      -20.00000      -32.00000      -16.00000      -24.00000    
  -42.00000      -12.00000      -16.00000      -2.000000      -11.00000    
  -29.00000      -9.000000      -20.00000      -8.000000      -21.00000    
  -43.00000      -14.00000      -13.00000             0.      -16.00000    
  -29.00000       2.000000      -9.000000             0.      -13.00000    
  -29.00000      -4.000000      -11.00000       2.000000      -3.000000    
  -21.00000       1.000000      -4.000000       8.000000      -2.000000    
  -15.00000       14.00000       8.000000       22.00000       7.000000    
  -3.000000       16.00000       5.000000       15.00000      -3.000000    
  -19.00000       8.000000      -2.000000       3.000000      -15.00000    
  -28.00000      -4.000000      -11.00000      -4.000000      -25.00000    
  -35.00000      -5.000000      -22.00000      -10.00000      -23.00000    
  -35.00000      -10.00000      -26.00000      -15.00000      -29.00000    
  -37.00000      -7.000000      -24.00000      -11.00000      -19.00000    
  -34.00000       6.000000      -4.000000       3.000000      -18.00000    
  -19.00000       16.00000      -6.000000      -1.000000      -14.00000    
  -21.00000       9.000000      -7.000000       9.000000      -8.000000    
  -20.00000       18.00000       1.000000       3.000000      -7.000000    
  -13.00000       21.00000       9.000000       11.00000      -3.000000    
  -13.00000       22.00000       2.000000       3.000000      -12.00000    
  -13.00000       16.00000      -3.000000       2.000000      -10.00000    
  -19.00000       11.00000      -7.000000      -13.00000      -28.00000    
  -34.00000             0.      -27.00000      -24.00000      -31.00000    
  -43.00000      -11.00000      -29.00000      -22.00000      -38.00000    
  -39.00000             0.      -19.00000      -22.00000      -24.00000    
  -28.00000       16.00000       3.000000      -2.000000      -16.00000    
  -16.00000       17.00000      -5.000000       1.000000      -7.000000    
  -12.00000       23.00000             0.       3.000000      -12.00000    
  -21.00000       13.00000      -10.00000      -5.000000      -14.00000    
  -22.00000       8.000000      -12.00000      -2.000000      -15.00000    
  -27.00000       19.00000       2.000000       2.000000      -1.000000    
  -7.000000       33.00000       14.00000       15.00000             0.    
  -6.000000       33.00000       8.000000       10.00000      -5.000000    
  -18.00000       8.000000      -17.00000      -20.00000      -42.00000    
  -48.00000      -18.00000      -36.00000      -31.00000      -46.00000    
  -57.00000      -24.00000      -47.00000      -40.00000      -50.00000    
  -50.00000      -17.00000      -20.00000      -15.00000      -28.00000    
