  0.1017683e-01  -32.26925       15.89962      -12345.00      -12345.00    
   9.993649       50.00895       17.68428      -12345.00       2.000000    
  -12345.00      -12345.00      -12345.00      -12345.00      -12345.00    
  -12345.00      -12345.00      -12345.00      -12345.00      -12345.00    
  -12345.00      -12345.00      -12345.00      -12345.00      -12345.00    
  -12345.00      -12345.00      -12345.00      -12345.00      -12345.00    
  -12345.00       37.69000      -121.7000       155.0000      -12345.00    
   37.51733      -121.6850      -12345.00       5.950000      -12345.00    
   1.600000      0.1100000       88.00000      0.4500000      0.9200000    
   15.00000      -12345.00      -12345.00      -12345.00      -12345.00    
   19.20941       356.0546       176.0444      0.1727789      -12345.00    
  -12345.00      0.5506623e-04   90.00000       90.00000      -12345.00    
  -12345.00      -12345.00      -12345.00      -12345.00      -12345.00    
  -12345.00      -12345.00      -12345.00      -12345.00      -12345.00    
      1987       173        11         9        56
       363         6    -12345    -12345      3933
    -12345    -12345    -12345    -12345    -12345
         1    -12345    -12345    -12345    -12345
    -12345    -12345    -12345    -12345    -12345
    -12345    -12345    -12345    -12345    -12345
    -12345    -12345    -12345    -12345    -12345
         1         1         1         1         1
CPSE    870622111018    
-12345  origin  -12345  
-12345  -12345  -12345  
-12345  -12345  -12345  
-12345  -12345  -12345  
-12345  -12345  satellit
satellit-12345  -12345  
-12345  -12345  -12345  
  0.8368189     -0.1140765      0.6374567e-01  0.9206716       1.236329    
  0.4026102     -0.6490708     -0.7190595     -0.2708001     -0.2637733    
  -1.194627      -1.970320      -1.410942     -0.4570801     -0.2703097    
  -1.123826      -1.938334      -1.550300     -0.5274800      0.1115989    
 -0.1472596     -0.4254548      0.3518879       1.440208       1.668357    
  0.8215560      0.2240769      0.9270549       2.085735       2.546652    
   1.721044      0.7078268      0.7512208       1.074929      0.7088468    
 -0.5125193      -1.402910      -1.041565     -0.3972459     -0.5067886    
  -1.557855      -2.264992      -1.720870     -0.9038014     -0.7397161    
  -1.457873      -1.890585      -1.171503     -0.3235901     -0.1659710    
 -0.7068635     -0.7524650      0.3552806       1.419216       1.553301    
  0.6697803      0.6481260e-01  0.6058906       1.183866       1.040382    
  0.1813715     -0.2301889      0.5455709       1.352429       1.345913    
  0.4824503     -0.2070743     -0.4083553e-02  0.2215315     -0.2428565    
  -1.379818      -1.969042      -1.321883     -0.4409809     -0.1223695    
 -0.5048978     -0.4080465      0.8509291       2.019784       2.193433    
   1.535458       1.398177       2.196567       2.593959       1.980584    
  0.7340459      0.1511947      0.5196013      0.5771199     -0.2805415    
  -1.855302      -2.786111      -2.513923      -2.285549      -2.749351    
  -3.577182      -3.416569      -2.016013     -0.9262996     -0.7545307    
  -1.102718     -0.7174370      0.6159275       1.448531       1.377162    
  0.9540682       1.345477       2.475146       2.746697       1.829084    
  0.4135956     -0.4265162e-01  0.6411086      0.7869633      0.3617039e-01
 -0.8154274     -0.6213662      0.4173313      0.7864817      0.3678618    
 -0.3095844     -0.2533331      0.6435536      0.8987223      0.1509214    
 -0.9267308      -1.119573     -0.4455315     -0.3897985      -1.075896    
  -1.738767      -1.255253      0.2348826       1.088800       1.061108    
  0.7463436       1.002945       1.717375       1.565518      0.5702428    
 -0.4070387     -0.2719359      0.6827420      0.7705533     -0.2971270e-01
 -0.7804319     -0.4644631      0.5881081      0.7311799     -0.5573843e-01
 -0.8349588     -0.5899912      0.3870277      0.5668178     -0.2954817e-01
 -0.6150123     -0.2845704      0.5942090      0.4115830     -0.7020320    
  -1.813415      -1.907736      -1.196126      -1.197844      -1.755393    
  -2.050549      -1.291153      0.2476068      0.9399025      0.6315124    
  0.8484757e-01  0.4467211       1.627269       1.904545       1.138451    
  0.1395230      0.2212487e-01  0.7415562      0.6233091     -0.5375721    
  -1.832823      -1.884040     -0.8085715     -0.4960077      -1.044320    
  -1.507994     -0.9351247      0.2816485      0.6299428      0.3427802    
  0.2648864       1.165205       2.498179       2.545638       1.512522    
  0.5507714      0.6893326       1.526192       1.454951      0.5298202    
 -0.3169604     -0.1931799      0.3637473     -0.2324765      -1.632781    
  -2.601465      -2.278869      -1.257480      -1.046382      -1.518755    
  -1.851071      -1.288569     -0.2655068     -0.1811437     -0.9234560    
  -1.494470     -0.8886419      0.2833652      0.3677866     -0.3913071    
 -0.9059046     -0.3949581      0.5359024      0.5464015     -0.1565037    
 -0.6377294      0.3723287e-02   1.204501       1.432385      0.7375301    
  0.1644509      0.6391613       1.422222       1.071865      0.3811001e-01
 -0.5418664      0.4677615e-01  0.9766092      0.9171941      0.3955583    
  0.3173894       1.085826       1.865050       1.540169      0.7298704    
  0.3498351      0.8506223       1.444368      0.9492354      0.3676018e-01
 -0.1637141      0.5895764       1.146944      0.3913452     -0.9440035    
  -1.825588      -1.833797      -1.777776      -2.535526      -3.386062    
  -3.481215      -2.608903      -1.737273      -1.744321      -1.910535    
  -1.394104      0.8099186e-01   1.404964       1.503854       1.311343    
   1.826933       2.921529       3.214952       2.081891      0.9317080    
  0.8112473       1.725261       2.401856       1.909426       1.124630    
  0.8705047       1.348388       1.437489      0.4343944     -0.5109714    
 -0.6806799     -0.1230496     -0.5631400e-02 -0.9945905      -1.896526    
  -1.864612     -0.8480737     -0.1009061     -0.4866502      -1.048577    
  -1.144859     -0.6292608     -0.3965881      -1.070042      -1.564307    
  -1.138470      0.7216159e-01  0.7378587      0.1841091     -0.3704359    
 -0.1783561      0.6227138      0.8496868      0.1082931e-01 -0.6858718    
 -0.6176335      0.3345707e-01  0.8051968e-01 -0.9307113      -1.672765    
  -1.357406     -0.1477943      0.7192448      0.5887232      0.3897225    
  0.8513135       1.929971       2.257841       1.305814      0.4690820    
  0.4728659       1.037815      0.9136379     -0.1883733     -0.8949416    
 -0.7256498     -0.1802115e-02  0.1464225     -0.6778165      -1.284208    
  -1.063034     -0.1663038      0.1746326     -0.4978995      -1.016168    
 -0.9127052     -0.2910805     -0.1028161     -0.5619628     -0.4446267    
  0.5071144       1.785805       2.104227       1.206384      0.5665477    
  0.6787121       1.108499      0.6408110     -0.7863326      -1.532134    
  -1.193062     -0.3954695     -0.3783937      -1.257844      -1.597999    
  -1.005011      0.3916096e-01  0.3212821     -0.2504466     -0.1399035    
  0.8317721       1.881227       1.870113      0.8064753      0.3153426    
  0.8143302       1.602556       1.432434      0.3236545     -0.1612649    
  0.1791812      0.6228678      0.1353248      -1.045685      -1.285643    
 -0.5337505      0.2671411      0.5996754e-01 -0.9400272      -1.318473    
 -0.9771599     -0.5031970     -0.9470354      -2.042350      -2.041945    
 -0.9315720      0.3543271      0.4970149     -0.4746200     -0.7921444    
 -0.2007300      0.5177314      0.3495867     -0.4060239     -0.2872551    
  0.5798066       1.340474      0.9393340     -0.2578168     -0.4156948    
  0.5588681       1.646669       1.553846      0.4059873     -0.9215276e-01
  0.3249126       1.039714      0.9688513      0.1845772      0.2301423    
   1.096515       1.966775       1.783941      0.7155831      0.3539722    
  0.7734545       1.239138      0.7391710     -0.5479276      -1.051468    
 -0.5938624      0.1247562     -0.5825987e-01 -0.9912927      -1.087021    
 -0.3441537      0.3586069      0.2571562e-01 -0.9102291     -0.8919722    
 -0.1031247      0.5472719      0.1086886     -0.9823700      -1.087702    
 -0.2698214      0.4912523      0.1371880     -0.8859834      -1.048589    
 -0.5245946     -0.1751620     -0.8233601      -1.900150      -1.900533    
  -1.053482     -0.3073227     -0.5292424      -1.271533      -1.153677    
 -0.3010728      0.4359198      0.2843959     -0.2154251      0.1740461    
   1.219500       2.072708       1.797719      0.9947553       1.225401    
   2.224966       2.876152       2.319093       1.185676      0.8306495    
   1.050941       1.023993      0.1527861     -0.8875477     -0.8771435    
 -0.1391917      0.3159627     -0.2918288      -1.118928     -0.8935550    
 -0.2386960     -0.7835721e-01 -0.7573208      -1.421543      -1.017279    
 -0.1094748      0.3203386     -0.2871960      -1.102352     -0.9454483    
 -0.2980490     -0.1372866     -0.8998433      -1.628987      -1.324064    
 -0.8380551      -1.131965      -2.120160      -2.588947      -1.735928    
 -0.4454918      0.2969014      0.1240833     -0.5709340e-01  0.6986974    
   1.748521       2.177748       1.600306       1.050640       1.478132    
   2.082914       1.944382      0.8625329      0.2099630e-01  0.3690971    
  0.9981807      0.8075224     -0.3052372     -0.8964835     -0.2164329    
  0.6324794      0.7873452     -0.4217298e-02 -0.6450027     -0.3091802    
  0.8746490e-01 -0.1330562     -0.9950205      -1.358897     -0.6587437    
 -0.2608027e-01 -0.1204114     -0.8316056     -0.9636892     -0.1285970    
  0.5173632      0.5594797     -0.1137923e-03 -0.2330007      0.4037448    
  0.8250436      0.3708982     -0.8166436      -1.357430     -0.5995407    
  0.1025516     -0.5524737e-01 -0.8362271     -0.9574531     -0.2067235e-01
  0.5945805      0.2864459     -0.5488104     -0.6643235      0.3019868    
   1.129559       1.220892      0.7427262      0.8641391       1.900410    
   2.456367       1.941893      0.6752769     -0.1081335      0.8879596e-01
  0.1760318     -0.4294569      -1.502096      -1.686899     -0.7020177    
 -0.1162778     -0.4841087      -1.359210      -1.519208     -0.7013531    
 -0.2237463     -0.5849195      -1.397503      -1.378893     -0.2820253    
  0.4430810      0.2810548     -0.3231442     -0.1114423      0.9767541    
   1.373621      0.7867444     -0.2004770     -0.3889711      0.4179530    
  0.7921854      0.3142959     -0.4756935     -0.3006072      0.9229040    
   1.614846       1.356456      0.6435628      0.6232184       1.355780    
   1.345813      0.4097658     -0.6804312     -0.7265729      0.1998161    
  0.4818753     -0.1782108      -1.158395      -1.371808     -0.8478705    
  -1.006315      -1.943858      -2.827404      -2.382828     -0.7472026    
  0.1736869     -0.8643417e-01 -0.7245488     -0.4351828      0.7368912    
   1.080869      0.4341061     -0.2538506      0.8136405e-01   1.153649    
   1.280038      0.3607028     -0.6723859     -0.6559520      0.2644239    
  0.3569447     -0.5206915      -1.355725      -1.014604      0.1761696    
  0.3828153     -0.4848686      -1.285812     -0.7186372      0.9438894    
   1.768475       1.408057      0.6991982      0.7787706       1.306619    
  0.8112271     -0.2452238     -0.8665833     -0.1645398       1.407486    
   2.002958       1.474322      0.6618062      0.7461337       1.550921    
   1.381994      0.3219654     -0.7081289     -0.7489123      0.5895018e-02
 -0.6858439e-01  -1.006595      -1.879275      -1.595128     -0.4031384    
 -0.1659654e-01 -0.5558426      -1.297179      -1.204828     -0.3965516    
 -0.3815949     -0.9976442      -1.426834     -0.9214807      0.1935498    
  0.3161119     -0.5302002      -1.284117     -0.8409431      0.4440601    
  0.8642052      0.3791522     -0.5416818e-01  0.5596927       1.747698    
   1.869740       1.020580      0.1296065      0.1207742      0.6022376    
  0.1721878     -0.8672792      -1.560584      -1.137345     -0.1306997    
 -0.3702613e-01 -0.7239177      -1.211950     -0.5928783      0.5402716    
  0.7057971      0.2426606      0.1013212      0.8063561       1.644355    
   1.273736      0.8541227e-01 -0.6893337     -0.2033681      0.7722729    
  0.7716290     -0.8608390e-02 -0.6459534     -0.2934375      0.3897522    
  0.4674943e-01 -0.8591335      -1.327205     -0.6969832      0.3086839    
  0.2327797     -0.6014682      -1.063787     -0.5233818      0.1857282    
 -0.1175525     -0.8713428      -1.169402     -0.6020802      0.1259874    
 -0.7590947e-01 -0.7887897      -1.093907     -0.3744407      0.6789803    
  0.9920673      0.9231036       1.053494       1.690053       2.086544    
   1.445136      0.5842997      0.3900220       1.092531       1.722969    
   1.227718      0.2477534     -0.1991356      0.2087442      0.3606270    
 -0.6250922      -1.733526      -1.988609      -1.251859     -0.6104681    
 -0.9126849      -1.337222      -1.139508     -0.1837449      0.5101109    
  0.2705143      0.5140615e-01  0.4531258       1.500145       2.130158    
   1.618591      0.8157140      0.3627118      0.6688552      0.8633157    
  0.1876244     -0.3347402     -0.1876804      0.4541444      0.5643868    
 -0.3471364      -1.107924      -1.089696     -0.4276599     -0.2192760    
  -1.020316      -1.680887      -1.514090     -0.6713659     -0.3422529    
  -1.017899      -1.443942     -0.9836480      0.1614798      0.8280237    
  0.4695008      0.2400571      0.7847038       1.821992       1.979166    
  0.7593226     -0.4108082     -0.6557158     -0.5960757e-01  0.1762254    
 -0.4508254     -0.8149732     -0.4103509      0.5038955      0.7006349    
 -0.1230334     -0.5295154     -0.5233626e-01  0.7365720      0.6053327    
 -0.4843877      -1.063960     -0.6323946      0.4346291      0.7969517    
  0.1568071     -0.8235242e-01  0.5102224       1.480620       1.517767    
  0.4613207     -0.7451033e-01  0.3959912       1.320523       1.330851    
  0.2497700     -0.3244866      0.7850252e-01  0.8916881      0.7326493    
 -0.5500281      -1.447858      -1.578987      -1.245364      -1.477353    
  -2.370178      -2.535990      -1.816155     -0.8461682     -0.7579423    
  -1.560346      -1.786986      -1.168147     -0.1932187      0.1119767    
 -0.3500604     -0.1638387      0.9638381       2.365657       2.826628    
   2.239147       2.029969       2.447308       2.841114       2.118645    
  0.4849080     -0.2756132      0.2959192e-01  0.5179041      0.7501896e-01
  -1.219059      -1.812034      -1.347338     -0.5759591     -0.7462993    
  -1.633335      -1.650970     -0.7172113      0.2963326      0.1308840    
 -0.9291646      -1.049849     -0.9908164e-01  0.9836992      0.9877362    
  0.1267396      0.1607152       1.102949       1.925697       1.554666    
  0.2942972     -0.8611060e-01  0.5917632       1.390907       1.099662    
 -0.3203285e-01 -0.3647544      0.7140601e-01  0.4009183     -0.3717869    
  -1.815650      -2.178524      -1.403322     -0.3020767     -0.6599613e-01
 -0.6869681     -0.5272771      0.5406616       1.606504       1.443837    
  0.1665303     -0.2978803      0.4648037       1.483369       1.358408    
  0.1898365     -0.2245600      0.3199935      0.9899876      0.6785728    
 -0.4123221     -0.6489732     -0.1035571      0.3470539     -0.1754311    
  -1.315857      -1.437008     -0.6002083      0.1395750     -0.3110445    
  -1.580202      -1.938948      -1.279455     -0.4840709     -0.5050683    
 -0.9760140     -0.5571748      0.5061274       1.278321      0.8157621    
 -0.3659563     -0.5540592      0.3392886       1.328360       1.310206    
  0.7238082      0.9709112       1.820221       2.303264       1.592870    
  0.3565026      0.1455570      0.7662654       1.099971      0.2932468    
 -0.8886249      -1.061963     -0.6221671     -0.4572417      -1.261856    
  -2.454339      -2.592669      -1.809943     -0.9932282     -0.9423574    
  -1.174353     -0.5020344      0.7563033       1.708302       1.569696    
  0.9379864       1.177766       1.902784       2.103944       1.184341    
 -0.3434794e-01 -0.1537552      0.3649620      0.4468482     -0.4054025    
  -1.376928      -1.339821     -0.7862549     -0.6232793      -1.330978    
  -2.149579      -1.923523      -1.034739     -0.3920824     -0.5518511    
 -0.7909706     -0.1110647      0.8617362       1.194036      0.6413960    
  0.1907540      0.7497879       1.716641       2.180594       1.526779    
  0.6762155      0.7351224      0.9824110      0.6582248     -0.2683094    
 -0.7454455     -0.6407955e-01  0.7865447      0.8992362      0.5416062e-01
 -0.7372561     -0.6587588     -0.4414210     -0.7321867      -1.676529    
  -2.214455      -1.623118     -0.9111745     -0.7639742      -1.207609    
  -1.218106     -0.1102262       1.143458       1.730563       1.408278    
   1.123064       1.423784       1.454729      0.9363896     -0.7543843e-01
 -0.5982243     -0.3135992e-01  0.5253827      0.3249606     -0.6131195    
  -1.070323     -0.4037684      0.2142541      0.1218954     -0.5738109    
 -0.8376079     -0.1718453      0.2578410     -0.2085199      -1.348308    
  -1.971387      -1.498442     -0.9658270     -0.9315637      -1.253652    
  -1.009001      0.1544210       1.121912       1.205365      0.5564063    
  0.4042293       1.162222       1.652900       1.472196      0.9008179    
  0.9498441       1.815452       2.216221       1.715675      0.6333930    
  0.9282806e-01  0.4413715      0.5149245     -0.1524923      -1.220740    
  -1.455392     -0.6583067     -0.2506112     -0.5606425      -1.067506    
 -0.7813091      0.2500599      0.7034929      0.1056351      -1.178573    
  -1.543955     -0.6161098     -0.2629318e-01 -0.2337417     -0.7334579    
 -0.3980217      0.8223361       1.428825       1.043505      0.2814376    
  0.4510649       1.506131       1.691206      0.6771230     -0.7207923    
  -1.149119     -0.5646622     -0.5060568      -1.187089      -1.932400    
  -1.631368     -0.3982121      0.1107882     -0.2836958     -0.7210923    
 -0.1836083      0.9580306       1.091580      0.1875781     -0.7506232    
 -0.4076084      0.9145520       1.249549      0.3712633     -0.6826243    
 -0.6444076      0.3280604      0.6872544      0.3223295     -0.1502808    
  0.1958524       1.245749       1.407989      0.4790368     -0.5967267    
 -0.5664096      0.3188128      0.4161641     -0.2486897     -0.7263452    
 -0.2335635e-01   1.351724       1.571054      0.6200565     -0.5270335    
 -0.7850813     -0.2640581     -0.3876615      -1.297657      -2.326527    
  -2.293680      -1.280481     -0.9456078      -1.309105      -1.499066    
 -0.6734321      0.7040543      0.9684984      0.1936424     -0.5918364    
 -0.3603453      0.5274442      0.5495729     -0.1499634     -0.7776184    
 -0.3809452      0.8012171      0.9794154      0.1045647     -0.7610123    
 -0.5160815      0.5157512      0.6568979      0.1287695e-01 -0.5061945    
  0.1222740e-01   1.170842       1.252264      0.4331512     -0.1926256    
  0.3923002       1.779884       2.165117       1.518177      0.7981210    
   1.034103       1.937933       1.858078      0.8002552     -0.2384764    
 -0.1858898      0.5242669      0.1002022      -1.393252      -2.776218    
  -2.899535      -2.222825      -2.470286      -3.414530      -3.694121    
  -2.428596     -0.5716453      0.4417709e-01 -0.4366461     -0.7548748    
