  0.1017683e-01  -778.0000       736.0000      -12345.00      -12345.00    
   9.993649       50.00895       17.68428       20.78821       2.000000    
  -12345.00      -12345.00      -12345.00      -12345.00      -12345.00    
  -12345.00      -12345.00      -12345.00      -12345.00      -12345.00    
   42.06345      -12345.00      -12345.00      -12345.00      -12345.00    
  -12345.00      -12345.00      -12345.00      -12345.00      -12345.00    
  -12345.00       37.61867      -121.7587       198.0000      -12345.00    
   37.51733      -121.6850      -12345.00       5.950000      -12345.00    
   1.600000      0.1100000       88.00000      0.4500000      0.9200000    
   15.00000      -12345.00      -12345.00      -12345.00      -12345.00    
   12.99330       329.9723       149.9212      0.1168718      -12345.00    
  -12345.00      -3.037122             0.             0.      -12345.00    
  -12345.00      -12345.00      -12345.00      -12345.00      -12345.00    
  -12345.00      -12345.00      -12345.00      -12345.00      -12345.00    
      1987       173        11         9        56
       363         6    -12345    -12345      3933
    -12345    -12345    -12345    -12345    -12345
         1    -12345    -12345    -12345    -12345
    -12345    -12345    -12345    -12345    -12345
    -12345    -12345    -12345    -12345    -12345
    -12345    -12345    -12345    -12345    -12345
         1         1         1         1         1
CVAZ    870622111018    
-12345  origin  IPU0    
-12345  -12345  -12345  
-12345  -12345  -12345  
-12345  -12345  -12345  
-12345  -12345  satellit
satellit-12345  -12345  
-12345  -12345  -12345  
   16.00000      -22.00000      -6.000000      -9.000000       2.000000    
   10.00000      -24.00000      -2.000000      -1.000000       13.00000    
   25.00000      -10.00000       9.000000       5.000000       14.00000    
   19.00000      -17.00000      -2.000000      -7.000000       3.000000    
   15.00000      -20.00000       3.000000       1.000000       16.00000    
   25.00000      -15.00000       2.000000      -3.000000       6.000000    
   12.00000      -26.00000      -9.000000      -11.00000      -1.000000    
   12.00000      -22.00000       1.000000       1.000000       12.00000    
   18.00000      -19.00000      -2.000000      -9.000000             0.    
   4.000000      -29.00000      -10.00000      -10.00000       5.000000    
   14.00000      -14.00000       4.000000       1.000000       11.00000    
   11.00000      -22.00000      -5.000000      -6.000000       5.000000    
   8.000000      -16.00000       7.000000       13.00000       23.00000    
   23.00000      -6.000000       12.00000       9.000000       13.00000    
   9.000000      -20.00000      -4.000000      -4.000000       4.000000    
   2.000000      -20.00000       2.000000       1.000000       10.00000    
   5.000000      -19.00000      -6.000000      -13.00000      -5.000000    
  -9.000000      -35.00000      -24.00000      -22.00000      -5.000000    
  -8.000000      -27.00000      -7.000000      -8.000000       5.000000    
         0.      -21.00000      -3.000000      -8.000000      -1.000000    
  -10.00000      -28.00000      -7.000000      -7.000000       6.000000    
  -2.000000      -17.00000       8.000000       7.000000       12.00000    
  -1.000000      -23.00000      -3.000000      -10.00000             0.    
  -7.000000      -25.00000             0.      -4.000000       10.00000    
   2.000000      -14.00000       12.00000       1.000000       8.000000    
  -3.000000      -23.00000      -1.000000      -11.00000      -3.000000    
  -13.00000      -27.00000       4.000000       1.000000       14.00000    
   2.000000      -15.00000       10.00000      -1.000000       4.000000    
  -13.00000      -27.00000      -4.000000      -14.00000      -5.000000    
  -16.00000      -25.00000       2.000000      -3.000000       10.00000    
  -3.000000      -18.00000       5.000000      -8.000000      -3.000000    
  -20.00000      -34.00000      -4.000000      -12.00000      -2.000000    
  -11.00000      -18.00000       13.00000             0.       13.00000    
  -1.000000      -18.00000       10.00000      -4.000000       5.000000    
  -12.00000      -21.00000       13.00000       2.000000       13.00000    
  -1.000000      -9.000000       21.00000       2.000000       9.000000    
  -7.000000      -25.00000      -1.000000      -17.00000      -9.000000    
  -23.00000      -32.00000       5.000000      -2.000000       11.00000    
  -4.000000      -15.00000       12.00000      -3.000000       1.000000    
  -16.00000      -32.00000      -1.000000      -14.00000      -3.000000    
  -14.00000      -21.00000       13.00000       2.000000       13.00000    
   4.000000      -6.000000       25.00000       4.000000       3.000000    
  -15.00000      -27.00000       7.000000      -9.000000      -4.000000    
  -15.00000      -22.00000       16.00000       2.000000       6.000000    
  -7.000000      -20.00000       12.00000      -8.000000      -8.000000    
  -23.00000      -38.00000      -1.000000      -12.00000      -9.000000    
  -19.00000      -24.00000       13.00000      -6.000000      -6.000000    
  -19.00000      -26.00000       10.00000      -9.000000      -7.000000    
  -19.00000      -24.00000       19.00000       2.000000       3.000000    
  -8.000000      -14.00000       17.00000      -5.000000      -6.000000    
  -20.00000      -26.00000       13.00000      -6.000000             0.    
  -9.000000      -15.00000       23.00000       5.000000       6.000000    
  -8.000000      -21.00000       15.00000      -6.000000      -9.000000    
  -26.00000      -37.00000       2.000000      -15.00000      -6.000000    
  -16.00000      -25.00000       12.00000      -5.000000      -2.000000    
  -14.00000      -22.00000       9.000000      -14.00000      -9.000000    
  -20.00000      -27.00000       6.000000      -12.00000      -9.000000    
  -19.00000      -19.00000       15.00000      -4.000000      -5.000000    
  -15.00000      -16.00000       16.00000      -7.000000      -8.000000    
  -21.00000      -21.00000       12.00000      -7.000000      -8.000000    
  -15.00000      -13.00000       15.00000      -7.000000      -9.000000    
  -22.00000      -22.00000       5.000000      -16.00000      -15.00000    
  -24.00000      -23.00000       5.000000      -12.00000      -8.000000    
  -19.00000      -17.00000       7.000000      -11.00000      -13.00000    
  -27.00000      -24.00000       1.000000      -14.00000      -12.00000    
  -20.00000      -13.00000       17.00000       2.000000       2.000000    
  -8.000000      -5.000000       14.00000      -6.000000      -6.000000    
  -17.00000      -17.00000       2.000000      -11.00000      -2.000000    
  -10.00000      -1.000000       22.00000       4.000000       8.000000    
  -7.000000      -4.000000       13.00000      -15.00000      -16.00000    
  -24.00000      -15.00000       8.000000      -14.00000      -5.000000    
  -8.000000             0.       14.00000      -10.00000      -3.000000    
  -15.00000      -10.00000       5.000000      -19.00000      -13.00000    
  -20.00000      -7.000000       12.00000      -8.000000       3.000000    
  -3.000000       9.000000       27.00000             0.       8.000000    
  -6.000000       1.000000       15.00000      -10.00000      -2.000000    
  -7.000000       8.000000       32.00000       5.000000       18.00000    
         0.       12.00000       27.00000      -2.000000       5.000000    
  -6.000000       3.000000       19.00000      -9.000000       5.000000    
  -10.00000       5.000000       20.00000      -8.000000       3.000000    
  -8.000000       11.00000       21.00000      -12.00000      -3.000000    
  -19.00000      -3.000000       8.000000      -16.00000       1.000000    
  -8.000000       12.00000       24.00000      -7.000000       9.000000    
  -1.000000       12.00000       20.00000      -9.000000       2.000000    
  -10.00000       8.000000       18.00000      -11.00000       2.000000    
  -7.000000       9.000000       17.00000      -12.00000             0.    
  -12.00000       1.000000       11.00000      -17.00000             0.    
  -8.000000       9.000000       21.00000      -6.000000       11.00000    
   4.000000       21.00000       27.00000      -9.000000       5.000000    
  -6.000000       10.00000       16.00000      -15.00000       2.000000    
  -6.000000       13.00000       22.00000      -10.00000       6.000000    
  -2.000000       11.00000       17.00000      -18.00000      -3.000000    
  -10.00000       3.000000       7.000000      -26.00000      -3.000000    
  -1.000000       16.00000       22.00000      -16.00000       1.000000    
  -7.000000       7.000000       14.00000      -22.00000      -5.000000    
  -8.000000       8.000000       15.00000      -21.00000             0.    
   1.000000       19.00000       27.00000      -8.000000       10.00000    
   5.000000       11.00000       15.00000      -21.00000      -2.000000    
  -6.000000       3.000000       13.00000      -16.00000       4.000000    
  -2.000000       6.000000       17.00000      -19.00000      -1.000000    
  -7.000000       2.000000       8.000000      -29.00000      -6.000000    
  -11.00000       3.000000       12.00000      -20.00000       7.000000    
   3.000000       15.00000       20.00000      -13.00000       4.000000    
  -4.000000       7.000000       9.000000      -26.00000      -5.000000    
  -5.000000       12.00000       14.00000      -20.00000       2.000000    
   4.000000       16.00000       17.00000      -17.00000       2.000000    
  -4.000000       5.000000             0.      -33.00000      -9.000000    
  -10.00000       6.000000       12.00000      -20.00000      -1.000000    
  -3.000000       10.00000       9.000000      -22.00000      -4.000000    
  -3.000000       11.00000       8.000000      -23.00000      -1.000000    
  -2.000000       12.00000       12.00000      -13.00000       8.000000    
   7.000000       15.00000       12.00000      -12.00000       6.000000    
   3.000000       14.00000       9.000000      -15.00000             0.    
  -3.000000       7.000000       2.000000      -22.00000      -8.000000    
  -12.00000      -3.000000      -10.00000      -28.00000      -5.000000    
  -4.000000       8.000000       1.000000      -20.00000      -2.000000    
   1.000000       7.000000      -5.000000      -31.00000      -11.00000    
  -14.00000      -3.000000      -12.00000      -29.00000      -2.000000    
         0.       11.00000       3.000000      -19.00000       4.000000    
  -3.000000       1.000000      -12.00000      -30.00000      -4.000000    
  -12.00000       1.000000      -10.00000      -25.00000             0.    
         0.       10.00000      -1.000000      -15.00000       10.00000    
  -2.000000       2.000000      -13.00000      -29.00000      -4.000000    
  -14.00000      -4.000000      -14.00000      -27.00000      -2.000000    
  -11.00000      -1.000000      -11.00000      -25.00000       1.000000    
  -10.00000      -1.000000      -18.00000      -34.00000      -4.000000    
  -12.00000      -2.000000      -12.00000      -20.00000       12.00000    
   4.000000       10.00000      -3.000000      -11.00000       17.00000    
   1.000000       10.00000      -4.000000      -16.00000       11.00000    
  -3.000000       6.000000      -8.000000      -21.00000       4.000000    
  -9.000000      -4.000000      -22.00000      -30.00000             0.    
  -14.00000      -5.000000      -18.00000      -26.00000       6.000000    
  -7.000000       2.000000      -10.00000      -21.00000       14.00000    
   3.000000       9.000000      -10.00000      -21.00000       10.00000    
  -1.000000       4.000000      -10.00000      -21.00000       12.00000    
  -2.000000       1.000000      -13.00000      -23.00000       5.000000    
  -11.00000      -5.000000      -20.00000      -28.00000       4.000000    
  -8.000000      -1.000000      -13.00000      -23.00000       8.000000    
  -7.000000      -1.000000      -15.00000      -21.00000       14.00000    
  -3.000000       1.000000      -8.000000      -15.00000       16.00000    
  -3.000000             0.      -12.00000      -24.00000       9.000000    
  -11.00000      -11.00000      -25.00000      -34.00000             0.    
  -18.00000      -19.00000      -28.00000      -31.00000       5.000000    
  -13.00000      -10.00000      -17.00000      -22.00000       16.00000    
  -2.000000      -1.000000      -13.00000      -18.00000       19.00000    
   2.000000       4.000000      -6.000000      -19.00000       19.00000    
         0.             0.      -10.00000      -18.00000       18.00000    
  -7.000000      -5.000000      -19.00000      -32.00000       1.000000    
  -18.00000      -15.00000      -21.00000      -27.00000       9.000000    
  -8.000000      -5.000000      -14.00000      -22.00000       14.00000    
  -7.000000      -6.000000      -18.00000      -21.00000       20.00000    
   3.000000       4.000000      -7.000000      -15.00000       18.00000    
  -5.000000      -4.000000      -16.00000      -23.00000       10.00000    
  -7.000000      -3.000000      -13.00000      -16.00000       19.00000    
   2.000000       5.000000      -1.000000      -2.000000       32.00000    
   12.00000       13.00000       1.000000      -4.000000       25.00000    
   5.000000       6.000000      -5.000000      -7.000000       21.00000    
   2.000000       5.000000      -10.00000      -15.00000       8.000000    
  -10.00000      -12.00000      -24.00000      -22.00000       4.000000    
  -12.00000      -8.000000      -17.00000      -12.00000       13.00000    
  -6.000000      -8.000000      -17.00000      -11.00000       13.00000    
  -5.000000      -3.000000      -11.00000      -4.000000       21.00000    
   5.000000       8.000000      -1.000000       7.000000       31.00000    
   6.000000       2.000000      -9.000000      -6.000000       13.00000    
  -8.000000      -9.000000      -21.00000      -15.00000       7.000000    
  -13.00000      -5.000000      -13.00000      -4.000000       15.00000    
  -14.00000      -9.000000      -16.00000      -13.00000       2.000000    
  -21.00000      -15.00000      -25.00000      -12.00000       6.000000    
  -19.00000      -12.00000      -21.00000      -12.00000       4.000000    
  -23.00000      -15.00000      -26.00000      -16.00000       2.000000    
  -24.00000      -18.00000      -24.00000      -10.00000       9.000000    
  -14.00000      -2.000000      -14.00000      -3.000000       15.00000    
  -10.00000      -2.000000      -12.00000      -2.000000       11.00000    
  -13.00000      -3.000000      -18.00000      -7.000000       9.000000    
  -20.00000      -14.00000      -27.00000      -12.00000       4.000000    
  -23.00000      -16.00000      -27.00000      -13.00000       5.000000    
  -22.00000      -9.000000      -16.00000             0.       9.000000    
  -23.00000      -8.000000      -17.00000      -5.000000       7.000000    
  -21.00000      -4.000000      -13.00000       5.000000       19.00000    
  -11.00000       2.000000      -3.000000       16.00000       24.00000    
  -10.00000             0.      -11.00000      -1.000000       13.00000    
  -17.00000      -2.000000      -8.000000       8.000000       22.00000    
  -12.00000       3.000000      -10.00000       2.000000       13.00000    
  -19.00000      -7.000000      -13.00000       3.000000       14.00000    
  -19.00000             0.      -4.000000       10.00000       19.00000    
  -14.00000      -3.000000      -13.00000      -1.000000       6.000000    
  -29.00000      -11.00000      -19.00000      -4.000000       8.000000    
  -23.00000      -4.000000      -8.000000       5.000000       15.00000    
  -20.00000      -5.000000      -7.000000       10.00000       19.00000    
  -15.00000       5.000000      -2.000000       9.000000       19.00000    
  -15.00000       2.000000      -2.000000       7.000000       16.00000    
  -18.00000      -1.000000      -3.000000       6.000000       16.00000    
  -20.00000       1.000000             0.       13.00000       21.00000    
  -17.00000      -1.000000      -3.000000       5.000000       11.00000    
  -28.00000      -6.000000      -7.000000       4.000000       14.00000    
  -19.00000       3.000000       5.000000       18.00000       26.00000    
  -14.00000       3.000000      -2.000000       11.00000       22.00000    
  -19.00000      -5.000000      -9.000000       4.000000       16.00000    
  -18.00000       1.000000      -5.000000       8.000000       17.00000    
  -20.00000      -1.000000      -6.000000       3.000000       9.000000    
  -25.00000      -1.000000       1.000000       15.00000       25.00000    
  -8.000000       11.00000       7.000000       13.00000       15.00000    
  -19.00000       1.000000      -5.000000       3.000000       6.000000    
  -28.00000      -5.000000      -2.000000       11.00000       11.00000    
  -21.00000       1.000000       3.000000       15.00000       16.00000    
  -14.00000       2.000000       1.000000       14.00000       14.00000    
  -15.00000       3.000000       3.000000       14.00000       14.00000    
  -15.00000      -2.000000      -6.000000       5.000000             0.    
  -27.00000      -10.00000      -8.000000       2.000000      -1.000000    
  -26.00000      -8.000000      -10.00000       4.000000       3.000000    
  -22.00000      -4.000000      -4.000000       4.000000             0.    
  -19.00000       2.000000       3.000000       16.00000       13.00000    
  -6.000000       33.00000       117.0000       362.0000       658.0000    
   654.0000       253.0000      -112.0000      -109.0000      -50.00000    
  -283.0000      -690.0000      -778.0000      -666.0000      -341.0000    
  -137.0000      -250.0000      -311.0000      -106.0000       157.0000    
   376.0000       588.0000       504.0000       211.0000       146.0000    
   295.0000       371.0000       313.0000       218.0000      -106.0000    
  -616.0000      -667.0000      -181.0000       293.0000       238.0000    
  -130.0000      -254.0000      -99.00000       149.0000       241.0000    
   102.0000      -138.0000      -317.0000      -327.0000      -226.0000    
   12.00000       322.0000       449.0000       351.0000       141.0000    
   110.0000       248.0000       165.0000      -91.00000      -290.0000    
  -277.0000      -132.0000      -57.00000      -49.00000      -134.0000    
  -137.0000       81.00000       282.0000       217.0000      -168.0000    
  -427.0000      -238.0000       11.00000       97.00000       85.00000    
   141.0000       226.0000       131.0000      -18.00000      -189.0000    
  -327.0000      -212.0000       177.0000       635.0000       668.0000    
   267.0000      -186.0000      -430.0000      -441.0000      -433.0000    
  -379.0000      -156.0000       113.0000       237.0000       71.00000    
  -23.00000       126.0000       229.0000       220.0000       82.00000    
  -141.0000      -285.0000      -179.0000       121.0000       182.0000    
   7.000000      -127.0000      -222.0000      -167.0000      -24.00000    
   133.0000       197.0000       78.00000      -42.00000      -148.0000    
  -216.0000      -150.0000       18.00000       200.0000       169.0000    
   13.00000      -75.00000      -113.0000      -21.00000       108.0000    
   165.0000       115.0000      -33.00000      -63.00000      -39.00000    
