  0.1017683e-01  -1.285981       1.337245      -12345.00      -12345.00    
   9.993649       50.00895       17.68428      -12345.00       2.000000    
  -12345.00      -12345.00      -12345.00      -12345.00      -12345.00    
  -12345.00      -12345.00      -12345.00      -12345.00      -12345.00    
  -12345.00      -12345.00      -12345.00      -12345.00      -12345.00    
  -12345.00      -12345.00      -12345.00      -12345.00      -12345.00    
  -12345.00       37.61867      -121.7587       198.0000      -12345.00    
   37.51733      -121.6850      -12345.00       5.950000      -12345.00    
   1.600000      0.1100000       88.00000      0.4500000      0.9200000    
   15.00000      -12345.00      -12345.00      -12345.00      -12345.00    
   12.99330       329.9723       149.9212      0.1168718      -12345.00    
  -12345.00      0.9446046e-04   90.00000       90.00000      -12345.00    
  -12345.00      -12345.00      -12345.00      -12345.00      -12345.00    
  -12345.00      -12345.00      -12345.00      -12345.00      -12345.00    
      1987       173        11         9        56
       363         6    -12345    -12345      3933
    -12345    -12345    -12345    -12345    -12345
         1    -12345    -12345    -12345    -12345
    -12345    -12345    -12345    -12345    -12345
    -12345    -12345    -12345    -12345    -12345
    -12345    -12345    -12345    -12345    -12345
         1         1         1         1         1
CVAE    870622111018    
-12345  origin  -12345  
-12345  -12345  -12345  
-12345  -12345  -12345  
-12345  -12345  -12345  
-12345  -12345  satellit
satellit-12345  -12345  
-12345  -12345  -12345  
  0.8398203     -0.2455185     -0.4682707      0.2449361       1.008229    
  0.7396314     -0.3351393     -0.5593779      0.1348950      0.8564773    
  0.5181075     -0.6204584     -0.8281591     -0.3817271e-01  0.7815300    
  0.5069459     -0.6000565     -0.8068942     -0.4592575e-01  0.7150074    
  0.3514747     -0.8361841      -1.076049     -0.2983275      0.5726909    
  0.4199242     -0.5638924     -0.6756905      0.1611326      0.9867235    
  0.6834837     -0.4427275     -0.6551431      0.7842544e-01  0.8319626    
  0.4835025     -0.6642313     -0.7978370      0.1161049       1.077076    
  0.9281738     -0.1032747     -0.3221247      0.2978458      0.8602211    
  0.4268984     -0.6311458     -0.7029217      0.1594714      0.9457107    
  0.6040415     -0.4152323     -0.5020417      0.2101521      0.7828661    
  0.2738959     -0.8336480     -0.8938296     -0.3927063e-01  0.6788575    
  0.2852449     -0.6918347     -0.6394305      0.2366572      0.8483191    
  0.3363126     -0.6560219     -0.5948406      0.2744645      0.9020795    
  0.4281401     -0.5044377     -0.4014160      0.4511674       1.000015    
  0.4189464     -0.6164432     -0.6183084      0.1213837      0.5442254    
 -0.1014490      -1.062255     -0.9242375     -0.4994541e-01  0.5113041    
  0.1778383e-01 -0.8059599     -0.6148474      0.1960716      0.5804653    
 -0.8617705e-01 -0.9231317     -0.6214865      0.3121323      0.7984865    
  0.2184216     -0.6216690     -0.4903610      0.2195411      0.5801669    
  0.8499408e-02 -0.6884775     -0.3535213      0.4694896      0.7775906    
  0.1042437     -0.6289558     -0.3452783      0.3695161      0.5870080    
 -0.8399438e-01 -0.6830408     -0.2086725      0.6010497      0.7804818    
  0.1511514e-01 -0.6599088     -0.2469191      0.4732229      0.5700818    
 -0.2349266     -0.8689339     -0.3722083      0.3990426      0.5565504    
 -0.1355784     -0.6390826     -0.1073327      0.5658242      0.6074333    
 -0.1433900     -0.6900638     -0.2272941      0.3878508      0.4199539    
 -0.2525644     -0.5912257      0.9743712e-01  0.7660410      0.6407564    
 -0.2875125     -0.8315560     -0.2264141      0.4379337      0.3872963    
 -0.3455354     -0.6847157     -0.1539842e-01  0.6148574      0.5105745    
 -0.2963272     -0.6926358     -0.6522284e-01  0.4977746      0.3384191    
 -0.4338599     -0.6649807      0.1846759      0.8760757      0.6757888    
 -0.2305263     -0.6551299     -0.6604284e-01  0.4454771      0.2181143    
 -0.6421735     -0.9454319     -0.2325110      0.2946620      0.5869535e-01
 -0.7111325     -0.7772558      0.2135198      0.8749653      0.5973156    
 -0.3110438     -0.5769931      0.1851926      0.6987376      0.4258637    
 -0.4060212     -0.6025759      0.2218309      0.7511040      0.4462544    
 -0.3501088     -0.4447896      0.3909704      0.7992879      0.3135883    
 -0.6525131     -0.7947962      0.1127176      0.5565217      0.7174708e-01
 -0.8082818     -0.8136471      0.1706438      0.6365833      0.2018515    
 -0.5958819     -0.5606965      0.3858135      0.7747533      0.3003640    
 -0.5014014     -0.4752738      0.4551739      0.7793450      0.1876964    
 -0.6710716     -0.6056337      0.3815773      0.7412388      0.2033877    
 -0.5431594     -0.3834663      0.6027110      0.9034261      0.3231426    
 -0.4144983     -0.2376525      0.6520183      0.7353407     -0.3628010e-01
 -0.9085814     -0.7763498      0.2353397      0.4936491     -0.1607485    
 -0.9275863     -0.6945183      0.3421094      0.5155081     -0.2526695    
  -1.042650     -0.7379627      0.3931800      0.6127723     -0.1515434    
 -0.9360862     -0.6592980      0.3745497      0.4680568     -0.3326200    
  -1.021246     -0.5878597      0.6324618      0.9117838      0.1861551    
 -0.5741040     -0.2826050      0.7593882      0.8948528      0.1308623    
 -0.6458591     -0.3926355      0.6630428      0.8218597      0.1002340e-01
 -0.8108990     -0.5227711      0.5678994      0.7225663     -0.5454535e-01
 -0.8010282     -0.4360234      0.7358862      0.9385762      0.9807683e-01
 -0.8261917     -0.6809230      0.3010268      0.4169565     -0.4080651    
  -1.250392     -0.9496914      0.1931867      0.4088666     -0.2881923    
 -0.9627537     -0.5994368      0.5093607      0.7168109      0.4141334e-01
 -0.6175492     -0.2822562      0.7149106      0.7624438     -0.8772392e-01
 -0.8641785     -0.5152472      0.5474652      0.6353112     -0.1590668    
 -0.8226646     -0.3783585      0.6871626      0.7645043      0.2466686e-01
 -0.5578722     -0.8401641e-01  0.9184986      0.8352628     -0.1315238    
 -0.8994254     -0.4990549      0.4983116      0.4379538     -0.4373887    
  -1.001586     -0.4339376      0.5845267      0.5213265     -0.3770203    
 -0.9813821     -0.3902738      0.6796389      0.6997972     -0.3995489e-01
 -0.4840644      0.1154904       1.040115      0.9107767      0.4754353e-01
 -0.5426414     -0.8281180e-01  0.7377720      0.5318189     -0.3477572    
 -0.8582579     -0.3008665      0.5587862      0.3744548     -0.4594412    
 -0.8967080     -0.2731810      0.6108888      0.4520793     -0.3125796    
 -0.6329636      0.8091041e-01  0.9136941      0.6384485     -0.1555763    
 -0.4611390      0.1906336      0.8785754      0.4461871     -0.4861270    
 -0.8395302     -0.1094639      0.6660109      0.3326331     -0.4073702    
 -0.5869662      0.1466780      0.7952453      0.3580655     -0.3875646    
 -0.5545002      0.1304786      0.7056715      0.2458059     -0.4342108    
 -0.4857584      0.2486604      0.7292008      0.1450408     -0.6143558    
 -0.7420613     -0.4299668e-01  0.4433431     -0.9138057e-01 -0.7138647    
 -0.6881334      0.7151929e-01  0.5317319     -0.3354369e-01 -0.6875982    
 -0.7305294      0.4035416e-02  0.5252604      0.7324216e-01 -0.4480976    
 -0.3717383      0.4344638      0.9036798      0.3132096     -0.2816504    
 -0.1798927      0.5898365      0.9154189      0.2220275     -0.4432066    
 -0.4255818      0.3180011      0.6710328      0.5658669e-01 -0.4389810    
 -0.1975905      0.6706953      0.9324062      0.1229610     -0.5229800    
 -0.3560416      0.5076988      0.7916624     -0.1057298e-01 -0.6666536    
 -0.5292534      0.2837628      0.5335873     -0.2078921     -0.7053589    
 -0.4624837      0.2901889      0.3935669     -0.4632893     -0.9658393    
 -0.5743843      0.4105350      0.7227995      0.2183353e-01 -0.4099976    
 -0.1082499      0.6239818      0.6302778     -0.2830615     -0.7629138    
 -0.3870311      0.4641170      0.5588841     -0.3323416     -0.8149509    
 -0.3862819      0.5373526      0.6496524     -0.1982763     -0.5702013    
 -0.1170969      0.6666672      0.5882463     -0.3893918     -0.7950612    
 -0.2812107      0.6200094      0.6406430     -0.2532119     -0.5485796    
  0.2619700e-01  0.8609807      0.7235057     -0.3481502     -0.7697974    
 -0.2755090      0.4815563      0.3059246     -0.6858381     -0.9052207    
 -0.2348141      0.5629948      0.3766224     -0.5948662     -0.7585604    
  0.7642586e-02  0.9069868      0.7533416     -0.2924953     -0.6013114    
  0.2172562e-01  0.8127210      0.5798349     -0.4816411     -0.7451528    
 -0.9485839e-01  0.7050439      0.5017707     -0.5086322     -0.6588779    
  0.1697672       1.099306      0.9001920     -0.1949675     -0.4858895    
  0.1374304      0.8645978      0.5730729     -0.5118826     -0.7330140    
 -0.2073083e-01  0.7364547      0.4158243     -0.6797397     -0.8534836    
 -0.7280527e-01  0.7377556      0.4585881     -0.6045605     -0.7524446    
  0.1036173e-01  0.7600162      0.4547721     -0.5995646     -0.7421772    
  0.1014346       1.048760      0.8661042     -0.2570721     -0.5467668    
  0.1424071      0.9194003      0.6198763     -0.4956996     -0.7355299    
 -0.3451619e-01  0.7144966      0.3845808     -0.6863144     -0.8047515    
  0.1999545e-01  0.8602665      0.5926263     -0.4427176     -0.5515389    
  0.2168647      0.8923554      0.4627715     -0.6204941     -0.7451709    
 -0.1874423e-02  0.6770270      0.2794952     -0.7022137     -0.6519562    
  0.2277564      0.9698713      0.6427711     -0.2996408     -0.2818306    
  0.5282361       1.078047      0.5035262     -0.5578684     -0.5790598    
  0.1870860      0.6827962      0.7926947e-01 -0.9484810     -0.8718622    
  0.6081297e-01  0.7598131      0.3264796     -0.5958381     -0.4734145    
  0.4085951      0.9199021      0.2737925     -0.7756605     -0.7388619    
  0.9573753e-01  0.6357092      0.9592428e-01 -0.8043319     -0.6869953    
  0.1251139      0.6205115      0.5524245e-01 -0.8489846     -0.7110711    
  0.1106879      0.5300259     -0.1166385     -0.9877226     -0.7751949    
  0.9103297e-01  0.5703639      0.4528310e-01 -0.6739146     -0.3498121    
  0.5148481      0.8808673      0.2455923     -0.5063574     -0.2193983    
  0.5602491      0.8267660      0.1103860     -0.6315759     -0.2860160    
  0.4814993      0.6622954     -0.9976169e-01 -0.8105844     -0.4746162    
  0.2034240      0.3317660     -0.3660282     -0.8907611     -0.3165410    
  0.5444490      0.7303607     -0.3095595e-01 -0.6226240     -0.8104883e-01
  0.7011658      0.7973679      0.4807759e-01 -0.4722326      0.4085488e-01
  0.6896904      0.6967360     -0.6503944e-01 -0.5651340     -0.4194010e-01
  0.5643004      0.4719815     -0.4113609     -0.9808867     -0.4764495    
  0.1239312      0.8148524e-01 -0.6503214     -0.9953340     -0.2979602    
  0.3586640      0.2447248     -0.5633577     -0.9065046     -0.1626337    
  0.5520954      0.4744660     -0.3146113     -0.6137485      0.1624235    
  0.8594792      0.7126755     -0.1618156     -0.5287409      0.1523973    
  0.7205758      0.5214223     -0.2947691     -0.5731577      0.1475430    
  0.6655239      0.3622613     -0.5377276     -0.8042569      0.2390515e-01
  0.7086391      0.5968476     -0.1604276     -0.4085034      0.2733756    
  0.7191495      0.3840111     -0.5116431     -0.7411258      0.7543116e-01
  0.6172929      0.3026987     -0.5683549     -0.7283323      0.1270355    
  0.6007463      0.2284063     -0.5723396     -0.6094198      0.3078357    
  0.7454737      0.3169825     -0.4831626     -0.5421259      0.2898763    
  0.6932363      0.2792858     -0.5368474     -0.5653172      0.3042409    
  0.5954478     -0.4984395e-02 -0.9291877     -0.9493307      0.8622299e-02
  0.3960891     -0.9253474e-01 -0.8412909     -0.6901934      0.3664678    
  0.7875717      0.3112659     -0.4049280     -0.2392771      0.7733502    
   1.087254      0.4721132     -0.3458040     -0.2544011      0.6236989    
  0.7715077      0.6585881e-01 -0.7352932     -0.5234007      0.5007864    
  0.7046759      0.5056885e-02 -0.7616553     -0.5252098      0.4752690    
  0.6070618     -0.1748180     -0.9954925     -0.7840734      0.2225822    
  0.3566114     -0.4218561      -1.153276     -0.7968687      0.3038220    
  0.4908876     -0.2275709     -0.9229023     -0.5473729      0.6002501    
  0.7886664     -0.1045919e-01 -0.7902889     -0.4651566      0.6649843    
  0.8679311      0.7559232e-01 -0.7454622     -0.4727794      0.6300491    
  0.8285174      0.5284271e-01 -0.7314982     -0.4026442      0.7363464    
  0.9107868      0.8743475e-01 -0.7325339     -0.4306739      0.6867167    
  0.8419452     -0.9652615e-03 -0.8824689     -0.6869875      0.3544954    
  0.5021647     -0.2784205      -1.062455     -0.8063508      0.2261971    
  0.3402143     -0.4538128      -1.185019     -0.7616480      0.5252048    
  0.8762960      0.1961521     -0.4983937     -0.1132817      0.9405125    
  0.9722613      0.6981603e-01 -0.7611623     -0.4747076      0.5504442    
  0.6588278     -0.1009886     -0.7599014     -0.3463451      0.6464455    
  0.6015506     -0.3183548      -1.069137     -0.6410629      0.4359141    
  0.4716705     -0.3650462     -0.9841944     -0.4857537      0.5282056    
  0.4880855     -0.3567120     -0.9126143     -0.3138879      0.8035238    
  0.8746366      0.1131804     -0.4252416      0.8370577e-01  0.9975491    
  0.8583148     -0.5346508e-01 -0.6925156     -0.2822888      0.5665954    
  0.5087358     -0.2539030     -0.7908891     -0.3229532      0.5023686    
  0.3405254     -0.4893816     -0.9774939     -0.3793406      0.5860043    
  0.5029010     -0.3038366     -0.7420765     -0.1029767      0.8183222    
  0.7231714      0.1376572e-01 -0.3351941      0.2661106      0.9775514    
  0.6072012     -0.2596434     -0.6191103     -0.4850240e-02  0.6996840    
  0.3776638     -0.3865618     -0.6271526      0.8510493e-01  0.7900438    
  0.4093715     -0.3572109     -0.5451313      0.1961202      0.8660310    
  0.4225870     -0.3991270     -0.6382612      0.5223846e-01  0.6688331    
  0.2062786     -0.5620006     -0.7127947     -0.1365869e-01  0.4552094    
 -0.1557131     -0.9163299     -0.9772170     -0.1764818      0.4149477    
 -0.4203027e-01 -0.6060926     -0.4554527      0.5038448       1.168727    
  0.7023868      0.4195788e-02 -0.1126489      0.5494105      0.9103691    
  0.1953471     -0.5536941     -0.6099407      0.6411621e-01  0.4256929    
 -0.1825098     -0.7142486     -0.5129247      0.3118834      0.6461400    
 -0.4737017e-01 -0.6436661     -0.4860055      0.3162739      0.6496759    
 -0.2206387e-01 -0.6117784     -0.4617567      0.3976030      0.8153255    
  0.1786436     -0.3467101     -0.6397998e-01  0.8396502       1.131265    
  0.3459680     -0.2829067     -0.1476553      0.5527224      0.6511607    
 -0.2498927     -0.9244530     -0.8072841     -0.5801373e-01  0.1607717    
 -0.5790246      -1.039739     -0.7203233      0.1556948      0.4383339    
 -0.2901126     -0.7446874     -0.4176546      0.3552493      0.4258632    
 -0.4287709     -0.8055815     -0.2700312      0.6934220      0.8652700    
  0.2630439e-01 -0.4203364     -0.4601896e-02  0.8218318      0.8315009    
 -0.1254405     -0.5754603     -0.9274759e-01  0.7896820      0.8024027    
 -0.1297046     -0.4970154      0.6748341e-02  0.8058559      0.7032388    
 -0.3437734     -0.7926519     -0.3025857      0.5095123      0.4073172    
 -0.6508129      -1.120215     -0.6175498      0.2849369      0.3201547    
 -0.5431563     -0.7092184      0.2290402e-01  0.8952364      0.7996998    
 -0.1799060     -0.5306126     -0.1969417e-01  0.7035298      0.5236652    
 -0.4414522     -0.6416081      0.1060343e-02  0.7216962      0.4433978    
 -0.6402956     -0.8643058     -0.1115238      0.7393131      0.5375286    
 -0.5198621     -0.7657278     -0.4320849e-01  0.8472966      0.7561343    
 -0.1569316     -0.2623374      0.4790992       1.223011      0.8877282    
 -0.3026378     -0.5770298      0.1696409      0.9286047      0.5337765    
 -0.7185065      -1.022612     -0.2755611      0.5143777      0.2234330    
 -0.8064261     -0.8769742     -0.3121822e-01  0.7692399      0.4444419    
 -0.7002596     -0.8882665     -0.1239427      0.5921227      0.2589400    
 -0.7760582     -0.8478044      0.6676771e-02  0.8318316      0.5538969    
 -0.5154213     -0.6322966      0.2044161       1.037706      0.7919779    
 -0.2233464     -0.3065619      0.4996329       1.270037      0.9588877    
 -0.1740528     -0.4393336      0.2241864      0.9181296      0.5477184    
 -0.5959738     -0.8285649     -0.1696134      0.4812149      0.1464600    
 -0.8403482     -0.8657470     -0.1811255e-01  0.7338718      0.4589012    
 -0.4261030     -0.3816548      0.4273896       1.029925      0.5272098    
 -0.5557653     -0.5711612      0.3102541      0.9973511      0.5505322    
 -0.4680938     -0.4519041      0.3860700      0.9496049      0.3312724    
 -0.8753876      -1.031661     -0.2379434      0.4097435     -0.6885596e-01
  -1.031893     -0.9060718      0.2666886e-01  0.6813468      0.2417218    
 -0.6437259     -0.5132970      0.3146676      0.7932359      0.2198981    
 -0.7211944     -0.6094179      0.2752942      0.8479519      0.3297093    
 -0.5942432     -0.5426914      0.2021093      0.5901608     -0.8375178e-01
  -1.019870     -0.8744873     -0.2541081e-02  0.5538468      0.5988031e-01
 -0.7138683     -0.4538774      0.4132048      0.8476687      0.2305253    
 -0.6315939     -0.4675830      0.3313697      0.7616298      0.2027251    
 -0.5777652     -0.3863956      0.3458615      0.6517493      0.2435827e-01
 -0.6535630     -0.2651877      0.5665168      0.8366071      0.1535976    
 -0.5247655     -0.2021373      0.4545510      0.5899289     -0.1542064    
 -0.8234487     -0.4220085      0.2677639      0.3535590     -0.4037719    
  -1.007376     -0.5339224      0.2411367      0.4331563     -0.2280094    
 -0.6986668     -0.8710065e-01  0.7199311      0.8399505      0.7914948e-01
 -0.5232222     -0.1211152      0.4683063      0.4713478     -0.2722767    
 -0.7246646     -0.1152854      0.5868278      0.5718010     -0.2423700    
 -0.7801958     -0.2731889      0.3858854      0.4653135     -0.1527051    
 -0.4259743      0.3032582      0.9506556      0.7816754     -0.1355715    
 -0.6538130     -0.8761626e-01  0.5482178      0.4758612     -0.3542924    
 -0.8331008     -0.3132229      0.1907508      0.1811533e-01 -0.7613726    
 -0.9925398     -0.1330562      0.6216266      0.5449585     -0.2465725    
 -0.5555853      0.1596289      0.7389051      0.5282396     -0.3222374    
 -0.6191338      0.1378263      0.7087215      0.4372909     -0.4511005    
 -0.7653586     -0.8491382e-01  0.4268847      0.2308978     -0.5224352    
 -0.6756315      0.1983055      0.7858983      0.4726596     -0.4365847    
 -0.7102215      0.3559754e-01  0.5618469      0.3305523     -0.3906837    
 -0.4439200      0.4422578      0.9527967      0.5863541     -0.3177754    
 -0.5320615      0.2062079      0.5347368      0.2292250e-01 -0.8381888    
 -0.8198237      0.1912952      0.7639326      0.4372406     -0.4085843    
 -0.5432671      0.2602827      0.6039139      0.1375230     -0.6846504    
 -0.7496820      0.9352601e-01  0.4495619     -0.2872859e-01 -0.8055459    
