  0.1017683e-01  -63.42116       60.43025      -12345.00      -12345.00    
   9.993649       50.00895       17.68428      -12345.00       2.000000    
  -12345.00      -12345.00      -12345.00      -12345.00      -12345.00    
  -12345.00      -12345.00      -12345.00      -12345.00      -12345.00    
  -12345.00      -12345.00      -12345.00      -12345.00      -12345.00    
  -12345.00      -12345.00      -12345.00      -12345.00      -12345.00    
  -12345.00       37.61867      -121.7587       198.0000      -12345.00    
   37.51733      -121.6850      -12345.00       5.950000      -12345.00    
   1.600000      0.1100000       88.00000      0.4500000      0.9200000    
   15.00000      -12345.00      -12345.00      -12345.00      -12345.00    
   12.99330       329.9723       149.9212      0.1168718      -12345.00    
  -12345.00      0.7079939e-03         0.       90.00000      -12345.00    
  -12345.00      -12345.00      -12345.00      -12345.00      -12345.00    
  -12345.00      -12345.00      -12345.00      -12345.00      -12345.00    
      1987       173        11         9        56
       363         6    -12345    -12345      3933
    -12345    -12345    -12345    -12345    -12345
         1    -12345    -12345    -12345    -12345
    -12345    -12345    -12345    -12345    -12345
    -12345    -12345    -12345    -12345    -12345
    -12345    -12345    -12345    -12345    -12345
         1         1         1         1         1
CVAN    870622111018    
-12345  origin  -12345  
-12345  -12345  -12345  
-12345  -12345  -12345  
-12345  -12345  -12345  
-12345  -12345  satellit
satellit-12345  -12345  
-12345  -12345  -12345  
   1.212415      0.1003243e-01 -0.2872007      0.3104568      0.9102648    
  0.4613307     -0.7402402     -0.9258358     -0.6724779e-01  0.8303040    
  0.6842803     -0.2011982     -0.1678435      0.7762635       1.661940    
   1.319348     -0.2916971e-02 -0.5137366     -0.1305909      0.2299657    
 -0.4268791      -1.745249      -2.008540      -1.196044     -0.2365730    
 -0.2858144      -1.107293     -0.9890462      0.1423605e-02  0.8776485    
  0.5332857     -0.7158822      -1.084917     -0.4928952      0.2635360    
  0.1188315     -0.7573013     -0.6814831      0.3664626       1.370750    
   1.273873      0.4798024      0.5880612       1.489207       2.263736    
   1.865319      0.6644459      0.3791961      0.9005180       1.192919    
  0.4082857     -0.8779346      -1.082943     -0.4016258      0.1704663    
 -0.2057842      -1.017164     -0.8566138     -0.1790481e-01  0.4777620    
 -0.1623624      -1.227015      -1.150268     -0.2195070      0.4376800    
 -0.3635400e-01 -0.9557735     -0.8202614      0.1318420      0.8589593    
  0.4320408     -0.5760326     -0.6651142      0.2673759e-03  0.4504111    
 -0.1318702      -1.096771     -0.9783270     -0.4802790e-01  0.6200163    
  0.2602877     -0.4264115     -0.1197743      0.8366344       1.446332    
  0.9765596      0.1169261      0.2112628      0.9362966       1.196368    
  0.3135367     -0.7719125     -0.7331488     -0.2064915e-01  0.3438314    
 -0.2763018      -1.049220     -0.7528982      0.9673622e-01  0.4101726    
 -0.3644157      -1.195191     -0.8929941     -0.8309006e-01  0.2705906    
 -0.2557977     -0.7328637     -0.1114858      0.9186604       1.284543    
  0.5621572     -0.1711822      0.1198878      0.6887293      0.6368923    
 -0.3223412      -1.124648     -0.7795271     -0.7173474e-01  0.1463037    
 -0.4384700     -0.8621787     -0.1949636      0.7154713      0.9879393    
  0.4309188      0.1254986      0.8030382       1.410734       1.204363    
  0.2011278     -0.5054801     -0.2089652      0.1730462     -0.3822748e-04
 -0.7534491      -1.065590     -0.3338780      0.4234829      0.5038950    
 -0.1834301     -0.6100553     -0.9432145e-01  0.3421748      0.2947517e-01
 -0.8956452      -1.250355     -0.4636235      0.2215766      0.3272763e-01
 -0.8018994      -1.047855     -0.2393414      0.4295829      0.3511461    
 -0.3152469     -0.4434974      0.4774361       1.217513       1.011329    
  0.9943650e-02 -0.5191929     -0.4862170e-02  0.3833005      0.2195539e-01
 -0.8664966      -1.090266     -0.2636124      0.3394608      0.1080727    
 -0.7244089     -0.9178883     -0.7866986e-01  0.4868709      0.2512465    
 -0.4295858     -0.3472814      0.7044482       1.345585       1.125542    
  0.3545115      0.1890304      0.9337039       1.224836      0.5870749    
 -0.5381575     -0.9378029     -0.4011167     -0.2624568     -0.8431191    
  -1.615147      -1.384209     -0.6550817e-01  0.8072740      0.7502524    
  0.1981820      0.3173677       1.189003       1.339862      0.4921849    
 -0.7169130      -1.071743     -0.4731607     -0.3269813     -0.8307211    
  -1.370171     -0.8969002      0.4878767       1.176363      0.7990745    
  0.1839942e-01  0.7308052e-01  0.9248300       1.022128      0.2054379    
 -0.6883929     -0.5113870      0.4976751      0.7077089      0.3744761e-01
 -0.6351023     -0.2361547      0.8818926       1.010049      0.1012112    
 -0.9369321     -0.9645264     -0.1501554     -0.9166560e-01 -0.8725049    
  -1.612429      -1.191253      0.9121270e-01  0.4681048     -0.1211146    
 -0.6999382     -0.2127082      0.9702334       1.082182      0.9470717e-01
 -0.8714029     -0.6169631      0.4782619      0.6428529     -0.7292911e-01
 -0.6200606     -0.2423295e-01   1.224833       1.356957      0.3773671    
 -0.6393682     -0.5035245      0.4324743      0.3840315     -0.6518320    
  -1.641096      -1.389078     -0.1977648      0.1270459     -0.4336376    
 -0.8978210     -0.2404363       1.100382       1.329217      0.5051196    
 -0.3598239     -0.1390193      0.9061849      0.9635086      0.8560105e-04
 -0.9048290     -0.6316181      0.4772897      0.7269748      0.1280258    
 -0.4275506      0.3093514e-01   1.124308       1.192320      0.2740082    
 -0.7150078     -0.7049550      0.2507365e-01 -0.1192775     -0.9859196    
  -1.574216     -0.9519459      0.3547280      0.6223840     -0.5231818e-01
 -0.6926926     -0.3211352      0.6912477      0.7331796     -0.1434833    
 -0.9284881     -0.6091124      0.4031594      0.5374050     -0.1502273    
 -0.6815851     -0.7473124e-01   1.110028       1.187450      0.3268100    
 -0.3858572     -0.5904015e-01  0.7708280      0.6368130     -0.2651150    
 -0.9339534     -0.4804655      0.4823627      0.4130695     -0.4101635    
 -0.9028355     -0.2856131      0.7574255      0.7679824     -0.1144149e-01
 -0.5343428     -0.2345702e-01  0.7926948      0.6037861     -0.1601251    
 -0.5343550      0.1014624      0.9790320      0.7072282     -0.2900031    
 -0.8615534     -0.3561259      0.4133239      0.1703111     -0.6588998    
  -1.033289     -0.3702056      0.4879353      0.3122796     -0.4632370    
 -0.8300341     -0.2397001      0.3893989     -0.5524541e-01 -0.9061053    
  -1.150693     -0.3483596      0.5171951      0.3083051     -0.3332499    
 -0.4620943      0.3300631       1.060756      0.6272098     -0.2589403    
 -0.5842988      0.4966914e-01  0.6520536      0.2702915     -0.3067456    
 -0.2560894      0.6319132       1.369559       1.041703      0.3913837    
  0.2289278      0.8238153       1.205193      0.5510437     -0.2227338    
 -0.2835001      0.5109887       1.027702      0.4001742     -0.4231079    
 -0.6561484     -0.1656858      0.2292397e-01 -0.8073403      -1.629919    
  -1.688850     -0.9504131     -0.4941817     -0.9306690      -1.278762    
 -0.9825815     -0.1645053e-01  0.5654932      0.9353476e-01 -0.4008020    
 -0.2004502      0.6825019       1.035281      0.2586758     -0.4705109    
 -0.4068843      0.4288615      0.8572578      0.3551809      0.2348732e-01
  0.4160374       1.317012       1.460458      0.5785903      0.2299574e-01
  0.2867680       1.095215       1.164015      0.1299682     -0.6725563    
 -0.6499496      0.6606170e-01  0.2629046     -0.4202424     -0.7165366    
 -0.2903185      0.5060923      0.5450710     -0.4167793      -1.038065    
 -0.7919171      0.8093312e-02  0.1222076     -0.6838402      -1.056015    
 -0.5693408      0.3998241      0.6249107     -0.1572802     -0.6256459    
 -0.2753083      0.6337368      0.8346770      0.2373023e-01 -0.4020245    
 -0.1792524e-01  0.7562342      0.7245218     -0.2308641     -0.6814086    
 -0.2850827      0.4576828      0.3098546     -0.7310131      -1.079372    
 -0.4653652      0.4248993      0.3249237     -0.7598376      -1.277027    
 -0.8747370     -0.1177869     -0.2263791      -1.143836      -1.260594    
 -0.3571647      0.7927443      0.9515511      0.2303478      0.1687911    
  0.9074605       1.700515       1.367917      0.1499316     -0.2473987    
  0.3296620       1.036173      0.6754909     -0.4461671     -0.6296077    
  0.1594841       1.036831      0.8448004     -0.1890250     -0.4464556    
  0.1390388      0.7903901      0.4176227     -0.7212108     -0.8956212    
 -0.3823652e-01  0.8845047      0.6724434     -0.4115807     -0.6355461    
  0.6598016e-01  0.7605324      0.3584136     -0.8049558      -1.038952    
 -0.3163886      0.4728580      0.2064707     -0.8890346      -1.075808    
 -0.2402674      0.6587814      0.4296879     -0.6550496     -0.8523316    
 -0.4480616e-01  0.8895352      0.7618344     -0.1915422     -0.2645290    
  0.5817629       1.425726       1.107891     -0.7119068e-01 -0.3827344    
  0.1948704      0.8010697      0.3790053     -0.7802836      -1.030169    
 -0.3879700      0.2890090     -0.1089230e-01 -0.9481055     -0.9021264    
  0.4662902e-01  0.8597960      0.4177052     -0.7818023      -1.003470    
 -0.2530154      0.5861270      0.4374343     -0.3083499     -0.5916541e-01
  0.9166821       1.503231      0.8470356     -0.2904916     -0.2989566    
  0.4958580       1.079913      0.5895374     -0.4148200     -0.3664216    
  0.5211317       1.151006      0.6148885     -0.4167618     -0.3845399    
  0.4516516       1.026457      0.4632804     -0.6129803     -0.6881469    
  0.1068506e-01  0.4909388     -0.4836333e-01  -1.019531      -1.020069    
 -0.3091317      0.8889967e-01 -0.5807934      -1.605109      -1.530601    
 -0.6386803     -0.4997398e-01 -0.5746683      -1.437715      -1.201824    
 -0.2045121      0.4532883      0.1760467e-01 -0.6821738     -0.3124051    
  0.6425549       1.162613      0.6473167     -0.1576602     -0.5739172e-02
  0.7622475       1.151365      0.5084969     -0.2380376      0.1885160    
   1.129374       1.464744      0.7632795     -0.2243383e-01  0.1726693    
  0.7477115      0.7950024     -0.5823231e-01 -0.8735005     -0.6328948    
  0.2087988e-01  0.1425985     -0.6356565      -1.210789     -0.5903924    
  0.3264315      0.5707415     -0.1356716     -0.7205384     -0.2653562    
  0.3299660      0.2087015     -0.7568374      -1.418509     -0.8931058    
 -0.1097638      0.8993724e-01 -0.4803149     -0.8465855     -0.2639102    
  0.3890140      0.4320714     -0.2015553     -0.4965217      0.2173704    
  0.9470728      0.9732627      0.2247363     -0.2135412      0.4349611    
   1.166205       1.211027      0.5261354      0.1458292      0.7161059    
   1.215660      0.8929422     -0.2022555     -0.8243669     -0.3054876    
  0.2063505     -0.4365901e-01 -0.9640298      -1.339644     -0.6065848    
  0.2401048e-01 -0.1487149     -0.9401286      -1.118863     -0.2211039    
  0.4402715      0.1758625     -0.7441571      -1.044275     -0.2564721    
  0.3888696      0.2868703     -0.3607894     -0.3846038      0.6149893    
   1.334892       1.130049      0.2717684      0.3243732e-01  0.7939528    
   1.272421      0.9587135      0.1453881     -0.2688428e-01  0.6930881    
   1.045608      0.6229207     -0.2580845     -0.4692653      0.1520346    
  0.2191904     -0.5685618      -1.628403      -1.753180     -0.8857653    
 -0.5093487     -0.9761232      -1.751181      -1.634964     -0.5390573    
  0.4465595e-01 -0.2466956     -0.8136169     -0.4729985      0.7256239    
   1.301554       1.012803      0.3390945      0.3751096       1.248145    
   1.493301      0.8427246     -0.5521088e-01 -0.9046649e-01  0.7276362    
  0.9175993      0.1973153     -0.7575927     -0.7282736      0.1551543    
  0.2540885     -0.5184215      -1.366230      -1.217958     -0.1522240    
  0.2473402     -0.2827012     -0.9278186     -0.4433093      0.9134238    
   1.336370      0.7215787     -0.4239681e-01  0.1619705       1.138896    
   1.256873      0.4693266     -0.3532188     -0.1470594      0.8016012    
  0.8108314     -0.9884988e-01 -0.9488834     -0.6806807      0.3797063    
  0.4746932     -0.4886665      -1.489741      -1.349651     -0.3888570    
 -0.3557702      -1.212352      -1.917481      -1.421561     -0.1320162    
  0.1547643     -0.5738105      -1.292853     -0.8963014      0.2995658    
  0.5872501     -0.3541086e-01 -0.6505598     -0.2224341       1.014849    
   1.433110      0.9512576      0.3654099      0.7005214       1.743851    
   1.843228      0.9661945      0.3253523e-01  0.1525455       1.046171    
  0.9584983     -0.1256700      -1.226503      -1.207137     -0.3140613    
 -0.2212996     -0.9318277      -1.522826     -0.9865003      0.2638757    
  0.5401144     -0.6338837e-01 -0.6097935     -0.1608408      0.8723161    
  0.8757031     -0.2511910e-01 -0.8249480     -0.4772603      0.6014523    
  0.6786287     -0.1977766     -0.9826635     -0.6674189      0.2541257    
  0.2056390     -0.5673029      -1.089681     -0.5749283      0.3779020    
  0.2010923     -0.8157016      -1.538061      -1.057227      0.3766997e-01
  0.1161087     -0.7088681      -1.284340     -0.6060228      0.5971454    
  0.7078251      0.8339655e-01 -0.1133951      0.8571365       2.151252    
   2.222203       1.409958      0.8108777       1.166414       1.782992    
   1.339786      0.2508021     -0.4224586     -0.4254454e-01  0.6004885    
  0.2124249     -0.7994165      -1.413898     -0.9903648     -0.3114974    
 -0.6208199      -1.455356      -1.771791     -0.9803330      0.1008053e-01
 -0.5390087e-01 -0.6826952     -0.8881248     -0.6250266e-01  0.9368125    
  0.8642102      0.2516834      0.4777835e-01  0.6592488       1.215288    
  0.7626154      0.7960669e-02 -0.1945962      0.3927873      0.8093774    
  0.2460681     -0.4438348     -0.4890501      0.2693448      0.8324940    
  0.2748423     -0.5912620     -0.8040490     -0.5246964e-01  0.5861711    
  0.1501555     -0.5039045     -0.5244104      0.2495293      0.7818066    
  0.3047740     -0.2480654     -0.1420846      0.6659855       1.058052    
  0.2967352     -0.5407098     -0.6542706      0.2812124e-01  0.4213491    
 -0.2519906     -0.9500676     -0.8656004      0.5363866e-02  0.4711590    
 -0.1583785     -0.7549748     -0.6201741      0.2176516      0.6885399    
  0.1454365     -0.3180361      0.6841263e-03  0.9195761       1.210183    
  0.3329862     -0.5162682     -0.5739663      0.1575992      0.4792559    
 -0.2682470     -0.8860411     -0.6418545      0.2769507      0.6017558    
 -0.1259444     -0.5851542     -0.1545490      0.9059568       1.330504    
  0.6988735      0.2885922      0.5552614       1.221866       1.154468    
  0.2219565e-01 -0.8074561     -0.7842495     -0.1997196     -0.1930756    
  -1.051745      -1.511539      -1.157971     -0.3375361     -0.2054003    
 -0.9881236      -1.361581     -0.8906257      0.9884574e-01  0.3936911    
 -0.2927194     -0.5435576      0.8801690e-01   1.128072       1.326426    
  0.4694403      0.2055440e-02  0.3556749       1.076447      0.9714410    
 -0.3678556e-01 -0.4408656      0.6358502e-01  0.9386321      0.9478461    
 -0.6908672e-01 -0.5724135     -0.1486211      0.6176527      0.5220705    
 -0.4052680     -0.6636035     -0.1090030      0.5592515      0.2526416    
 -0.8848978      -1.276739     -0.6993945      0.1548849      0.9292356e-01
 -0.8038126     -0.9421238     -0.1212606      0.9028795      0.9086024    
 -0.1735045e-01 -0.2429104      0.4276419       1.189773      0.8468539    
 -0.3747287     -0.7411273     -0.1461475      0.5980938      0.4087155    
 -0.5640652     -0.7762961     -0.1559115      0.5268389      0.2292570    
 -0.8196654     -0.9565567     -0.1033624      0.8228052      0.6715584    
 -0.3214695     -0.4508594      0.2826851      0.9568829      0.5686000    
 -0.5779816     -0.7851670     -0.5872132e-01  0.6377277      0.2618227    
 -0.8810363      -1.090725     -0.4085358      0.2061237     -0.1664569    
  -1.172990      -1.178482     -0.2082947      0.7569595      0.6199121    
 -0.3309826     -0.3758946      0.4997683       1.311431      0.9533963    
 -0.2196539     -0.4231883      0.3444498       1.126169      0.7676095    
 -0.4629856     -0.7110261      0.9656053e-01  0.9986781      0.9180785    
  0.1254255      0.2058422       1.036501       1.724590       1.291390    
  0.6086595e-01 -0.2535378      0.3548182      0.8928983      0.2862721    
 -0.9983292      -1.215387     -0.5143937      0.1165230     -0.2314415    
  -1.193523      -1.279362     -0.5437418      0.1182835     -0.2657484    
  -1.200081      -1.061939     -0.4415029e-01  0.7811666      0.4558598    
 -0.4366738     -0.1896083      0.9293754       1.730019       1.364332    
  0.4428840      0.4606116       1.165186       1.531883      0.7200016    
 -0.6127537     -0.8815112     -0.3198205      0.3608315e-01 -0.5782940    
  -1.496548      -1.271734     -0.2305740      0.4990068      0.1367140    
 -0.6321555     -0.4646269      0.3181984      0.7431704      0.1421780    
 -0.7654864     -0.6792882      0.3897447e-01  0.4159555     -0.2150633    
  -1.131565      -1.027756     -0.2972011      0.1725718e-01 -0.7421719    
  -1.804357      -1.852056      -1.146870     -0.5934525     -0.8199152    
 -0.9384477      0.3365914       2.480444       4.513728       5.443675    
   5.058397       4.349667       3.927227       3.720519       2.861588    
  0.8055227      -2.127725      -5.286490      -7.622013      -8.946894    
  -9.293656      -8.478237      -6.486746      -2.577294       3.157828    
   9.498288       14.55518       16.09684       13.59842       7.910898    
  0.8188754      -6.387832      -13.71894      -19.98187      -22.96018    
  -20.55638      -12.65756      -2.398328       6.171548       10.50828    
   11.75833       12.52739       13.00660       11.79610       7.717375    
   2.029608      -2.389279      -3.703645      -1.651688       1.956103    
   5.504422       8.308733       9.292090       8.009452       4.673590    
  0.5962921      -3.064069      -6.868264      -11.44451      -16.46462    
  -19.67610      -19.10824      -15.40955      -10.02088      -4.240810    
   1.665038       7.060668       10.15567       10.96359       11.32742    
   13.50230       17.21956       18.73083       15.02859       6.523489    
  -2.774039      -9.251511      -12.63815      -13.73598      -13.04849    
  -9.884198      -4.345076       1.049966       3.563557       1.650650    
  -2.888401      -6.862555      -8.938055      -8.418018      -5.219225    
  0.3623923       6.808258       11.59618       13.78665       13.47298    
   11.73407       9.246154       5.402484      0.7428242      -2.940089    
  -3.523856      -1.437507     -0.9859236e-01  -1.953072      -6.962044    
  -12.31822      -15.11142      -14.63768      -11.07910      -5.117602    
   2.662618       10.09028       13.60311       12.37701       8.568192    
   5.754470       5.574052       6.281276       5.652607       2.585590    
  -1.744287      -5.963111      -9.862861      -12.41830      -12.72900    
  -10.57783      -7.287702      -4.973515      -3.776794      -2.780485    
