  0.1017683e-01  -45.67522       52.85701      -12345.00      -12345.00    
   9.993649       50.00895       17.68428      -12345.00       2.000000    
  -12345.00      -12345.00      -12345.00      -12345.00      -12345.00    
  -12345.00      -12345.00      -12345.00      -12345.00      -12345.00    
  -12345.00      -12345.00      -12345.00      -12345.00      -12345.00    
  -12345.00      -12345.00      -12345.00      -12345.00      -12345.00    
  -12345.00       37.62634      -121.8357       245.0000      -12345.00    
   37.51733      -121.6850      -12345.00       5.950000      -12345.00    
   1.600000      0.1100000       88.00000      0.4500000      0.9200000    
   15.00000      -12345.00      -12345.00      -12345.00      -12345.00    
   17.98634       312.3170       132.2219      0.1617766      -12345.00    
  -12345.00      0.6502272e-03         0.       90.00000      -12345.00    
  -12345.00      -12345.00      -12345.00      -12345.00      -12345.00    
  -12345.00      -12345.00      -12345.00      -12345.00      -12345.00    
      1987       173        11         9        56
       363         6    -12345    -12345      3933
    -12345    -12345    -12345    -12345    -12345
         1    -12345    -12345    -12345    -12345
    -12345    -12345    -12345    -12345    -12345
    -12345    -12345    -12345    -12345    -12345
    -12345    -12345    -12345    -12345    -12345
         1         1         1         1         1
CVLN    870622111018    
-12345  origin  -12345  
-12345  -12345  -12345  
-12345  -12345  -12345  
-12345  -12345  -12345  
-12345  -12345  satellit
satellit-12345  -12345  
-12345  -12345  -12345  
 -0.6058307      -1.021533     -0.4298177      0.1210717     -0.2399574e-01
 -0.7897595      -1.094025     -0.3122453      0.4427120      0.3724441    
 -0.4382867     -0.7843571     -0.3740905e-01  0.6530434      0.5285196    
 -0.2870404     -0.5882555      0.2145975      0.9327051      0.8057880    
  0.3252640e-01 -0.1465187      0.6585101       1.211351      0.9733366    
  0.1685848     -0.1320712      0.4066887      0.6871173      0.2708761    
 -0.6701452     -0.9957445     -0.2560376      0.2997876      0.8642038e-01
 -0.6749231     -0.8727415     -0.1260606      0.3616610      0.4876292e-01
 -0.7223950     -0.6780148      0.4168098       1.096184      0.8640425    
  0.1420208      0.1220927       1.068782       1.579738       1.101495    
  0.7296550e-01 -0.2204773      0.4232637      0.5795671     -0.1294230    
  -1.160612      -1.310350     -0.4889881     -0.1496120     -0.6551191    
  -1.443763      -1.329292     -0.3161501      0.8633435e-01 -0.3875255    
  -1.080461     -0.8674287      0.1451440      0.4594829     -0.1039666    
 -0.8819131     -0.7444767      0.3236378      0.8308374      0.4880776    
 -0.7356361e-01  0.2016248       1.171164       1.372716      0.7345445    
 -0.5399883e-01  0.4292412e-01  0.9030396      0.9687020      0.1127501    
 -0.8347025     -0.6930814      0.3324527      0.4894903     -0.3076004    
  -1.107265     -0.8390152      0.2219064      0.4478477     -0.2776960    
  -1.151399      -1.018841     -0.3315749e-01  0.1453222     -0.5524833    
  -1.233767     -0.8461050      0.2785874      0.4549114     -0.2195037    
 -0.7644251     -0.2352543       1.004655       1.274384      0.5547410    
 -0.2189205      0.4197480e-01   1.075604       1.184967      0.3745792    
 -0.3947067     -0.1237115      0.8372535      0.8585953     -0.2619189e-01
 -0.9039323     -0.7043971      0.2961839      0.3903314     -0.4632467    
  -1.307281     -0.9862281      0.2341623      0.5425209     -0.1669670    
 -0.9252377     -0.6458479      0.3712958      0.4719127     -0.2934315    
 -0.9527486     -0.4914199      0.7205980      0.9977339      0.3573230    
 -0.3044729     -0.1513066e-01  0.8854011      0.8150346     -0.1068706    
 -0.9191907     -0.6581405      0.2543983      0.2365037     -0.5886493    
  -1.252632     -0.7419567      0.4571179      0.6210076     -0.1541755    
 -0.8138244     -0.3787367      0.6661752      0.7130693     -0.1048020    
 -0.7338268     -0.2729609      0.7142688      0.6960634     -0.1186450    
 -0.7167280     -0.2762079      0.6376217      0.5293540     -0.3948714    
  -1.006757     -0.4444059      0.5748202      0.5606723     -0.2362943    
 -0.7604453     -0.1848481      0.8139753      0.7847772     -0.2305712e-01
 -0.5559905     -0.6850530e-01  0.7181610      0.5010476     -0.3604579    
 -0.8556621     -0.2785524      0.6125124      0.4786908     -0.2780558    
 -0.6039327      0.1334902       1.061758      0.8804237      0.1045277    
 -0.2178982      0.4209407       1.098582      0.6562436     -0.2497384    
 -0.5832193      0.1164741      0.9220347      0.6333435     -0.1724918    
 -0.5003169      0.6732449e-01  0.5959939      0.7177704e-01 -0.7789203    
  -1.001315     -0.2517994      0.4651213      0.1062289     -0.6312399    
 -0.8228628     -0.1184985      0.4423661     -0.1036778     -0.8625035    
 -0.9437485     -0.1452646      0.5024849      0.8429053e-01 -0.5353760    
 -0.5356281      0.2135741      0.7228245      0.2713741     -0.2375411    
 -0.1382442      0.6209272       1.047014      0.4512224     -0.1947336    
 -0.1573663      0.6057006       1.015219      0.3741684     -0.3151968    
 -0.3276601      0.3320996      0.5766827     -0.1814799     -0.8669502    
 -0.7548156      0.1156314      0.5476179     -0.1160867     -0.7538266    
 -0.6348944      0.1274906      0.3774001     -0.3462818     -0.8793846    
 -0.6403680      0.2268506      0.5745656     -0.8990303e-01 -0.5572078    
 -0.2016567      0.7589448       1.100564      0.3674117     -0.1978882    
  0.2178729e-01  0.8368892       1.050442      0.1945129     -0.4608927    
 -0.3090363      0.3733795      0.4200239     -0.4873870      -1.080853    
 -0.8287100     -0.7788505e-03  0.2467341     -0.3915425     -0.7109545    
 -0.2827174      0.6344492      0.8520522      0.2719908e-01 -0.4436289    
 -0.5860556e-01  0.7623444      0.8634523      0.5116668e-01 -0.3613681    
  0.5939925e-02  0.7271456      0.6385375     -0.3846113     -0.9205395    
 -0.5944302      0.1274535      0.8382137e-01 -0.8440475      -1.224884    
 -0.7103018      0.2090433      0.3481681     -0.4751998     -0.8176936    
 -0.2826085      0.6071281      0.6705362     -0.1557693     -0.3879381    
  0.2552347       1.133340       1.021506     -0.3637342e-01 -0.4126737    
  0.1227904      0.8402271      0.6209214     -0.3434993     -0.5070675    
  0.1649064      0.9420381      0.7425017     -0.3240359     -0.6397444    
 -0.5995542e-01  0.6399211      0.3343445     -0.8315457      -1.163274    
 -0.5139800      0.2687842      0.6804571e-01 -0.9211794      -1.030307    
 -0.1762497      0.7287136      0.5389168     -0.5052059     -0.6538864    
  0.1771801       1.036363      0.8541947     -0.9221499e-01 -0.1728489    
  0.6527926       1.464041       1.141004     -0.1501433e-01 -0.2740630    
  0.3869661       1.030744      0.5610582     -0.7731357      -1.253050    
 -0.7465729     -0.1154954     -0.5293547      -1.727591      -1.894905    
 -0.9908501      0.3570232e-01  0.4678988e-01 -0.7831450     -0.7678428    
  0.1529469       1.080973      0.8822474     -0.2325433     -0.4677562    
  0.3052438       1.139683      0.8926414     -0.1550941     -0.2531284    
  0.6045725       1.464220       1.251743      0.2371021      0.7982127e-01
  0.7698553       1.412077       1.028539     -0.1351470e-01 -0.1102102    
  0.5972399       1.160936      0.6666279     -0.4542543     -0.6489801    
 -0.6909981e-01  0.3681902     -0.2568302      -1.436311      -1.535506    
 -0.6948530      0.1084500     -0.1004043     -0.8272860     -0.5687453    
  0.3988498       1.071019      0.6316028     -0.3121378     -0.3426439    
  0.3700608      0.9666988      0.5448174     -0.3722946     -0.3328820    
  0.4891613       1.074632      0.4758156     -0.5978529     -0.6253513    
  0.5630077e-01  0.3822283     -0.3669824      -1.405096      -1.322786    
 -0.4460559      0.1368781     -0.3524408      -1.146458     -0.9333060    
 -0.1006651      0.3531305     -0.2245433      -1.018861     -0.7479082    
  0.1712629      0.7498798      0.3444151     -0.2612544      0.1424006    
   1.061412       1.423437      0.7282494     -0.6226171e-01  0.1262076    
  0.8197588       1.161981      0.5601695     -0.2304321     -0.1080735    
  0.4802387      0.5876670     -0.2739692      -1.086018     -0.7884080    
 -0.5804876e-01  0.1267203     -0.6742450      -1.392510     -0.9941530    
 -0.2591124     -0.7374380e-01 -0.7069850      -1.150160     -0.5052208    
  0.4279571      0.7399128      0.1340826     -0.3749260      0.7202005e-01
  0.7084054      0.7711571      0.7058251e-01 -0.3081079      0.3735899    
   1.073512      0.9833650      0.9747767e-01 -0.4341155      0.7484045e-01
  0.6869010      0.6623284     -0.1663904     -0.7313854     -0.2723820    
  0.3090075      0.3108270     -0.3938169     -0.7713036     -0.1717191    
  0.4314093      0.3789898     -0.3758706     -0.7197788     -0.3905867e-01
  0.5396414      0.3582060     -0.4750539     -0.8080372     -0.1037331    
  0.5135924      0.4279959     -0.2479834     -0.3963080      0.4462913    
   1.079028      0.8437142     -0.3839543e-01 -0.3435432      0.3013015    
  0.6432608      0.1276533     -0.9185848      -1.199675     -0.3412510    
  0.3343747      0.1691744     -0.6507353     -0.8946525     -0.1798608    
  0.2531067     -0.5710076e-01 -0.8037784     -0.8262701      0.1133350    
  0.7078542      0.5051046     -0.2213659     -0.3483283      0.3979928    
  0.7815569      0.4196885     -0.3438588     -0.3520373      0.5888031    
   1.046423      0.5562870     -0.3897339     -0.5273687      0.3279210    
  0.7364476      0.2281301     -0.6694967     -0.6928920      0.2267269    
  0.5728690     -0.4661797e-01 -0.9873047     -0.9445597      0.7749833e-01
  0.4913340     -0.9472487e-02 -0.7717752     -0.5988028      0.5131329    
  0.9819419      0.5039911     -0.2284388     -0.9921406e-01  0.8108019    
  0.9863642      0.2659247     -0.5935600     -0.4863080      0.4610023    
  0.6510366     -0.8032203e-01 -0.9384793     -0.8566087      0.3987921e-01
  0.2344792     -0.3922949      -1.036549     -0.6577763      0.4767910    
  0.7459576      0.7712069e-01 -0.6835682     -0.4177403      0.6445109    
  0.8012593      0.5441266e-01 -0.6749324     -0.4655764      0.3710290    
  0.2836440     -0.6918687      -1.558616      -1.196828      0.5517340e-01
  0.4318080     -0.1254130     -0.6763276     -0.2016855      0.9692502    
   1.150014      0.3548275     -0.4859122     -0.3267162      0.6456186    
  0.7723845     -0.5690057e-01 -0.9560453     -0.8047983      0.2095324    
  0.3916779     -0.3639737      -1.164281     -0.8801569      0.2723436    
  0.5696496     -0.8369488e-01 -0.7854505     -0.3595718      0.9455974    
   1.293670      0.6281056     -0.1144568      0.1158537       1.056012    
   1.006231      0.6221353e-02 -0.9085701     -0.7010311      0.2420113    
  0.2579572     -0.5321763      -1.122993     -0.6203287      0.4464325    
  0.4643566     -0.3600179      -1.015822     -0.5656075      0.5434905    
  0.7040273      0.1199092e-01 -0.5943862     -0.1752220      0.8212829    
  0.7832354     -0.1223898     -0.8086311     -0.3796068      0.5968356    
  0.5854763     -0.2464923     -0.9276619     -0.5217127      0.5223203    
  0.6336783     -0.5455298e-01 -0.5264736      0.3171148e-02  0.9699693    
  0.9558147      0.1258701     -0.5912584     -0.3436866      0.4095613    
  0.2802953     -0.4927216     -0.8616173     -0.1210507      0.9707131    
  0.9181621      0.1795207e-02 -0.5784354     -0.4708818e-01  0.7888412    
  0.5798434     -0.2839822     -0.7617929     -0.2349762      0.5273372    
  0.2913738     -0.5525204      -1.000222     -0.4292250      0.3965878    
  0.2499512     -0.4711776     -0.7934107     -0.2036885      0.4608034    
  0.1300923     -0.6021150     -0.7978936     -0.5471878e-01  0.7586437    
  0.5790768     -0.7255241e-01 -0.2953877      0.3890946       1.067637    
  0.6683131     -0.1039064     -0.3192879      0.3362633      0.9020414    
  0.3748398     -0.4712058     -0.6347981      0.1562793      0.7457348    
  0.1685562     -0.6068912     -0.6953425      0.2088928e-01  0.5026650    
 -0.5871824e-01 -0.7310288     -0.7015725      0.1540185      0.8429390    
  0.5643688      0.1407966      0.3108850       1.118889       1.444384    
  0.6226884     -0.2370579     -0.3428723      0.3293144      0.7230225    
  0.1275388     -0.5444320     -0.6174744     -0.2898782e-01  0.2412001    
 -0.4009492     -0.9615542     -0.7960929      0.9235171e-01  0.5426998    
 -0.1448711     -0.7745189     -0.6189816      0.1665373      0.5013821    
 -0.1168341     -0.5653622     -0.2663350      0.5523553      0.7335805    
 -0.1501779     -0.7869791     -0.5648721      0.2079519      0.4136257    
 -0.2939579     -0.7521796     -0.4585151      0.3631266      0.5998313    
 -0.1298079     -0.6219686     -0.3339003      0.4722933      0.6055464    
 -0.2783450     -0.8217958     -0.4823700      0.3628596      0.5258793    
 -0.2557563     -0.6584988     -0.2516841      0.5912452      0.7226787    
 -0.1202372     -0.5766413     -0.1790161      0.6189681      0.6276329    
 -0.3028205     -0.7365456     -0.2456210      0.6788123      0.8105646    
 -0.3701039e-01 -0.4273398     -0.1215734e-01  0.6339778      0.3923710    
 -0.7002214      -1.057783     -0.3700837      0.6402959      0.7492757    
 -0.1120725     -0.4674003      0.3344404e-01  0.7797759      0.6168584    
 -0.3772813     -0.6935723     -0.1797202      0.5130304      0.3458149    
 -0.6028810     -0.8605148     -0.2708422      0.4415390      0.1637044    
 -0.9061940      -1.175337     -0.5204482      0.3038498      0.1566636    
 -0.7908306     -0.8945242     -0.5791412e-01  0.8582655      0.7207322    
 -0.2174640     -0.2720899      0.5740910       1.416685       1.191841    
  0.1408557     -0.6642594e-01  0.6096366       1.246579      0.8400135    
 -0.3080628     -0.5422273      0.1661560      0.8869420      0.5718865    
 -0.5190937     -0.7329344     -0.3938234e-02  0.7756766      0.4795236    
 -0.6717167     -0.9477772     -0.2443073      0.5084286      0.1862540    
 -0.9083209     -0.9994317     -0.5110864e-01  0.9002286      0.7008543    
 -0.3795441     -0.6024058      0.1432453      0.9319943      0.6426434    
 -0.4212917     -0.5242412      0.3264290       1.125512      0.7869056    
 -0.3528367     -0.5654843      0.1724734      0.9260314      0.6029214    
 -0.5427531     -0.8256096     -0.2262083      0.3553870     -0.1942030e-01
  -1.016288      -1.097995     -0.3116873      0.4945253      0.3567386    
 -0.4163936     -0.2760996      0.6216876       1.274970      0.8308795    
 -0.2190662     -0.3015779      0.4521133       1.027192      0.5208504    
 -0.5847025     -0.7239541      0.4411073e-01  0.7018448      0.2684066    
 -0.6939573     -0.6155603      0.2939654      0.9427190      0.3890838    
 -0.7687672     -0.9272622     -0.2234354      0.3254364     -0.1040035    
 -0.9056790     -0.6572724      0.3245542      0.9175126      0.3821061    
 -0.5189852     -0.3656967      0.5213981       1.014793      0.3295895    
 -0.7399725     -0.7424040      0.3439611e-01  0.5373966     -0.1764189e-01
 -0.9096695     -0.7578788      0.4025300e-01  0.3979406     -0.3101559    
  -1.203612     -0.9339051     -0.5496876e-02  0.4672807     -0.5095821e-01
 -0.6670589     -0.2151911      0.7307751       1.137380      0.5059271    
 -0.2768968     -0.5530405e-01  0.6229687      0.7883286      0.6957454e-02
 -0.7661884     -0.4192249      0.3431180      0.5126709     -0.2264930    
 -0.9171229     -0.5607825      0.1803719      0.3407747     -0.4303211    
  -1.092566     -0.6407059      0.1544532      0.3750243     -0.2034237    
 -0.5685408      0.1011887      0.9648748       1.185029      0.5341936    
  0.1661039e-01  0.4799655       1.066631      0.9584643      0.2427574e-01
 -0.6335123     -0.2206806      0.3563903      0.3915749     -0.2456532    
 -0.6033918      0.4173432e-01  0.7502162      0.7404117     -0.4221107e-01
 -0.4949272      0.6055231e-01  0.6000504      0.4123897     -0.4467978    
 -0.8787261     -0.2836821      0.2376849     -0.6267087e-01  -1.048636    
  -1.499882     -0.8078981     -0.9862393e-01 -0.1412211     -0.8569853    
  -1.043197     -0.1099235      0.7565919      0.7612604      0.2921404e-01
 -0.1957330      0.5954087       1.168772      0.8714545     -0.7045660e-01
 -0.4676536      0.1355443      0.5312726      0.9491175e-01 -0.9155284    
  -1.234713     -0.4810062      0.6858516e-01 -0.8086146e-01 -0.6545027    
 -0.5623915      0.4392363       1.046816      0.8093387      0.7744640e-01
 -0.2772547e-01  0.8038978       1.333194       1.016980      0.7322589e-01
 -0.3563941      0.1349112      0.3667036     -0.1416462      -1.063965    
  -1.180100     -0.2682396      0.2728453      0.1818832e-01 -0.6510563    
 -0.5780853      0.4316308      0.9083078      0.4279828     -0.4372654    
 -0.4585629      0.4749537      0.8488538      0.2330026     -0.7678769    
 -0.8913898     -0.3019529e-01  0.3394988     -0.1705873     -0.9877896    
 -0.9176016      0.8062034e-01  0.5021607      0.4563515e-01 -0.6300965    
 -0.4003537      0.6652288       1.065088      0.4965855     -0.3870078    
 -0.3529435      0.5187611      0.6375850     -0.1147500     -0.8967510    
 -0.6318051      0.4488053      0.7609090      0.1925828     -0.4482649    
 -0.1208435      0.8649563      0.8801220     -0.4201283e-01 -0.9891506    
 -0.8533072      0.1667387      0.3648870     -0.3749085      -1.130623    
 -0.8220648      0.3244644      0.6526762     -0.2189908e-01 -0.8090497    
 -0.5071133      0.6605228      0.9220217      0.1700967     -0.6292834    
 -0.4334631      0.4508840      0.4391704     -0.3874955      -1.064619    
 -0.5837871      0.6800866      0.9591346      0.2267848     -0.5096059    
 -0.2045841      0.8383530      0.9985460      0.2411515     -0.5506528    
 -0.3386658      0.5658002      0.4947734     -0.4777227      -1.357051    
  -1.144569     -0.1465591      0.1871702e-01 -0.6757498      -1.294180    
 -0.7394403      0.6252148       1.044814      0.5067191     -0.8469295e-01
  0.2892058       1.333862       1.355602      0.3591407     -0.6579986    
 -0.5435278      0.4691547      0.6382107     -0.1507409     -0.9756426    
 -0.7184780      0.3143313      0.4630704     -0.1870283     -0.7455311    
 -0.3193399      0.7140270      0.7362041     -0.1305567     -0.8442297    
 -0.4375537      0.6716622      0.8663897      0.1547361     -0.5755506    
 -0.3201939      0.5753204      0.5253192     -0.3133214     -0.9394040    
 -0.4636874      0.6572580      0.7666213     -0.9074167e-01 -0.7950901    
 -0.3408278      0.6971169      0.6593931     -0.2563422     -0.8928959    
 -0.3999572      0.5313201      0.3579294     -0.6059574      -1.201129    
 -0.6110978      0.4416566      0.4626363     -0.2620215     -0.7183167    
 -0.1601222      0.7709455      0.6182324     -0.3751970      -1.123411    
 -0.8083026     -0.7510558e-01 -0.2626745      -1.042287      -1.468630    
 -0.8590544      0.8515190e-01  0.6851955e-02 -0.7470626      -1.176787    
 -0.5862908      0.3348942      0.3184739     -0.2384525     -0.2845913    
  0.8113973       2.136897       2.270613       1.600257       1.192892    
   1.643207       2.068016       1.184227     -0.4450583      -1.571324    
  -1.326033     -0.4918349     -0.6568647      -1.545367      -2.030640    
