  0.1017683e-01  -24.38115       30.56285      -12345.00      -12345.00    
   9.993649       50.00895       17.68428      -12345.00       2.000000    
  -12345.00      -12345.00      -12345.00      -12345.00      -12345.00    
  -12345.00      -12345.00      -12345.00      -12345.00      -12345.00    
  -12345.00      -12345.00      -12345.00      -12345.00      -12345.00    
  -12345.00      -12345.00      -12345.00      -12345.00      -12345.00    
  -12345.00       37.62634      -121.8357       245.0000      -12345.00    
   37.51733      -121.6850      -12345.00       5.950000      -12345.00    
   1.600000      0.1100000       88.00000      0.4500000      0.9200000    
   15.00000      -12345.00      -12345.00      -12345.00      -12345.00    
   17.98634       312.3170       132.2219      0.1617766      -12345.00    
  -12345.00      0.6799586e-04   90.00000       90.00000      -12345.00    
  -12345.00      -12345.00      -12345.00      -12345.00      -12345.00    
  -12345.00      -12345.00      -12345.00      -12345.00      -12345.00    
      1987       173        11         9        56
       363         6    -12345    -12345      3933
    -12345    -12345    -12345    -12345    -12345
         1    -12345    -12345    -12345    -12345
    -12345    -12345    -12345    -12345    -12345
    -12345    -12345    -12345    -12345    -12345
    -12345    -12345    -12345    -12345    -12345
         1         1         1         1         1
CVLE    870622111018    
-12345  origin  -12345  
-12345  -12345  -12345  
-12345  -12345  -12345  
-12345  -12345  -12345  
-12345  -12345  satellit
satellit-12345  -12345  
-12345  -12345  -12345  
 -0.4157625     -0.7712049     -0.8331727e-01  0.6017174      0.5516253    
 -0.1992236     -0.5745143      0.4004889e-01  0.5954889      0.3942613    
 -0.4949348     -0.9212928     -0.2713537      0.3691526      0.3075201    
 -0.4198077     -0.6934456      0.1073222      0.8245599      0.6901743    
 -0.1438100     -0.4448270      0.3253583      0.9251443      0.6568566    
 -0.2186433     -0.5147602      0.1836329      0.7066106      0.4287142    
 -0.5106516     -0.9288021     -0.3359630      0.9638453e-01 -0.1777365    
 -0.9740096      -1.216128     -0.5179514     -0.7630713e-01 -0.3852103    
  -1.130083      -1.140905     -0.1295379      0.5712820      0.4464003    
 -0.1759597     -0.1171071      0.8752182       1.426018       1.049139    
  0.1743230      0.3985030e-01  0.8395724       1.217786      0.7473922    
 -0.1979022     -0.3948296      0.3372844      0.5530201     -0.6806663e-01
 -0.9639828     -0.9507127      0.4142092e-01  0.4986980      0.3334023e-01
 -0.7438583     -0.6012744      0.3816012      0.6551449      0.2586456e-01
 -0.8190678     -0.7264996      0.2638958      0.6440209      0.1468139    
 -0.5351679     -0.2433181      0.8307905       1.101082      0.4513042    
 -0.3564856     -0.2126175      0.7195502      0.8429388      0.6989464e-01
 -0.7680928     -0.6059476      0.3511980      0.4663984     -0.3476671    
  -1.179733     -0.9213299      0.1910582      0.4525307     -0.2916447    
  -1.120673     -0.8397388      0.3227422      0.6309198     -0.2315125e-01
 -0.7110292     -0.3480449      0.7634180      0.9654714      0.2250502    
 -0.6124347     -0.4693245      0.4999400      0.6699093     -0.3506388e-01
 -0.7310767     -0.3378961      0.8777096       1.177296      0.4465953    
 -0.3960914     -0.2407089      0.6724737      0.7081859     -0.1821743    
  -1.088848     -0.9055855      0.5009190e-01  0.6895026e-01 -0.8131541    
  -1.598623      -1.166672      0.1061464      0.3757097     -0.3409924    
  -1.029109     -0.6324840      0.5200939      0.7065641     -0.5274530e-01
 -0.7795304     -0.3770064      0.8272290       1.033667      0.2615685    
 -0.4355569     -0.3889087e-02   1.145249       1.242863      0.3362263    
 -0.4945965     -0.2087463      0.7695174      0.7762848     -0.1111977    
 -0.8961960     -0.6186356      0.2955730      0.2600052     -0.6464354    
  -1.422565      -1.061693     -0.1765783e-01  0.9811015e-01 -0.6194513    
  -1.151648     -0.5517036      0.5869132      0.6647651     -0.5978434e-01
 -0.5241508      0.1045007       1.193550       1.178292      0.3090188    
 -0.2846977      0.2564074       1.247498       1.149158      0.2370234    
 -0.3722608      0.1293138       1.044772      0.9008097     -0.3770978e-01
 -0.6634127     -0.1761247      0.6423025      0.3510167     -0.6734547    
  -1.286772     -0.7253693      0.1963301      0.4715922e-01 -0.7838869    
  -1.176808     -0.4697435      0.4975972      0.3832133     -0.4147055    
 -0.8077114     -0.1678204      0.6283810      0.3553824     -0.4724765    
 -0.8439083     -0.2068041      0.6036496      0.4038571     -0.3270410    
 -0.6127027      0.6315730e-01  0.7883527      0.4553996     -0.2646388    
 -0.3968602      0.3801411      0.9964846      0.4165796     -0.5027059    
 -0.7563360     -0.2934931e-01  0.6441694      0.1900053     -0.5706453    
 -0.6275439      0.2621405      0.9909344      0.5645794     -0.1962798    
 -0.4017982      0.1834180      0.5579378     -0.8869303e-01 -0.8258054    
 -0.8417261     -0.1229465e-01  0.5920931      0.9261537e-01 -0.6110264    
 -0.6628073      0.1034374      0.6187674      0.1223764     -0.4055054    
 -0.2602175      0.5725375       1.024335      0.4085823     -0.2624173    
 -0.2536911      0.4788549      0.8580878      0.2288760     -0.3630884    
 -0.2643927      0.4881694      0.8528306      0.2090951     -0.4018833    
 -0.3312305      0.3405182      0.5271055     -0.2809273     -0.8904481    
 -0.6518931      0.2428077      0.5985438     -0.8602996e-01 -0.5716997    
 -0.2812878      0.4788226      0.5504835     -0.4171281      -1.112436    
 -0.8829491      0.4566075e-01  0.4072368     -0.2918832     -0.8043454    
 -0.5049485      0.3889070      0.6547503     -0.8175808e-01 -0.5322950    
 -0.1864576      0.6612192      0.8254490      0.5944513e-02 -0.5137155    
 -0.3063900      0.3662573      0.4300230     -0.3798815     -0.7796060    
 -0.3770028      0.4555707      0.5328329     -0.3676027     -0.8044194    
 -0.3445922      0.5255910      0.6239783     -0.1517341     -0.3952931    
  0.1740561       1.031842       1.031362      0.1017608     -0.2437935    
  0.2646602      0.9743950      0.7651073     -0.2910133     -0.6133143    
  0.2280366e-01  0.8837952      0.8092971     -0.1684796     -0.5101830    
  0.4338720e-01  0.7523669      0.4486000     -0.7268428      -1.201892    
 -0.7592320     -0.5944773e-01 -0.2249744      -1.180024      -1.334741    
 -0.4891909      0.5241042      0.4861758     -0.4340563     -0.5978557    
  0.1609595       1.049644      0.8461239     -0.2869727     -0.6413659    
 -0.5994853e-01  0.6951175      0.5518032     -0.3285586     -0.3514250    
  0.5283290       1.434591       1.254203      0.1786836     -0.9514803e-01
  0.5375116       1.180754      0.7404612     -0.4931967     -0.7988123    
 -0.1590453      0.5250754      0.1973251     -0.8882520      -1.043216    
 -0.2813626      0.4264787      0.3127568e-01  -1.128706      -1.280194    
 -0.3887184      0.5483377      0.4186536     -0.5026207     -0.5468082    
  0.2497298       1.007442      0.7272850     -0.3606084     -0.5558915    
  0.2148091       1.027415      0.7617171     -0.3566102     -0.5935308    
  0.1185791      0.8497238      0.5129558     -0.6317822     -0.8925732    
 -0.2034218      0.5446125      0.2665647     -0.7342341     -0.7980698    
  0.3196802e-01  0.8325921      0.5621897     -0.4347484     -0.5371541    
  0.1710427      0.8012797      0.4234739     -0.5833578     -0.6786532    
  0.5255796e-01  0.7215677      0.3989951     -0.4171578     -0.1821360    
  0.7900581       1.377728      0.7615597     -0.3399636     -0.3982683    
  0.3343529      0.8783545      0.3665287     -0.6429338     -0.6626204    
  0.1319158      0.7611263      0.3199778     -0.5925275     -0.4866313    
  0.3080052      0.7328343      0.1125535     -0.8410708     -0.7570294    
  0.7456686e-01  0.5587118     -0.5405725e-01 -0.9303851     -0.6931307    
  0.2580423      0.7960160      0.2154788     -0.6467618     -0.5292848    
  0.2053804      0.6213828      0.1080096e-01 -0.8679490     -0.7130496    
  0.7703916e-01  0.4533242     -0.2105771      -1.035024     -0.8290271    
 -0.6198865e-01  0.3020013     -0.3168949      -1.029869     -0.7133604    
  0.5655919e-01  0.3632631     -0.2489565     -0.8837615     -0.4481464    
  0.4514190      0.8277239      0.2298994     -0.3656720      0.9479790e-01
  0.9238010       1.127140      0.3211909     -0.3348724      0.2020604    
   1.040394       1.215217      0.4885106     -0.6839343e-01  0.4602152    
   1.169599       1.078142      0.4540213e-01 -0.7206842     -0.3598724    
  0.2497957      0.2760489     -0.4989319      -1.016583     -0.4853669    
  0.1869512      0.2151956     -0.5330807     -0.9915744     -0.4386049    
  0.2257444      0.2623780     -0.4541198     -0.8501619     -0.2749276    
  0.3384017      0.3330335     -0.3736724     -0.7038407     -0.8000766e-01
  0.4510861      0.2724033     -0.5436635     -0.8410593     -0.7814370e-01
  0.5868546      0.4252989     -0.4873561     -0.9165459     -0.2822739    
  0.2567920      0.1174895e-01 -0.8214845     -0.9611734      0.2954008e-01
  0.8503814      0.7463480     -0.1582175     -0.5430945      0.1390097    
  0.6951090      0.4778679     -0.3553876     -0.5641701      0.2436549    
  0.8366333      0.6443191     -0.1391469     -0.2759174      0.5837702    
   1.125190      0.8086320     -0.1045772     -0.3886510      0.3328061    
  0.7723901      0.3803678     -0.5506407     -0.7604789      0.8706269e-01
  0.6279032      0.3146447     -0.4791559     -0.5285430      0.3500357    
  0.7538189      0.2489946     -0.6789455     -0.7700711      0.1184860    
  0.5061987     -0.7878521e-01  -1.071576      -1.091865     -0.6792994e-01
  0.4120925      0.3916137e-02 -0.6762959     -0.4298259      0.7091599    
   1.158230      0.6115970     -0.2423831     -0.1754398      0.7665434    
   1.027122      0.3656046     -0.5017005     -0.3546405      0.7166123    
   1.034713      0.3152634     -0.6538653     -0.6600029      0.1988605    
  0.3553583     -0.3615837      -1.201240      -1.060906     -0.1065326    
  0.6654632e-01 -0.6233070      -1.334420     -0.9875380      0.1516906    
  0.3874728     -0.3482852      -1.125576     -0.8176533      0.3177282    
  0.5926006     -0.5319929e-01 -0.7208458     -0.3157139      0.9094476    
   1.190868      0.4666544     -0.2528868      0.7973766e-01   1.122928    
   1.176898      0.2418735     -0.6485282     -0.3824939      0.6489576    
  0.6997955     -0.1952933      -1.082817     -0.8906570      0.1077018    
  0.2084669     -0.6249412      -1.468649      -1.200177     -0.4026160e-01
  0.2455457     -0.4399582      -1.116833     -0.6461885      0.6491683    
  0.9761893      0.2835892     -0.4854275     -0.1944602      0.9050027    
   1.088873      0.3355226     -0.4594557     -0.2068143      0.8728399    
   1.047526      0.2488781     -0.5963791     -0.4459746      0.4320929    
  0.4143485     -0.4568974      -1.178206     -0.7802942      0.3225326    
  0.5183440     -0.1779326     -0.7914776     -0.3058249      0.7529675    
  0.6956545     -0.3110577      -1.142509     -0.7867486      0.2289839    
  0.2573558     -0.5664885      -1.145543     -0.5321724      0.6429832    
  0.7436884     -0.8741402e-01 -0.7887939     -0.3743445      0.5998350    
  0.5712962     -0.2419103     -0.7775400     -0.2019306      0.8546301    
  0.8707573      0.2526881e-01 -0.5441081      0.7053784e-01   1.117569    
   1.069652      0.2149827     -0.3559335      0.1384907       1.013079    
  0.9232114      0.1860683     -0.2318252      0.2887766       1.014870    
  0.7066509     -0.2544797     -0.8761109     -0.4323242      0.3775810    
  0.1971559     -0.5874990     -0.8976094     -0.1910986      0.6480194    
  0.4256387     -0.3516308     -0.6805487     -0.5695729e-01  0.6733537    
  0.4317808     -0.2754921     -0.5615010      0.7834931e-01  0.7584416    
  0.3584124     -0.4638564     -0.7469053     -0.1044424      0.5388383    
  0.1803321     -0.4801697     -0.5537010      0.2745605       1.007108    
  0.6432930     -0.4073196e-01 -0.1604864      0.5135353      0.9729863    
  0.3597322     -0.4461351     -0.6483737     -0.6390674e-01  0.3721457    
 -0.1604033     -0.8171322     -0.7945645      0.2239112e-01  0.5138450    
 -0.5467876e-01 -0.7163048     -0.7801542     -0.1282128      0.2777200    
 -0.2540780     -0.7888797     -0.6652635      0.1284633      0.5619516    
 -0.1090261e-01 -0.5732015     -0.4213785      0.3809429      0.7266076    
  0.4644499e-01 -0.5668438     -0.4506238      0.2908272      0.5485281    
 -0.2094517     -0.8129669     -0.5974409      0.2592834      0.5756390    
 -0.1754763     -0.7418439     -0.4155631      0.5523934      0.9457175    
  0.3573574     -0.3637428e-01  0.2767146       1.117458       1.375163    
  0.5888839     -0.4373836e-01  0.8735466e-01  0.7844316      0.8806526    
 -0.6153120e-01 -0.7795424     -0.6332490      0.1366114      0.2853885    
 -0.5429626      -1.000458     -0.6308637      0.1806414      0.3157327    
 -0.4174089     -0.7397377     -0.3029273      0.5542022      0.7185794    
 -0.3756990e-01 -0.3564156      0.1487685      0.9811302      0.9048755    
 -0.1623186     -0.6410133     -0.1544974      0.6768562      0.6130481    
 -0.3916115     -0.7971367     -0.2650235      0.5855026      0.5547613    
 -0.3619304     -0.6606219     -0.7780270e-01  0.7689744      0.7189733    
 -0.2338791     -0.5097017      0.1531457      0.9397022      0.6447880    
 -0.5513633     -0.9997936     -0.4845449      0.2540432      0.5107082e-01
 -0.9846714      -1.271630     -0.6592743      0.1641679      0.1256534    
 -0.7289778     -0.8811274     -0.1668983      0.6580379      0.4881745    
 -0.4719863     -0.5855039      0.1963763       1.002084      0.7636434    
 -0.2794452     -0.4567708      0.3134038       1.114549      0.8333438    
 -0.2589258     -0.4605050      0.2636928      0.9500721      0.5155001    
 -0.6993765     -0.9213970     -0.1184487      0.7077508      0.4388842    
 -0.6571773     -0.8414368     -0.7854915e-01  0.6702917      0.3263703    
 -0.8418245      -1.054914     -0.2354769      0.5824323      0.2481948    
 -0.9247926      -1.151377     -0.3481632      0.5355489      0.3576349    
 -0.6363993     -0.6901370      0.2888592       1.319109       1.183657    
  0.1259716     -0.6620427e-01  0.6475709       1.306884      0.8689213    
 -0.3256880     -0.5833219      0.8499597e-01  0.7877139      0.4767856    
 -0.5867856     -0.7479568     -0.1664231e-01  0.6775936      0.3261265    
 -0.6923617     -0.7595627      0.4012431e-01  0.7805906      0.4951701    
 -0.3955674     -0.3093584      0.5541272       1.188897      0.7387063    
 -0.2684687     -0.2606925      0.5914190       1.233644      0.7225150    
 -0.3459800     -0.3710279      0.3889531      0.8696541      0.2346515    
 -0.8890328     -0.9443817     -0.1522690      0.3859707     -0.2001665    
  -1.198134      -1.040298     -0.9057919e-01  0.4451689     -0.1371480    
  -1.037112     -0.8328236      0.1211090      0.7047643      0.1822990    
 -0.6785513     -0.4904217      0.3940270      0.9326140      0.4272934    
 -0.3945902     -0.1867336      0.6946765       1.162913      0.5510851    
 -0.3448636     -0.2667407      0.4182230      0.7680851      0.1459439    
 -0.6967386     -0.5039598      0.2792689      0.5947698     -0.1166113    
 -0.9475769     -0.7182901      0.1249722e-01  0.3072571     -0.2706811    
 -0.8831682     -0.4563284      0.3836175      0.6287337     -0.1152938    
 -0.8541274     -0.4752103      0.3177504      0.4786350     -0.3079015    
  -1.006245     -0.6168386      0.2004959      0.5228360     -0.7390399e-01
 -0.6232879     -0.1184055      0.6682845      0.8136664      0.4523730e-01
 -0.5985879     -0.1947168      0.4395311      0.4922957     -0.2738468    
 -0.8996621     -0.5002882      0.1088338      0.1186898     -0.5865639    
 -0.9615629     -0.3045199      0.4648628      0.6264836      0.3404094e-01
 -0.3398224      0.2465371      0.8698419      0.7632329     -0.1138093    
 -0.6054044      0.2131972e-01  0.6818606      0.5666839     -0.2506734    
 -0.6156268      0.4855311e-01  0.6562889      0.5126498     -0.3504190    
 -0.8200246     -0.2050563      0.4469167      0.3643772     -0.3784404    
 -0.6245089      0.1676033      0.8772407      0.7733401     -0.1113195    
 -0.5478103      0.1142284      0.6679304      0.3741456     -0.5853697    
 -0.9854182     -0.3318141      0.2094765      0.2053374e-01 -0.7480528    
 -0.9381441     -0.1606999      0.3896403      0.2200238     -0.4336993    
 -0.4447256      0.5053100       1.109540      0.7967201     -0.8686468e-01
 -0.2691000      0.5172983      0.9529400      0.6106988     -0.2115404    
 -0.3658181      0.4476884      0.9033477      0.5287668     -0.3066574    
 -0.4219019      0.3605915      0.6701849      0.1443782     -0.7365896    
 -0.7946150      0.7052545e-01  0.4130450     -0.1259878     -0.9841264    
 -0.9775216     -0.3745470e-01  0.3990107     -0.5666754e-01 -0.8718007    
 -0.8542134      0.3279682e-01  0.3575194     -0.1471220     -0.9039351    
 -0.7520969      0.3153971      0.7592000      0.2805014     -0.5005066    
 -0.4613241      0.4023511      0.6629420      0.1334256     -0.5687478    
 -0.3989763      0.5704811      0.8347116      0.2049650     -0.5882797    
 -0.4267308      0.5359827      0.7137327      0.3111747e-01 -0.6668214    
 -0.3394936      0.7443280      0.9212881      0.1137920     -0.7211192    
 -0.4706673      0.5524059      0.6808874     -0.1263672     -0.9522110    
 -0.6833027      0.4086062      0.6208565     -0.1221973     -0.9380275    
 -0.7490090      0.2139371      0.2883017     -0.5215109      -1.210811    
 -0.7309610      0.5450297      0.8521242      0.1283069     -0.6544133    
 -0.3689825      0.7246890      0.8948733      0.7375828e-01 -0.8110479    
 -0.6767408      0.2506480      0.3135547     -0.4783577      -1.193068    
 -0.8164659      0.3990818      0.7712170      0.2061608     -0.3928121    
  0.3276449e-01   1.152345       1.277081      0.4570884     -0.3804902    
 -0.1933260      0.7894432      0.8658187     -0.4143344e-01 -0.9746442    
 -0.7804801      0.2708508      0.4009529     -0.4241648      -1.200930    
 -0.8444967      0.2683745      0.4470163     -0.2158828     -0.7840116    
 -0.2790017      0.9304329       1.158086      0.4187785     -0.3563483    
 -0.1603566      0.7018511      0.6849827     -0.1305513     -0.8209376    
 -0.4592858      0.4947610      0.4586458     -0.4081638      -1.102415    
 -0.6155809      0.5997669      0.8147612      0.8108126e-01 -0.5529641    
 -0.1158482      0.8981962      0.8701667     -0.7976672e-01 -0.9129195    
 -0.6663228      0.1982254      0.1366541     -0.6896715      -1.233638    
 -0.6354010      0.5036063      0.6547986     -0.7576854e-02 -0.4660309    
  0.1050211       1.103383       1.072508      0.1767569     -0.5399724    
 -0.1486163      0.6972094      0.5304216     -0.2970004     -0.7430278    
 -0.7029887e-01  0.9945924      0.9491915      0.1068232     -0.4161419    
  0.1497477       1.029521      0.7481961     -0.3545984      -1.174967    
 -0.9545896     -0.3987032     -0.8679497      -1.977613      -2.646219    
  -2.205793      -1.365531      -1.287115      -1.416473     -0.7274770    
   1.123086       3.015254       3.511235       3.013422       2.672585    
