  0.1017683e-01  -4.505515       4.548124      -12345.00      -12345.00    
   9.993649       50.00895       17.68428      -12345.00       2.000000    
  -12345.00      -12345.00      -12345.00      -12345.00      -12345.00    
  -12345.00      -12345.00      -12345.00      -12345.00      -12345.00    
  -12345.00      -12345.00      -12345.00      -12345.00      -12345.00    
  -12345.00      -12345.00      -12345.00      -12345.00      -12345.00    
  -12345.00       37.64433      -121.8275       200.0000      -12345.00    
   37.51733      -121.6850      -12345.00       5.950000      -12345.00    
   1.600000      0.1100000       88.00000      0.4500000      0.9200000    
   15.00000      -12345.00      -12345.00      -12345.00      -12345.00    
   18.89678       318.2823       138.1909      0.1699675      -12345.00    
  -12345.00      0.3180570e-03   90.00000       90.00000      -12345.00    
  -12345.00      -12345.00      -12345.00      -12345.00      -12345.00    
  -12345.00      -12345.00      -12345.00      -12345.00      -12345.00    
      1987       173        11         9        56
       363         6    -12345    -12345      3933
    -12345    -12345    -12345    -12345    -12345
         1    -12345    -12345    -12345    -12345
    -12345    -12345    -12345    -12345    -12345
    -12345    -12345    -12345    -12345    -12345
    -12345    -12345    -12345    -12345    -12345
         1         1         1         1         1
CVYE    870622111018    
-12345  origin  -12345  
-12345  -12345  -12345  
-12345  -12345  -12345  
-12345  -12345  -12345  
-12345  -12345  satellit
satellit-12345  -12345  
-12345  -12345  -12345  
 -0.5983942     -0.7552925     -0.7997701e-01  0.4237276      0.2585289    
 -0.3825001     -0.5329382      0.1579354      0.6880173      0.5216802    
 -0.1880765     -0.4390390      0.1537976      0.5830414      0.3077391    
 -0.4849253     -0.7178715     -0.4547876e-01  0.4487586      0.3051896    
 -0.2449658     -0.2351721      0.5293704      0.8875729      0.4518546    
 -0.4011792     -0.6388802     -0.3772937e-01  0.3125959     -0.1602018e-01
 -0.7218273     -0.7657269      0.6225352e-02  0.4348914      0.1774535    
 -0.4189331     -0.3874728      0.3906310      0.7572097      0.3673244    
 -0.3584457     -0.3414774      0.4548712      0.7515219      0.3157758    
 -0.3582425     -0.3121850      0.4482616      0.6786631      0.1411921    
 -0.6363332     -0.6611195      0.5829658e-01  0.2767971     -0.2025925    
 -0.8079973     -0.6163455      0.2565609      0.5744815      0.1865491    
 -0.3691527     -0.1667296      0.6780858      0.8479251      0.2633006    
 -0.3901260     -0.2332548      0.5333208      0.6246177     -0.5819495e-02
 -0.7160368     -0.6304477      0.1264197      0.2702658     -0.2808073    
 -0.8397596     -0.5224473      0.4005215      0.5361738     -0.1147696    
 -0.7856720     -0.5921798      0.2340280      0.3397597     -0.2716013    
 -0.8284880     -0.4786276      0.4760562      0.6110605     -0.6620893e-01
 -0.7048814     -0.4138213      0.5046117      0.6256348     -0.4113204e-02
 -0.5325702     -0.1840388      0.6610562      0.6138259     -0.2065917    
 -0.8760272     -0.5447747      0.4455587      0.6713632      0.6377381e-01
 -0.6033010     -0.3614297      0.5242541      0.6270856     -0.7978117e-02
 -0.5695051     -0.2053666      0.7423795      0.8466409      0.1497582    
 -0.5417016     -0.3433410      0.4734110      0.5142062     -0.1825137    
 -0.8505149     -0.6437722      0.2074041      0.3124582     -0.3629809    
  -1.007841     -0.7304055      0.1687621      0.3463903     -0.1447459    
 -0.5611544     -0.1572042      0.6948147      0.7306593      0.7787951e-01
 -0.5257829     -0.3027616      0.4065549      0.3320430     -0.3634863    
 -0.8646893     -0.4291163      0.4538488      0.4432805     -0.2536104    
 -0.7788806     -0.4268256      0.3532541      0.3385183     -0.2609163    
 -0.6209061     -0.6816466e-01  0.8763824      0.9159325      0.2212884    
 -0.3107004      0.6225713e-01  0.8082887      0.6578831     -0.1511891    
 -0.6916442     -0.3045664      0.4361625      0.3770849     -0.2419720    
 -0.6060355     -0.8996457e-01  0.7364542      0.7220297      0.1066853    
 -0.2968794      0.9257293e-01  0.6582255      0.3159628     -0.5497999    
  -1.056898     -0.6663439      0.7501937e-02 -0.7226888e-01 -0.5856273    
 -0.7504554     -0.1278525      0.6033597      0.4927045     -0.5779920e-01
 -0.2651133      0.3080966      0.9399181      0.6730222     -0.2167479e-01
 -0.3320098      0.1307348      0.5961835      0.1758286     -0.5495869    
 -0.7709866     -0.2155759      0.3107975      0.2680836e-02 -0.5522183    
 -0.6143167      0.5867429e-01  0.6680641      0.4136330     -0.1138729    
 -0.1742077      0.4338948      0.8282131      0.3163115     -0.3264471    
 -0.4071262      0.1918787      0.5843551      0.7511257e-01 -0.5620519    
 -0.6346216     -0.2429948e-01  0.3844843     -0.6140564e-01 -0.5834793    
 -0.5612800      0.9032049e-01  0.4915278      0.3155244e-01 -0.4693817    
 -0.4272001      0.2063054      0.5914564      0.1570968     -0.2365380    
 -0.3502606e-02  0.7108999      0.9085814      0.1659542     -0.5130100    
 -0.5158097      0.1194367      0.4288539     -0.8806609e-01 -0.4998421    
 -0.2644931      0.5087054      0.8207939      0.2101324     -0.3174158    
 -0.1864693      0.4481030      0.5799142     -0.1430614     -0.6421074    
 -0.4213916      0.2481517      0.3616361     -0.3532242     -0.8148605    
 -0.5622566      0.1779037      0.4071912     -0.1782061     -0.5281798    
 -0.2535155      0.4226238      0.5806236     -0.4496050e-01 -0.4050145    
 -0.1113208      0.5335866      0.5682805     -0.1600323     -0.5675196    
 -0.3080246      0.3532517      0.4549086     -0.1932001     -0.4654229    
 -0.5093676e-01  0.6712576      0.7405264      0.4259841e-01 -0.2618334    
  0.1331837      0.8039152      0.7435271     -0.9300900e-01 -0.4759486    
 -0.1852761      0.3089874      0.1105182     -0.7514055      -1.046035    
 -0.5471191      0.2473112      0.3379858     -0.3487046     -0.6097922    
 -0.1730440      0.5056226      0.4662971     -0.2875191     -0.5534734    
 -0.1373832      0.4654145      0.3327281     -0.4551893     -0.6566518    
 -0.1530232      0.4857367      0.3794551     -0.3498785     -0.4968094    
  0.2051146e-01  0.6330032      0.4597946     -0.3400967     -0.4854241    
  0.1044471      0.7821834      0.6273363     -0.1638620     -0.2738972    
  0.2962704      0.8548638      0.5517447     -0.3474509     -0.4938625    
  0.6675043e-01  0.5993372      0.2503922     -0.6778589     -0.7590747    
 -0.3656739e-01  0.6817812      0.5097737     -0.3228026     -0.4648297    
  0.7804009e-01  0.5710936      0.1998774     -0.7330590     -0.8396717    
 -0.1625341      0.5303753      0.3937269     -0.3391310     -0.3509154    
  0.2803686      0.8247070      0.5098934     -0.3987147     -0.5523013    
  0.4280399e-01  0.6136751      0.2691142     -0.6878852     -0.7917583    
 -0.8562615e-01  0.5838935      0.3698412     -0.4189826     -0.4285077    
  0.2231686      0.7666503      0.4293836     -0.4845907     -0.5870703    
  0.7811414e-01  0.7402684      0.5498878     -0.2652574     -0.3555362    
  0.2723361      0.8435524      0.5417521     -0.2946261     -0.3602473    
  0.2557227      0.7737184      0.4110729     -0.4207195     -0.4197753    
  0.2446917      0.7521760      0.3563446     -0.4561293     -0.3852901    
  0.3204885      0.8000159      0.3429524     -0.5289131     -0.5196109    
  0.1187849      0.5218725      0.5522830e-01 -0.7592566     -0.7796766    
 -0.2168693      0.1846586     -0.2042327     -0.8140715     -0.5300754    
  0.2944291      0.8096703      0.3935914     -0.3436742     -0.2513719    
  0.3889440      0.7589674      0.2684561     -0.4782044     -0.4125477    
  0.1802451      0.5177518      0.7654274e-02 -0.7463928     -0.6752353    
 -0.1010995      0.1572508     -0.3719828      -1.001006     -0.7679398    
 -0.2200714e-01  0.4308455      0.5333418e-01 -0.4559191     -0.1267613    
  0.5793343      0.8169732      0.1992189     -0.4663973     -0.2565974    
  0.3602513      0.6114431      0.1073641     -0.4226109     -0.1325100    
  0.4698947      0.6092477     -0.3074834e-01 -0.6086723     -0.3209287    
  0.2448805      0.3513351     -0.2396397     -0.6840061     -0.2905252    
  0.2798299      0.3317147     -0.3322031     -0.8274199     -0.4213747    
  0.2289909      0.3950962     -0.1919165     -0.6416995     -0.2171055    
  0.3497398      0.3697174     -0.2707618     -0.6417205     -0.1201915    
  0.4870793      0.5323880     -0.1816014e-01 -0.2719389      0.2384748    
  0.7033670      0.5854344     -0.1186046     -0.4855561     -0.1617460e-01
  0.4748473      0.4085130     -0.2586159     -0.5645985     -0.9531672e-02
  0.5150000      0.4304382     -0.2290296     -0.5018185      0.3359558e-01
  0.4843127      0.3475850     -0.3052194     -0.5129901      0.1076275    
  0.5868171      0.3826509     -0.3574554     -0.5968975      0.6918770e-02
  0.4440907      0.2109546     -0.5059072     -0.7073084     -0.8710918e-01
  0.3867980      0.2535885     -0.3341989     -0.4110340      0.2555040    
  0.6209123      0.2999267     -0.4427868     -0.5683252      0.1533095    
  0.5995672      0.3473089     -0.3376210     -0.4547708      0.1859497    
  0.4981922      0.1330149     -0.5686633     -0.6068357      0.1326910    
  0.5279506      0.2335082     -0.4065890     -0.3898409      0.3603771    
  0.7218705      0.4254634     -0.1871779     -0.1554134      0.5934832    
  0.8536398      0.3083616     -0.5557383     -0.6717951     -0.1393003e-01
  0.2077940     -0.2453265     -0.8815749     -0.7021856      0.2142355    
  0.5917435      0.2402762     -0.3418146     -0.2306605      0.5329648    
  0.7463385      0.2125612     -0.4995141     -0.3943519      0.4053225    
  0.5772104     -0.1359766e-03 -0.6816909     -0.5501086      0.2728332    
  0.5056220      0.2974311e-01 -0.5449139     -0.3753649      0.3794619    
  0.4764038     -0.1273334     -0.7458485     -0.4969665      0.3853354    
  0.5451521     -0.5676773e-01 -0.6933056     -0.4809801      0.3469318    
  0.4347984     -0.2173347     -0.8421229     -0.5922997      0.2638260    
  0.3751068     -0.2536482     -0.8500623     -0.5615740      0.3098444    
  0.3787793     -0.3071833     -0.9332013     -0.6034579      0.4251144    
  0.6970385      0.1902292     -0.3128535     -0.3053303e-01  0.7775290    
  0.8038962      0.9403913e-01 -0.5408617     -0.2493601      0.6648875    
  0.7749682      0.8533446e-01 -0.5957842     -0.3819763      0.4576892    
  0.5315464     -0.1190079     -0.7246025     -0.4360377      0.4801697    
  0.5959868     -0.8434583e-01 -0.7519327     -0.5188471      0.3481758    
  0.4605815     -0.1756040     -0.7873424     -0.4827209      0.4367835    
  0.5473335     -0.1034107     -0.7014201     -0.4311512      0.3674059    
  0.3867406     -0.2474547     -0.7578481     -0.4027287      0.4434783    
  0.4771585     -0.1731049     -0.6889029     -0.3267695      0.5013623    
  0.4927278     -0.2239831     -0.7524074     -0.3090241      0.5796469    
  0.5741598     -0.1173748     -0.5974998     -0.1600185      0.6678460    
  0.6225784     -0.9015699e-01 -0.6143972     -0.2468193      0.5212420    
  0.4627521     -0.2177554     -0.6638238     -0.2485451      0.4991472    
  0.4308700     -0.2090806     -0.5625389     -0.7828955e-01  0.5989155    
  0.3973277     -0.3246225     -0.7110598     -0.2115638      0.5299479    
  0.4441372     -0.1460188     -0.4199912      0.1361046      0.8393915    
  0.6565164     -0.1692576e-01 -0.3668690      0.7447273e-01  0.6555105    
  0.4135072     -0.2224407     -0.4801463      0.2911438e-01  0.6139160    
  0.3490116     -0.2993553     -0.5605496     -0.8607422e-01  0.3921593    
  0.2510569e-01 -0.6045026     -0.7232736     -0.9371416e-01  0.4814444    
  0.1988116     -0.3530758     -0.4351366      0.1930611      0.6904696    
  0.2909670     -0.3029638     -0.3548195      0.2960670      0.7675704    
  0.3686568     -0.1621226     -0.2080974      0.3481899      0.6963412    
  0.1770444     -0.4782464     -0.6199771     -0.1350077      0.1250902    
 -0.3423286     -0.6829835     -0.4305168      0.3475203      0.7335960    
  0.1928050     -0.3419437     -0.2912793      0.3101715      0.6168739    
  0.1288222     -0.3398164     -0.2494612      0.3641350      0.5751774    
 -0.4219165e-01 -0.5217408     -0.3646933      0.3155591      0.5944989    
  0.8590627e-02 -0.4752250     -0.2800037      0.4420680      0.6881698    
  0.7120350e-01 -0.4050388     -0.2438720      0.3995117      0.5574345    
 -0.1220563     -0.5597244     -0.2589561      0.5100949      0.7037791    
  0.9482132e-02 -0.4950858     -0.3556651      0.1914647      0.2141570    
 -0.4862498     -0.8694015     -0.5920204      0.7904623e-01  0.1818713    
 -0.5123519     -0.9163410     -0.6011117      0.1751771      0.3822692    
 -0.1990255     -0.4725398     -0.1190645      0.5680279      0.6753559    
  0.5942269e-01 -0.1863348      0.2154387      0.8894362      0.9160096    
  0.2209989     -0.7307356e-01  0.2617192      0.7997596      0.6087073    
 -0.3211118     -0.7232478     -0.3384780      0.3273544      0.2659374    
 -0.5670097     -0.8995503     -0.4664083      0.2329990      0.2362668    
 -0.4539338     -0.5954260     -0.3064088e-01  0.6307448      0.4675230    
 -0.4023892     -0.7012725     -0.2358036      0.4217267      0.3119228    
 -0.4834048     -0.6823217     -0.1256185      0.5800413      0.4787340    
 -0.3065614     -0.4534632      0.1201258      0.7286998      0.4909130    
 -0.3579322     -0.4993322      0.1073387      0.7750568      0.5823357    
 -0.2761518     -0.4456342      0.1500464      0.8202976      0.6401408    
 -0.1992480     -0.3467250      0.1915534      0.6798546      0.3021907    
 -0.6801465     -0.8824873     -0.2735416      0.3749184      0.2147426    
 -0.4832257     -0.4406373      0.2266063      0.7898315      0.4780759    
 -0.4422172     -0.5820967      0.5374560e-01  0.6554939      0.3732133    
 -0.5268016     -0.6946574     -0.1354831      0.4184053      0.1568002    
 -0.6510437     -0.6890736      0.5049576e-02  0.7057537      0.5699783    
 -0.1675877     -0.1892266      0.4658145       1.067020      0.7631056    
 -0.1832566     -0.3888479      0.1339519      0.6442239      0.3217985    
 -0.5361929     -0.5863528      0.8284341e-01  0.6550922      0.3117887    
 -0.5716699     -0.6520643     -0.1798277e-01  0.5535563      0.2451734    
 -0.5653428     -0.5705239      0.6610921e-01  0.5691901      0.2387965    
 -0.5073704     -0.4377793      0.2472555      0.7344521      0.3230756    
 -0.4936271     -0.4479504      0.2576323      0.7694111      0.3854553    
 -0.3630862     -0.2484748      0.4470773      0.8660490      0.4177946    
 -0.3335185     -0.2436520      0.3995091      0.7713980      0.2754447    
 -0.5296933     -0.5047673      0.5801141e-01  0.2914215     -0.3649795    
  -1.236282      -1.179817     -0.4792485      0.5110588e-01 -0.2083011    
 -0.7169886     -0.4289095      0.3099043      0.6939331      0.2619933    
 -0.3688880     -0.2340318      0.3545712      0.6638225      0.1886621    
 -0.4577973     -0.2747120      0.3461657      0.5918416      0.3228692e-01
 -0.6444435     -0.4783790      0.1381590      0.4319764     -0.2437218e-01
 -0.5384330     -0.2227962      0.4177192      0.6113674      0.4601835e-01
 -0.5107421     -0.2129673      0.3934293      0.5344391     -0.1045898    
 -0.7194661     -0.4266491      0.1891427      0.3163444     -0.2791958    
 -0.7106641     -0.2435196      0.3882984      0.4944225     -0.3973776e-01
 -0.4029641      0.6274503e-01  0.6617348      0.7007176      0.2106903e-01
 -0.4949186     -0.1577872      0.2907626      0.2295539     -0.3860565    
 -0.6720008     -0.8870360e-01  0.5125697      0.5557028      0.3915098e-01
 -0.1898930      0.3293166      0.7013038      0.3789694     -0.5353764    
  -1.090531     -0.7961220     -0.4727213     -0.5055496     -0.8143936    
 -0.6558703      0.3343824       1.207464       1.363427      0.8489968    
  0.5537918      0.8975775       1.016769      0.5096514     -0.4545454    
 -0.9340049     -0.5240042     -0.2482763     -0.6212769      -1.346068    
  -1.385130     -0.4652111      0.3010990      0.3882360      0.5487638e-03
  0.7597020e-01  0.8560619       1.263297      0.9144518      0.1895471    
  0.4498320e-01  0.6246718      0.8323631      0.2671711     -0.7461362    
  -1.148130     -0.6870336     -0.4606893     -0.8237315      -1.395661    
  -1.169237     -0.5582105e-01  0.6841794      0.6063572      0.7013168e-01
  0.1286501      0.9057997       1.128022      0.4866076     -0.3694426    
 -0.3272056      0.4914100      0.6878496      0.6413286e-01 -0.7347584    
 -0.7540250     -0.7841799e-01  0.1269636     -0.2928080     -0.8784841    
 -0.7024094      0.2414100      0.6838425      0.3638660     -0.1746120    
  0.3751690e-01  0.8091114      0.7448237     -0.1598080      -1.027743    
 -0.8236960      0.2592105      0.7554837      0.3627607     -0.2232385    
  0.4051622e-01  0.9213995       1.022912      0.2616593     -0.6051483    
 -0.5883873      0.1062029      0.1522503     -0.4572338     -0.9981837    
 -0.6255125      0.3917711      0.7419304      0.3525567     -0.2396295    
 -0.2683381      0.1826333      0.2106778e-01 -0.7214913      -1.358770    
 -0.9639538      0.2404584      0.8372521      0.7288044      0.4660717    
  0.7112523       1.232971      0.8221759     -0.4215319      -1.634845    
  -1.716757     -0.7123566     -0.8774204e-01 -0.9819001e-01 -0.1488369    
  0.4724207       1.315755       1.032052      0.7798081e-02 -0.6843230    
 -0.2394488      0.7618222      0.6534700     -0.3352860      -1.094109    
  -1.016160     -0.5313984     -0.4882930     -0.6049373     -0.6003988    
 -0.3181233e-01  0.9304307       1.143941      0.7016048      0.3052898    
  0.6938134       1.483458       1.276187      0.2154007     -0.8334522    
 -0.9664568     -0.3944928     -0.5644245      -1.485735      -2.161136    
  -1.542549     -0.3597576e-01  0.7228386      0.6513911      0.4313848    
  0.7778301       1.435087       1.209417      0.3334092     -0.3907528    
 -0.3553629     -0.3341436e-01 -0.5569794      -1.428444      -1.723414    
 -0.8915779      0.3931931      0.6860801      0.1671153     -0.2973287    
  0.1594511       1.247854       1.592555       1.169771      0.6388518    
  0.6909230      0.9674544      0.2096916      -1.298098      -2.385937    
  -2.104834     -0.9965703     -0.5569561     -0.8794484      -1.325371    
  -1.097741     -0.3209756     -0.4439415e-01 -0.2282480     -0.2145640    
  0.6595882       1.860055       2.072223       1.560588       1.193086    
   1.402300       1.529332      0.6721350     -0.5298551      -1.172698    
 -0.8093315     -0.1041592     -0.1815248     -0.8089057      -1.293513    
 -0.9360706      0.5304910e-02  0.3867582      0.1900405      0.1284384    
  0.7602732       1.402716      0.9777310     -0.5231579e-01 -0.8103143    
 -0.8446949     -0.6266152     -0.8535960      -1.249214      -1.262157    
 -0.2494735       1.321109       2.014115       1.585821      0.8586903    
  0.6420913      0.4189152     -0.6053653      -1.635947      -1.679426    
 -0.6953658      0.2087165      0.2012389     -0.1180932     -0.1174849    
  0.4105669      0.7438129      0.1934773     -0.4213879     -0.2446874    
  0.7349417       1.448367       1.170637      0.7577086      0.9399775    
