  0.1017683e-01  -109.5967       117.6118      -12345.00      -12345.00    
   9.993649       50.00895       17.68428      -12345.00       2.000000    
  -12345.00      -12345.00      -12345.00      -12345.00      -12345.00    
  -12345.00      -12345.00      -12345.00      -12345.00      -12345.00    
  -12345.00      -12345.00      -12345.00      -12345.00      -12345.00    
  -12345.00      -12345.00      -12345.00      -12345.00      -12345.00    
  -12345.00       37.64433      -121.8275       200.0000      -12345.00    
   37.51733      -121.6850      -12345.00       5.950000      -12345.00    
   1.600000      0.1100000       88.00000      0.4500000      0.9200000    
   15.00000      -12345.00      -12345.00      -12345.00      -12345.00    
   18.89678       318.2823       138.1909      0.1699675      -12345.00    
  -12345.00     -0.4102522e-02         0.       90.00000      -12345.00    
  -12345.00      -12345.00      -12345.00      -12345.00      -12345.00    
  -12345.00      -12345.00      -12345.00      -12345.00      -12345.00    
      1987       173        11         9        56
       363         6    -12345    -12345      3933
    -12345    -12345    -12345    -12345    -12345
         1    -12345    -12345    -12345    -12345
    -12345    -12345    -12345    -12345    -12345
    -12345    -12345    -12345    -12345    -12345
    -12345    -12345    -12345    -12345    -12345
         1         1         1         1         1
CVYN    870622111018    
-12345  origin  -12345  
-12345  -12345  -12345  
-12345  -12345  -12345  
-12345  -12345  -12345  
-12345  -12345  satellit
satellit-12345  -12345  
-12345  -12345  -12345  
  -2.599342      -2.733373      -1.778648     -0.9175084     -0.7773544    
  -1.172611     -0.9840732      0.1011846      0.8112082      0.5325048    
 -0.5877630      -1.284804     -0.8707414     -0.5113531     -0.8599922    
  -1.641015      -1.681927     -0.6504885      0.8970251e-01 -0.1614316    
  -1.026520      -1.081306      0.2164385e-01  0.8153184      0.6888319    
  0.2849256e-01  0.3006061e-01  0.8831621       1.265468      0.7428778    
 -0.2408395     -0.4312589      0.3453394      0.7158988      0.2385015    
 -0.6864872     -0.8063051      0.5335131e-01  0.4043508     -0.1150283    
 -0.8664709     -0.6277761      0.5140950      0.8858224      0.1292116    
  -1.003600      -1.180555     -0.4180225     -0.2371173     -0.8750751    
  -1.721973      -1.540917     -0.2035706      0.6452004      0.5668949    
  0.2776303      0.8787606       2.194534       2.726689       2.323442    
   1.664488       1.766746       2.439608       2.163085      0.8768620    
 -0.6076364      -1.173292     -0.8971372      -1.206131      -2.241264    
  -3.329351      -3.317771      -2.349780      -2.063404      -2.570880    
  -3.050152      -2.353423     -0.7069093      0.8551910e-01 -0.1474539    
 -0.5395542     -0.3101301e-01   1.203920       1.555225      0.9186348    
  0.2215902      0.5821822       1.609782       1.513242      0.3533455    
 -0.7787292     -0.7144444      0.2132863      0.2023873     -0.7656996    
  -1.671113      -1.371695     -0.1833479      0.7313545e-01 -0.5983982    
  -1.115321     -0.3892301       1.208468       1.914301       1.627157    
   1.158320       1.543313       2.575056       2.641214       1.744987    
  0.8384988       1.100991       2.241618       2.453280       1.703437    
  0.8309419      0.8213199       1.419148       1.005422     -0.3406309    
  -1.778882      -2.312705      -2.095429      -2.666177      -3.884744    
  -4.710212      -4.076332      -2.356144      -1.333065      -1.108197    
 -0.8909351      0.1925698       1.743850       2.118512       1.365644    
  0.4431336      0.3777327      0.8392820      0.2912353      -1.062869    
  -2.096065      -1.709410     -0.4126249      0.5601658e-01 -0.2532238    
 -0.4042332      0.5041909       1.906587       2.147479       1.421234    
  0.8732773       1.371776       2.233820       1.993565      0.9955170    
  0.2265042      0.4382259       1.107304      0.8551037     -0.7397118e-01
 -0.6296604     -0.2833621e-01   1.089122       1.308250      0.7989591    
  0.5339508       1.291187       2.259401       1.841722      0.3634723    
 -0.9778509      -1.336454      -1.371346      -2.395450      -3.932033    
  -4.837373      -4.447047      -3.499410      -3.250463      -3.347174    
  -2.840741      -1.186466      0.7848317       1.744401       1.946984    
   2.290782       3.276038       4.033463       3.478470       2.206933    
   1.176781      0.8312048      0.3281424      -1.259745      -3.118903    
  -4.121902      -3.776600      -3.074211      -3.138613      -3.331123    
  -2.766262      -1.116448      0.5687906       1.128070       1.217392    
   1.713522       2.868641       3.646751       3.148215       2.234709    
   1.745461       1.969275       1.986102      0.9412954     -0.3251127    
 -0.9817418     -0.7716010     -0.6703972      -1.495729      -2.395049    
  -2.549736      -1.664343     -0.7832001     -0.8256225     -0.9618124    
 -0.5561081      0.4150846      0.9307454      0.3901102     -0.1472395    
 -0.1540368e-01  0.7991092       1.265069      0.7326979      0.2122099    
  0.3971602       1.249399       1.605489      0.9136761      0.3972693    
  0.6909654       1.542207       1.726439      0.7828636     -0.5478375e-01
 -0.1813709      0.2386456     -0.5871080e-02  -1.395571      -2.513111    
  -2.595822      -1.868292      -1.507261      -1.982755      -2.206687    
  -1.625809     -0.3664962      0.3681322      0.7175396e-01 -0.5936877e-01
  0.5468081       1.771680       2.448113       2.056458       1.769531    
   2.008183       2.490158       2.262605       1.170507      0.4426109    
  0.4472525      0.9773583       1.050311      0.4147734      0.3293343    
   1.042484       1.993934       1.996251      0.9709053      0.4954732    
  0.9389281       1.627914       1.301743     -0.7344094e-01 -0.9510735    
 -0.9503287     -0.6093953      -1.160990      -2.559271      -3.084450    
  -2.477388      -1.461694      -1.251261      -1.932640      -2.036523    
  -1.327765     -0.4474483     -0.4976432      -1.420942      -1.724701    
  -1.151909     -0.3219194     -0.3533619      -1.165382      -1.279896    
 -0.4932576      0.5986982      0.8988478      0.4675854      0.8362617    
   2.138870       3.583433       4.018364       3.549399       3.657337    
   4.407285       4.998254       4.292630       2.594028       1.656517    
   1.512854       1.263345     -0.7903027e-01  -2.117565      -3.097082    
  -2.917343      -2.460261      -2.863469      -3.898657      -3.847616    
  -2.716902      -1.532616      -1.385945      -1.931437      -1.459203    
 -0.7274652e-01   1.130021       1.047861      0.3844471e-01 -0.1525682    
  0.4726398      0.9880341      0.4240660     -0.8427745      -1.119128    
 -0.4128863      0.4694729      0.4916419     -0.2651449     -0.2086069    
  0.7421526       1.667585       1.369900      0.1090192     -0.3125164    
  0.1992877      0.7784255      0.2457413      -1.231583      -1.820710    
  -1.429533      -1.035807      -1.610787      -2.689971      -2.557254    
  -1.302647      0.3771002e-01  0.2784634     -0.2982249      0.1010491    
   1.487298       2.793138       2.864485       2.078059       2.230965    
   3.287269       4.121380       3.706059       2.577788       2.378924    
   2.955540       3.217628       2.133999      0.3177399     -0.5446864    
 -0.5916262     -0.8051262      -2.167877      -4.074644      -4.745268    
  -4.277379      -3.782933      -4.236476      -5.007196      -4.549912    
  -3.153989      -1.853581      -1.513727      -1.599052     -0.7134369    
  0.8802078       2.152293       2.258860       1.851819       2.346659    
   3.404506       3.942324       3.282570       2.156464       1.859133    
   2.163708       2.102129      0.8852910     -0.7404109      -1.374325    
  -1.317486      -1.556571      -2.647017      -3.703815      -3.476562    
  -2.397366      -1.532097      -1.587277      -1.752073     -0.8578835    
  0.5681041       1.542762       1.581009       1.622541       2.756787    
   4.206044       4.755259       3.975685       2.880267       2.496937    
   2.286849       1.389751     -0.5297964      -2.383480      -3.118484    
  -3.373748      -3.960602      -5.054576      -5.608263      -4.932709    
  -3.935571      -3.456673      -3.740416      -3.658821      -2.294971    
 -0.6106904      0.3313184      0.2403230      0.2539097       1.157872    
   1.990618       2.058311       1.309302      0.8031879       1.284898    
   1.869035       1.862441       1.218159       1.044119       1.903324    
   2.689071       2.676597       1.779524       1.096973       1.410716    
   1.792647       1.505644      0.4967825     -0.9284768e-01  0.4135562    
  0.9902641      0.8854709      0.3493204e-01 -0.4684562      0.4376185e-01
  0.5768024      0.3712914     -0.5654574      -1.027183     -0.3836114    
  0.2581996      0.1456747     -0.6275528     -0.8448799     -0.9899406e-01
  0.3548335     -0.7765043e-01  -1.186750      -1.678307     -0.9461115    
 -0.1159944      0.8441438e-01 -0.3397371     -0.2201379      0.8006935    
   1.452804       1.239272      0.3449919     -0.4510181e-01  0.5176202    
  0.8153901      0.3284155     -0.6984026      -1.013211     -0.2484196    
  0.2648516      0.1477630e-01 -0.6252739     -0.4273758      0.7583109    
   1.496046       1.317732      0.6710804      0.8117201       1.831948    
   2.309138       1.859974      0.8562789      0.5912338       1.310480    
   1.473421      0.6984524     -0.4021558     -0.5985794      0.1828366    
  0.5091388     -0.4134031e-02 -0.8980609     -0.8980974      0.1161626    
  0.6037974      0.1104549     -0.8996760      -1.189206     -0.6391234    
 -0.6763099      -1.560479      -2.663567      -2.766844      -1.913246    
  -1.721357      -2.442333      -3.279355      -2.956513      -1.571200    
 -0.7934991     -0.8481379      -1.032045     -0.2489095       1.445503    
   2.525115       2.777865       2.826233       3.628901       4.970842    
   5.259430       4.426630       3.338360       2.992294       3.053051    
   1.886287     -0.4557717      -2.894410      -4.193983      -4.533497    
  -5.425914      -6.728398      -7.537023      -6.868505      -5.126552    
  -4.230508      -4.329474      -4.436498      -3.427667      -1.587231    
 -0.6961956     -0.8225456     -0.9145913      0.8374766e-01   1.804004    
   2.598129       2.516268       2.481004       3.404500       4.874039    
   5.178848       4.366162       3.456808       3.567596       4.408883    
   4.160709       2.725515       1.100141      0.4613473      0.6285962    
 -0.1505750e-01  -1.459170      -2.807574      -2.998825      -2.268567    
  -2.310149      -3.097292      -3.549762      -2.645096     -0.8465918    
  0.7939565e-01  0.3852750e-01 -0.2475312e-01  0.8333775       2.046425    
   2.032026       1.016525      0.2036715e-01  0.5980165e-01  0.7604215    
  0.5847349     -0.3400570      -1.041913     -0.5820241      0.4774666    
  0.5305968     -0.1300204     -0.4835812      0.2622180       1.551765    
   1.741514      0.9621928      0.2581780      0.3574145      0.7090960    
  0.2104792e-01  -1.415628      -2.501637      -2.320321      -1.525691    
  -1.689869      -2.594020      -3.124831      -2.424260      -1.085242    
 -0.5786535     -0.8190821     -0.8709868      0.1262177e-01   1.150909    
   1.201668      0.5206224      0.1491034      0.8186589       1.869711    
   2.019396       1.604843       1.570038       2.506489       3.567587    
   3.349113       2.286860       1.529516       1.633537       1.715256    
  0.7656018     -0.4495980     -0.9772547     -0.5149591     -0.2976919e-01
 -0.6427609      -1.693570      -2.214049      -1.766653      -1.178163    
  -1.499784      -2.031558      -1.835753     -0.6957837      0.3776281    
  0.3363750     -0.1667724     -0.1761553      0.6472755       1.287967    
  0.8022120      0.6043657e-01 -0.3644186e-01  0.6802687       1.141242    
  0.5041924     -0.1794078      0.2111897e-01   1.153269       2.067806    
   1.919557       1.596837       1.819037       2.603610       2.873420    
   1.921343      0.7277477      0.6354018e-01  0.1188916     -0.3876941e-01
  -1.150792      -2.252584      -2.570152      -2.087726      -1.859607    
  -2.504548      -3.003932      -2.677742      -1.560776     -0.7183966    
 -0.7048079     -0.4411048      0.6109864       2.145033       2.920659    
   2.417514       1.840590       1.951327       2.693362       2.838128    
   1.799410      0.7970065      0.5337395      0.8219628      0.4242234    
 -0.9735087      -1.943116      -1.945151      -1.274534      -1.105613    
  -1.872185      -2.375319      -2.186378      -1.597025      -1.665082    
  -2.670265      -3.257067      -2.833599      -1.753162      -1.283986    
  -1.718583      -1.715298     -0.8959860      0.3182822      0.7343562    
  0.1217468     -0.9857302e-02  0.8390803       2.129272       2.542446    
   1.909252       1.752813       2.460361       3.526830       3.816020    
   3.179534       2.962118       3.365747       3.846611       3.416072    
   2.029996       1.060194      0.8584345      0.8854069     -0.6390218e-01
  -1.885154      -2.844710      -2.751251      -2.477251      -3.192783    
  -4.704465      -5.291602      -4.722648      -3.855973      -3.875520    
  -4.554312      -4.210648      -2.650714     -0.6958871      0.3034767    
  0.2355209      0.6905427       1.935418       3.191248       3.278639    
   2.391724       2.258431       3.003740       3.779946       3.452025    
   2.139510       1.533941       1.920109       2.537245       2.150127    
  0.9032809      0.5999855       1.333465       2.038890       1.488067    
 -0.5262121e-01 -0.7752350     -0.5800757     -0.5216619      -1.772212    
  -3.881274      -4.878722      -4.597167      -3.958553      -4.013785    
  -4.516160      -3.916204      -2.307706     -0.6483145     -0.4105204e-01
 -0.3133820      0.1402814       1.295025       2.316070       2.320941    
   1.572474       1.680017       2.616500       3.422991       3.086975    
   1.890542       1.456708       1.768782       2.034360       1.412938    
  0.2131653     -0.5901993e-01  0.5126553       1.155933      0.9016721    
 -0.1055621     -0.3290889      0.2158819      0.6293347     -0.1099315    
  -1.637722      -2.193870      -1.716249      -1.170651      -1.592171    
  -2.579505      -2.598657      -1.809490      -1.049655      -1.188425    
  -1.814650      -1.423947     -0.2866730      0.5641060      0.2085167    
 -0.8102943     -0.7873453      0.1251733      0.8555407      0.5630422    
 -0.1668804      0.2199471       1.536713       2.634138       2.547645    
   1.962782       2.445273       3.613275       4.303576       3.679961    
   2.389432       1.950707       2.124725       1.852635      0.3315288    
  -1.785141      -2.994886      -3.454682      -4.116261      -5.567000    
  -6.980253      -6.954739      -5.793039      -4.566951      -4.085680    
  -3.741489      -2.244568      0.4914329e-01   2.064892       3.035767    
   3.536726       4.668475       5.999564       6.571871       5.816317    
   4.558138       3.978338       3.643704       2.794370       1.035791    
 -0.8028960      -1.467634      -1.362946      -1.498619      -2.373487    
  -3.043974      -2.473336      -1.389568     -0.8520977      -1.336967    
  -1.925552      -1.577662     -0.9897490      -1.081571      -2.115560    
  -3.074447      -2.929928      -2.381842      -2.304783      -2.827194    
  -2.824685      -1.541668     -0.2669641e-01  0.8400376      0.9103467    
   1.153184       2.380032       3.731194       4.299515       3.811826    
   3.287329       3.570513       3.743155       3.025533       1.426515    
  0.1389589      0.4189762e-01  0.2734635      0.1733447e-01 -0.9265623    
  -1.556892      -1.175497     -0.6642304     -0.5834709     -0.9895795    
 -0.9659982      0.1424468       1.331311       1.793099       1.483833    
   1.394480       2.043306       2.428215       1.924636      0.6633563    
 -0.1510161      0.1432386      0.5058210      0.2107348     -0.6993999    
  -1.058379     -0.3130648      0.3132681      0.1059753     -0.7660057    
  -1.089066     -0.3800028      0.6667649e-01 -0.3806593      -1.391751    
  -1.705063     -0.9404787     -0.4135069     -0.7345608      -1.627481    
  -1.961795      -1.450956      -1.193921      -1.543374      -2.309893    
  -2.403818      -1.338879     -0.2804700      0.1215093     -0.1065631e-01
  0.4533175       1.714847       2.382013       2.140913       1.432813    
   1.307223       1.995600       2.250138       1.667778      0.6418491    
  0.3725114       1.092107       1.326219      0.6050174     -0.5079362    
 -0.7540209     -0.3105062e-01  0.1786808     -0.4804215      -1.480464    
  -1.710184      -1.133891      -1.181710      -2.154296      -3.463795    
  -3.852960      -3.245785      -3.097026      -3.523163      -3.854166    
  -3.049438      -1.204379      0.1289651e-01  0.2599815      0.3510810    
   1.409716       3.205107       4.182010       4.087211       3.568097    
   3.754771       4.520920       4.284470       2.990973       1.604007    
   1.267802       1.729089       1.372788      0.1277130      -1.160416    
  -1.412117     -0.7764260     -0.8679209      -1.822583      -2.770478    
  -2.676522      -1.805180      -1.804544      -2.724731      -3.528467    
  -3.046278      -1.635159      -1.070253      -1.372209      -1.554922    
 -0.5061312       1.467571       2.512316       2.513087       2.498746    
   3.447319       4.815965       4.878683       3.743331       2.451913    
   2.104845       2.438309       1.820572      0.2363404      -1.298744    
  -1.651529      -1.188249      -1.584221      -2.762545      -3.753165    
  -3.452236      -2.163663      -1.724095      -2.213359      -2.663615    
  -2.017868     -0.5964724     -0.1456144     -0.7033445      -1.386342    
  -1.153811     -0.1948586     -0.1292992     -0.9474853      -1.676791    
  -1.181754      0.2154408      0.6871251      0.1893993     -0.2856452    
  0.3320778       1.685318       2.018797       1.313304      0.6174307    
   1.052435       2.191327       2.244411       1.232863      0.1657338    
  0.4540878e-01  0.4811991     -0.4349525e-01  -1.341798      -2.497242    
  -2.545273      -1.742412      -1.571146      -1.989909      -2.138613    
  -1.142821      0.5323436       1.303659       1.174679       1.065947    
   1.893109       3.096067       3.133684       2.270035       1.560315    
   1.856550       2.612579       2.303041       1.133552      0.1446140    
  0.1792146      0.6496880      0.7465578e-01  -1.247837      -2.211770    
  -2.051156      -1.457226      -1.848120      -2.930247      -3.631451    
  -3.133178      -2.105402      -1.938212      -2.265375      -2.055367    
 -0.7653512      0.6886997      0.9663398      0.5821655      0.6212369    
   1.664821       2.939402       3.158966       2.649614       2.335887    
   2.820679       3.301073       2.490960      0.9844246     -0.2235186e-01
  0.1235298      0.5692381     -0.3038630e-02  -1.091580      -1.695332    
  -1.308265     -0.6513606     -0.8263238      -1.302115      -1.157964    
 -0.1212800      0.9275361      0.9912736      0.5385044      0.3366497    
  0.8029028       1.151063      0.3537667     -0.8803717      -1.421834    
 -0.7897378     -0.2203054e-02 -0.1882952     -0.5756901     -0.1600248    
