  0.2500000e-01  -50048.00       34176.00      -12345.00      -12345.00    
  -5.000015       294.9750             0.      -12345.00       2.000000    
  -12345.00      -12345.00      -12345.00      -12345.00      -12345.00    
  -12345.00      -12345.00      -12345.00      -12345.00      -12345.00    
  -12345.00      -12345.00      -12345.00      -12345.00      -12345.00    
  -12345.00      -12345.00      -12345.00      -12345.00      -12345.00    
  -12345.00       40.74483      -115.2388       2210.440             0.    
   37.85200      -118.1230      -12345.00      -12345.00      -12345.00    
  -12345.00      -12345.00      -12345.00      -12345.00      -12345.00    
  -12345.00      -12345.00      -12345.00      -12345.00      -12345.00    
   406.2044       36.86216       218.6824       3.653861      -12345.00    
  -12345.00      -245.9852             0.             0.      -12345.00    
  -12345.00      -12345.00      -12345.00      -12345.00      -12345.00    
  -12345.00      -12345.00      -12345.00      -12345.00      -12345.00    
      1982       267         7        40        24
       296         6         0         0     12000
    -12345    -12345    -12345    -12345    -12345
         1         7        11    -12345    -12345
    -12345    -12345    -12345    -12345    -12345
    -12345    -12345    -12345    -12345    -12345
    -12345    -12345    -12345    -12345    -12345
         1         1         1         1         0
ELK     -12345  -12345  
[...]
  -3254.000      -2760.000      -2307.000      -1888.000      -1388.000    
  -752.0000      -101.0000       367.0000       587.0000       664.0000    
   765.0000       1003.000       1401.000       1892.000       2372.000    
   2756.000       3022.000       3206.000       3311.000       3295.000    
   3147.000       2938.000       2798.000       2811.000       2904.000    
   2894.000       2626.000       2068.000       1305.000       447.0000    
  -429.0000      -1262.000      -1960.000      -2455.000      -2757.000    
  -2913.000      -2943.000      -2870.000      -2733.000      -2555.000    
  -2353.000      -2187.000      -2127.000      -2140.000      -2067.000    
  -1740.000      -1123.000      -294.0000       633.0000       1523.000    
   2242.000       2702.000       2888.000       2833.000       2544.000    
   1993.000       1206.000       310.0000      -532.0000      -1159.000    
  -1430.000      -1284.000      -775.0000      -39.00000       756.0000    
   1406.000       1650.000       1301.000       459.0000      -560.0000    
  -1511.000      -2386.000      -3272.000      -4144.000      -4824.000    
  -5048.000      -4704.000      -3952.000      -3149.000      -2654.000    
  -2600.000      -2840.000      -3098.000      -3186.000      -3061.000    
  -2667.000      -1843.000      -499.0000       1217.000       2947.000    
   4320.000       5176.000       5600.000       5728.000       5728.000    
   5760.000       5896.000       6000.000       5936.000       5608.000    
   5064.000       4360.000       3596.000       2829.000       2038.000    
   1162.000       228.0000      -647.0000      -1383.000      -2030.000    
  -2705.000      -3475.000      -4320.000      -5216.000      -6104.000    
  -6912.000      -7536.000      -7840.000      -7712.000      -7112.000    
  -6136.000      -4944.000      -3763.000      -2754.000      -2001.000    
  -1530.000      -1307.000      -1208.000      -1068.000      -833.0000    
  -625.0000      -642.0000      -975.0000      -1534.000      -2145.000    
  -2701.000      -3180.000      -3554.000      -3737.000      -3616.000    
  -3145.000      -2377.000      -1419.000      -393.0000       543.0000    
   1246.000       1709.000       2088.000       2565.000       3194.000    
   3868.000       4464.000       5000.000       5520.000       5944.000    
   6040.000       5648.000       4856.000       3861.000       2880.000    
   2064.000       1505.000       1188.000       967.0000       681.0000    
   326.0000       53.00000      -12.00000       123.0000       285.0000    
   212.0000      -253.0000      -1044.000      -1943.000      -2710.000    
  -3169.000      -3232.000      -2892.000      -2245.000      -1501.000    
  -873.0000      -438.0000      -116.0000       197.0000       496.0000    
   674.0000       667.0000       534.0000       352.0000       142.0000    
  -49.00000      -111.0000       25.00000       240.0000       261.0000    
  -149.0000      -999.0000      -2036.000      -2838.000      -3017.000    
  -2507.000      -1675.000      -1082.000      -1097.000      -1641.000    
  -2291.000      -2687.000      -2767.000      -2633.000      -2433.000    
  -2365.000      -2612.000      -3138.000      -3618.000      -3668.000    
  -3117.000      -2050.000      -694.0000       661.0000       1687.000    
   2158.000       2147.000       1982.000       1997.000       2360.000    
   3051.000       3914.000       4712.000       5296.000       5672.000    
   5896.000       5928.000       5672.000       5136.000       4480.000    
   3857.000       3249.000       2536.000       1585.000       404.0000    
  -760.0000      -1623.000      -2126.000      -2357.000      -2371.000    
  -2271.000      -2315.000      -2817.000      -3895.000      -5256.000    
  -6320.000      -6632.000      -6240.000      -5616.000      -5192.000    
  -5024.000      -4880.000      -4496.000      -3882.000      -3266.000    
  -2927.000      -2921.000      -3090.000      -3177.000      -2957.000    
  -2357.000      -1485.000      -633.0000      -176.0000      -316.0000    
  -930.0000      -1703.000      -2313.000      -2493.000      -2123.000    
  -1354.000      -571.0000      -137.0000      -169.0000      -554.0000    
  -1086.000      -1549.000      -1753.000      -1590.000      -1074.000    
  -365.0000       276.0000       596.0000       502.0000       142.0000    
  -165.0000      -121.0000       344.0000       1019.000       1561.000    
   1690.000       1274.000       322.0000      -1061.000      -2681.000    
  -4248.000      -5464.000      -6104.000      -6048.000      -5344.000    
  -4200.000      -2997.000      -2065.000      -1581.000      -1511.000    
  -1623.000      -1601.000      -1222.000      -531.0000       186.0000    
   707.0000       1119.000       1665.000       2394.000       3088.000    
   3523.000       3675.000       3630.000       3421.000       3015.000    
   2437.000       1824.000       1323.000       1023.000       994.0000    
   1277.000       1771.000       2248.000       2570.000       2797.000    
   3031.000       3283.000       3461.000       3425.000       3164.000    
   2859.000       2719.000       2806.000       3037.000       3287.000    
   3452.000       3484.000       3421.000       3260.000       2821.000    
   1922.000       667.0000      -568.0000      -1407.000      -1705.000    
  -1585.000      -1316.000      -1194.000      -1387.000      -1852.000    
  -2442.000      -3024.000      -3543.000      -4037.000      -4504.000    
  -4824.000      -4904.000      -4720.000      -4264.000      -3515.000    
  -2528.000      -1463.000      -481.0000       353.0000       1104.000    
   1832.000       2458.000       2795.000       2685.000       2093.000    
   1116.000      -61.00000      -1203.000      -2033.000      -2365.000    
  -2242.000      -1821.000      -1261.000      -800.0000      -678.0000    
  -952.0000      -1467.000      -1994.000      -2370.000      -2511.000    
  -2386.000      -1952.000      -1154.000       7.000000       1432.000    
   2891.000       4104.000       4936.000       5464.000       5768.000    
   5864.000       5840.000       5864.000       6080.000       6440.000    
   6752.000       6712.000       6176.000       5296.000       4352.000    
   3508.000       2721.000       1815.000       686.0000      -527.0000    
  -1531.000      -2105.000      -2237.000      -2107.000      -1938.000    
  -1872.000      -1948.000      -2126.000      -2283.000      -2260.000    
  -1971.000      -1504.000      -1080.000      -914.0000      -1152.000    
  -1805.000      -2670.000      -3377.000      -3602.000      -3266.000    
  -2539.000      -1687.000      -942.0000      -537.0000      -672.0000    
  -1350.000      -2347.000      -3375.000      -4256.000      -4928.000    
  -5328.000      -5312.000      -4864.000      -4216.000      -3687.000    
  -3431.000      -3351.000      -3312.000      -3270.000      -3195.000    
  -3039.000      -2794.000      -2489.000      -2138.000      -1690.000    
  -1081.000      -367.0000       244.0000       575.0000       627.0000    
   516.0000       384.0000       378.0000       586.0000       960.0000    
   1355.000       1618.000       1651.000       1471.000       1262.000    
   1276.000       1642.000       2343.000       3243.000       4104.000    
   4688.000       4840.000       4592.000       4096.000       3556.000    
   3120.000       2790.000       2430.000       1865.000       1013.000    
  -48.00000      -1131.000      -2027.000      -2598.000      -2826.000    
  -2758.000      -2487.000      -2183.000      -2020.000      -2006.000    
  -1933.000      -1578.000      -996.0000      -513.0000      -419.0000    
  -743.0000      -1274.000      -1717.000      -1849.000      -1574.000    
  -874.0000       135.0000       1103.000       1571.000       1280.000    
   396.0000      -601.0000      -1286.000      -1610.000      -1820.000    
  -2093.000      -2353.000      -2404.000      -2141.000      -1640.000    
  -1107.000      -731.0000      -573.0000      -567.0000      -572.0000    
  -375.0000       225.0000       1187.000       2163.000       2805.000    
   3059.000       3119.000       3135.000       3074.000       2871.000    
   2576.000       2290.000       2084.000       2020.000       2172.000    
   2610.000       3291.000       3965.000       4304.000       4128.000    
   3441.000       2345.000       1110.000       76.00000      -534.0000    
  -718.0000      -652.0000      -552.0000      -557.0000      -748.0000    
  -1215.000      -2057.000      -3285.000      -4712.000      -6056.000    
  -7032.000      -7576.000      -7816.000      -7920.000      -8008.000    
  -8128.000      -8328.000      -8592.000      -8792.000      -8744.000    
  -8408.000      -7920.000      -7424.000      -6944.000      -6400.000    
  -5720.000      -5008.000      -4400.000      -4017.000      -3880.000    
  -3895.000      -3830.000      -3502.000      -2896.000      -2116.000    
  -1300.000      -568.0000       41.00000       597.0000       1207.000    
   1924.000       2671.000       3249.000       3430.000       3085.000    
   2255.000       1127.000      -48.00000      -973.0000      -1366.000    
  -1139.000      -486.0000       217.0000       604.0000       537.0000    
   225.0000       38.00000       200.0000       672.0000       1275.000    
   1863.000       2396.000       2905.000       3396.000       3773.000    
   3854.000       3463.000       2581.000       1408.000       290.0000    
  -434.0000      -649.0000      -555.0000      -485.0000      -610.0000    
  -813.0000      -815.0000      -435.0000       233.0000       885.0000    
   1230.000       1126.000       533.0000      -533.0000      -1926.000    
  -3356.000      -4504.000      -5152.000      -5184.000      -4656.000    
  -3823.000      -3052.000      -2621.000      -2561.000      -2714.000    
  -2875.000      -2945.000      -2977.000      -3038.000      -3076.000    
  -2944.000      -2541.000      -1899.000      -1195.000      -667.0000    
  -503.0000      -725.0000      -1159.000      -1545.000      -1705.000    
  -1611.000      -1352.000      -1059.000      -813.0000      -597.0000    
  -302.0000       190.0000       917.0000       1799.000       2697.000    
   3518.000       4232.000       4888.000       5528.000       6112.000    
   6576.000       6784.000       6688.000       6328.000       5824.000    
   5200.000       4456.000       3626.000       2849.000       2277.000    
   1991.000       1938.000       1940.000       1797.000       1331.000    
   370.0000      -1189.000      -3215.000      -5408.000      -7576.000    
  -9704.000      -11808.00      -13776.00      -15384.00      -16368.00    
  -16536.00      -15936.00      -14784.00      -13352.00      -11880.00    
  -10464.00      -9120.000      -7752.000      -6280.000      -4688.000    
  -2990.000      -1259.000       322.0000       1614.000       2612.000    
   3396.000       4054.000       4688.000       5392.000       6184.000    
   7008.000       7824.000       8616.000       9368.000       9928.000    
   10072.00       9648.000       8680.000       7360.000       5896.000    
   4488.000       3291.000       2433.000       2003.000       2010.000    
   2316.000       2601.000       2436.000       1426.000      -590.0000    
  -3409.000      -6536.000      -9456.000      -11752.00      -13256.00    
  -14032.00      -14264.00      -14000.00      -13224.00      -12072.00    
  -10952.00      -10288.00      -10168.00      -10232.00      -9984.000    
  -9136.000      -7744.000      -6080.000      -4400.000      -2712.000    
  -768.0000       1660.000       4560.000       7640.000       10440.00    
   12568.00       13864.00       14424.00       14384.00       13760.00    
   12504.00       10736.00       8848.000       7528.000       7552.000    
   9520.000       13520.00       18928.00       24448.00       28568.00    
   30104.00       28744.00       24992.00       19848.00       14392.00    
   9464.000       5712.000       3524.000       2844.000       3117.000    
   3553.000       3528.000       2827.000       1602.000       125.0000    
  -1388.000      -2727.000      -3613.000      -3818.000      -3292.000    
  -2087.000      -222.0000       2345.000       5560.000       9112.000    
   12416.00       14848.00       16008.00       15816.00       14640.00    
   13136.00       11984.00       11552.00       11696.00       11656.00    
   10448.00       7328.000       2106.000      -4936.000      -13400.00    
  -22744.00      -32296.00      -40896.00      -47168.00      -50048.00    
  -49088.00      -45120.00      -39296.00      -33024.00      -27648.00    
  -23688.00      -21072.00      -19144.00      -17104.00      -14424.00    
  -11048.00      -7416.000      -4168.000      -1731.000      -283.0000    
   240.0000       169.0000       52.00000       381.0000       1269.000    
   2406.000       3366.000       3948.000       4288.000       4664.000    
   5192.000       5808.000       6400.000       6832.000       6888.000    
   6424.000       5504.000       4352.000       3214.000       2225.000    
   1406.000       775.0000       403.0000       347.0000       676.0000    
   1608.000       3503.000       6648.000       10984.00       15848.00    
   19912.00       21824.00       20848.00       17384.00       12792.00    
   8704.000       6304.000       6032.000       7696.000       10568.00    
   13632.00       15984.00       17144.00       17096.00       15992.00    
   13800.00       10368.00       5832.000       901.0000      -3409.000    
  -6240.000      -7064.000      -5504.000      -1447.000       4512.000    
   10744.00       15152.00       16240.00       14008.00       9832.000    
   5568.000       2534.000       1024.000       748.0000       1319.000    
   2353.000       3339.000       3708.000       3149.000       1840.000    
   379.0000      -612.0000      -1006.000      -1282.000      -2069.000    
  -3669.000      -5928.000      -8344.000      -10264.00      -11208.00    
  -11104.00      -10304.00      -9064.000      -7176.000      -4256.000    
  -434.0000       3232.000       5144.000       4120.000       253.0000    
  -5040.000      -9776.000      -12504.00      -12864.00      -11352.00    
  -8728.000      -5648.000      -2643.000      -7.000000       2121.000    
   3535.000       3764.000       2243.000      -1310.000      -6560.000    
  -12552.00      -18112.00      -22392.00      -25136.00      -26672.00    
  -27776.00      -29304.00      -31736.00      -34304.00      -36416.00    
  -37056.00      -35776.00      -32832.00      -29072.00      -25120.00    
  -21328.00      -17896.00      -15016.00      -12640.00      -10328.00    
  -7424.000      -3700.000       288.0000       3522.000       5344.000    
   6008.000       6408.000       7416.000       9424.000       12304.00    
   15616.00       18672.00       20904.00       22272.00       23288.00    
   24512.00       26144.00       27928.00       29352.00       30152.00    
   30560.00       31072.00       31848.00       32424.00       31912.00    
   29680.00       25920.00       21408.00       17216.00       14216.00    
   12840.00       12936.00       13832.00       14648.00       14608.00    
   13384.00       11176.00       8488.000       5872.000       3710.000    
   2163.000       1247.000       911.0000       1032.000       1312.000    
   1276.000       476.0000      -1252.000      -3630.000      -6016.000    
  -7728.000      -8368.000      -8040.000      -7120.000      -5904.000    
  -4424.000      -2719.000      -1061.000       215.0000       1073.000    
   1792.000       2508.000       2960.000       2826.000       2199.000    
   1575.000       1368.000       1430.000       1022.000      -549.0000    
  -3191.000      -6080.000      -8400.000      -9744.000      -10088.00    
  -9632.000      -8800.000      -8256.000      -8680.000      -10304.00    
  -12688.00      -15080.00      -16992.00      -18344.00      -19128.00    
  -19280.00      -18688.00      -17448.00      -15976.00      -14848.00    
  -14552.00      -15176.00      -16304.00      -17120.00      -16864.00    
  -15304.00      -12872.00      -10392.00      -8440.000      -6888.000    
  -5144.000      -2815.000      -47.00000       2760.000       5368.000    
   7696.000       9608.000       10928.00       11656.00       11960.00    
   12040.00       12088.00       12472.00       13672.00       15968.00    
   19128.00       22352.00       24752.00       25712.00       25048.00    
   23056.00       20344.00       17680.00       15656.00       14688.00    
   15032.00       16512.00       18408.00       19728.00       19736.00    
   18320.00       15744.00       12344.00       8472.000       4640.000    
   1416.000      -893.0000      -2385.000      -3424.000      -4368.000    
  -5544.000      -7192.000      -9408.000      -12048.00      -14808.00    
  -17464.00      -20064.00      -22800.00      -25560.00      -27824.00    
  -28960.00      -28568.00      -26840.00      -24368.00      -21752.00    
  -19152.00      -16560.00      -14152.00      -12160.00      -10576.00    
  -9112.000      -7352.000      -5128.000      -2748.000      -739.0000    
   495.0000       892.0000       631.0000       23.00000      -597.0000    
  -1075.000      -1495.000      -1962.000      -2426.000      -2776.000    
  -3108.000      -3773.000      -5000.000      -6584.000      -7976.000    
  -8632.000      -8240.000      -6800.000      -4656.000      -2373.000    
  -433.0000       903.0000       1657.000       2059.000       2399.000    
   2807.000       3276.000       3852.000       4632.000       5624.000    
   6736.000       7848.000       8920.000       10064.00       11480.00    
   13272.00       15256.00       17088.00       18512.00       19568.00    
   20488.00       21440.00       22416.00       23288.00       23856.00    
   23824.00       22888.00       20864.00       17800.00       13856.00    
   9216.000       4096.000      -1222.000      -6304.000      -10688.00    
