  0.2500000e-01  -22182.83       31060.29      -12345.00      -12345.00    
  -5.000015       294.9750             0.      -12345.00       2.000000    
  -12345.00      -12345.00      -12345.00      -12345.00      -12345.00    
  -12345.00      -12345.00      -12345.00      -12345.00      -12345.00    
  -12345.00      -12345.00      -12345.00      -12345.00      -12345.00    
  -12345.00      -12345.00      -12345.00      -12345.00      -12345.00    
  -12345.00       40.74483      -115.2388       2210.440             0.    
   37.85200      -118.1230      -12345.00      -12345.00      -12345.00    
  -12345.00      -12345.00      -12345.00      -12345.00      -12345.00    
  -12345.00      -12345.00      -12345.00      -12345.00      -12345.00    
   406.2044       36.86216       218.6824       3.653861      -12345.00    
  -12345.00      -88.51292             0.       90.00000      -12345.00    
  -12345.00      -12345.00      -12345.00      -12345.00      -12345.00    
  -12345.00      -12345.00      -12345.00      -12345.00      -12345.00    
      1982       267         7        40        24
       296         6         0         0     12000
    -12345    -12345    -12345    -12345    -12345
         1         7        11    -12345    -12345
    -12345    -12345    -12345    -12345    -12345
    -12345    -12345    -12345    -12345    -12345
    -12345    -12345    -12345    -12345    -12345
         1         1         1         1         0
ELK     -12345  -12345  
[...]
   966.0426       2046.358       3113.303       3974.440       4436.605    
   4398.900       3911.356       3219.766       2660.531       2514.909    
   2882.198       3665.721       4594.685       5282.086       5477.386    
   5182.815       4567.652       3858.912       3305.023       3007.096    
   2936.466       2902.990       2651.091       2075.016       1295.448    
   525.9664      -88.29886      -485.0217      -631.6009      -541.4709    
  -328.1968      -176.6781      -233.9021      -540.4427      -1071.260    
  -1727.637      -2336.209      -2726.407      -2808.457      -2596.122    
  -2179.762      -1686.998      -1246.125      -939.5309      -739.4045    
  -565.3870      -404.5013      -379.7538      -694.7017      -1460.082    
  -2532.059      -3543.501      -4113.251      -4047.502      -3353.187    
  -2177.403      -813.8472       362.6288       1036.891       1110.089    
   746.1219       248.7167      -96.05634      -159.9765      -25.12067    
   73.62952      -99.05719      -635.2639      -1435.790      -2294.472    
  -3009.811      -3453.662      -3559.789      -3344.877      -2929.841    
  -2501.282      -2198.216      -2020.345      -1888.489      -1752.432    
  -1607.204      -1469.069      -1343.115      -1157.772      -787.6023    
  -167.2358       663.7782       1591.286       2468.770       3123.892    
   3474.310       3545.378       3477.927       3457.857       3578.651    
   3860.841       4293.888       4836.555       5388.913       5771.531    
   5867.212       5638.642       5140.367       4481.092       3776.885    
   3055.015       2279.404       1432.545       525.9147      -434.1091    
  -1464.747      -2584.981      -3760.959      -4865.207      -5767.824    
  -6368.337      -6690.893      -6796.062      -6737.458      -6562.466    
  -6370.990      -6243.568      -6175.294      -6043.935      -5777.673    
  -5367.031      -4866.734      -4394.809      -4142.496      -4247.218    
  -4677.229      -5253.052      -5729.755      -5917.082      -5745.578    
  -5291.937      -4682.414      -3959.454      -3136.603      -2110.874    
  -827.6360       625.0073       2007.066       3104.670       3861.395    
   4315.964       4523.894       4498.106       4252.665       3779.651    
   3037.238       2021.334       895.0585      -17.95915      -454.7556    
  -399.7778      -48.42499       363.2009       686.3574       830.7592    
   670.9976       72.44882      -968.0625      -2252.007      -3471.668    
  -4337.193      -4684.595      -4431.552      -3642.403      -2471.526    
  -1213.926      -178.9426       417.5818       508.5456       179.1379    
  -379.8596      -942.5110      -1296.893      -1301.565      -943.1564    
  -368.8176       135.4456       264.4312      -146.1011      -1020.741    
  -2067.272      -2921.106      -3298.087      -3094.228      -2391.750    
  -1394.625      -366.3037       457.0308       974.7929       1257.937    
   1451.187       1670.243       1960.805       2287.359       2545.413    
   2621.703       2450.528       2094.218       1744.646       1579.017    
   1701.032       2173.023       2951.892       3849.049       4620.625    
   5099.440       5242.866       5113.528       4877.122       4751.213    
   4839.186       5052.528       5142.228       4887.447       4177.588    
   3121.874       2044.073       1242.356       747.3913       388.1658    
   20.82410      -362.1383      -656.9706      -663.6927      -147.8108    
   964.7877       2457.263       3862.687       4657.100       4558.155    
   3714.723       2576.982       1615.697       1102.516       1062.891    
   1299.297       1497.639       1413.953       1014.422       449.3814    
  -62.09409      -330.3496      -245.4996       133.0685       556.8142    
   690.3646       286.3882      -716.8513      -2168.452      -3698.208    
  -4827.688      -5300.452      -5200.599      -4902.493      -4804.358    
  -5148.975      -5856.350      -6597.660      -7070.538      -7101.625    
  -6758.740      -6294.923      -6009.059      -5893.274      -5599.893    
  -4779.869      -3361.286      -1589.426       134.0060       1431.959    
   2128.950       2266.234       2047.916       1783.001       1710.284    
   1811.725       1897.319       1887.160       1887.085       1958.048    
   1984.600       1812.782       1363.094       634.9601      -326.5897    
  -1451.474      -2649.535      -3768.558      -4615.165      -5088.302    
  -5199.438      -5016.208      -4565.432      -3884.017      -2968.790    
  -1907.578      -901.5598      -194.6183       85.25012      -19.06097    
  -363.3625      -764.1647      -1030.068      -1007.863      -641.0358    
  -1.857971       718.2170       1379.988       2000.574       2576.094    
   2970.398       3010.805       2653.105       2064.939       1535.503    
   1271.739       1248.731       1259.875       1098.840       657.9723    
  -27.65051      -753.2710      -1212.428      -1191.070      -726.7445    
  -27.17156       746.7208       1562.821       2433.066       3375.036    
   4379.917       5337.887       6002.362       6165.718       5829.854    
   5156.315       4280.162       3298.534       2386.861       1763.556    
   1502.522       1541.146       1776.711       2091.790       2350.859    
   2459.279       2365.874       2006.457       1305.731       234.0569    
  -1093.725      -2421.389      -3503.738      -4245.462      -4655.445    
  -4775.522      -4667.144      -4402.514      -3969.092      -3265.721    
  -2254.602      -1097.452      -90.72768       574.4360       881.8222    
   894.8026       770.6808       729.5677       853.7439       1035.157    
   1131.423       1042.401       716.0281       239.6908      -82.51930    
   26.88789       504.0073       1047.301       1435.887       1609.277    
   1572.049       1411.326       1329.047       1507.172       1935.250    
   2463.863       2907.780       3036.425       2695.017       1989.019    
   1173.632       459.4832      -40.03961      -356.7098      -617.2587    
  -877.4485      -1055.995      -1064.986      -932.3959      -761.6159    
  -553.1604      -165.4476       452.3796       1085.116       1431.929    
   1293.029       670.7272      -230.9523      -1117.880      -1791.208    
  -2212.370      -2449.926      -2581.827      -2664.734      -2744.806    
  -2841.218      -2924.289      -2943.025      -2908.621      -2901.453    
  -3020.391      -3306.806      -3740.186      -4237.514      -4685.225    
  -4930.292      -4775.341      -4146.140      -3166.832      -2123.560    
  -1247.072      -625.2939      -260.3444      -143.7973      -262.8113    
  -509.1215      -654.4236      -505.0037      -45.24889       542.3666    
   1002.925       1234.260       1378.492       1627.874       2045.547    
   2544.802       2920.276       2988.598       2795.969       2609.030    
   2672.604       2991.350       3340.111       3484.494       3381.394    
   3134.556       2835.956       2515.842       2171.603       1801.648    
   1378.483       873.9667       365.5068       94.99704       306.3831    
   1006.269       1942.433       2751.107       3063.396       2608.874    
   1423.469      -48.61055      -1275.809      -1989.107      -2150.145    
  -1844.519      -1316.014      -922.5415      -921.9860      -1336.024    
  -2047.892      -2943.199      -3913.229      -4811.726      -5478.465    
  -5894.699      -6128.883      -6144.555      -5771.286      -4922.467    
  -3778.625      -2671.936      -1841.225      -1347.885      -1128.909    
  -1007.026      -709.0389      -31.54257       990.8429       2054.946    
   2790.403       3060.838       3004.379       2840.190       2688.465    
   2563.165       2457.779       2336.479       2122.957       1786.133    
   1353.031       811.5952       105.4519      -704.1339      -1436.410    
  -1944.879      -2210.547      -2255.218      -2088.793      -1734.797    
  -1221.887      -554.7973       225.5377       1062.643       1922.530    
   2795.549       3669.511       4546.272       5437.290       6302.063    
   6981.803       7380.525       7532.787       7608.954       7752.705    
   7939.840       8079.722       8122.030       7988.430       7574.730    
   6889.291       6032.251       5173.440       4460.752       4000.288    
   3790.968       3671.664       3358.885       2651.086       1571.504    
   331.1412      -831.0688      -1821.342      -2708.703      -3574.170    
  -4401.958      -5130.898      -5675.577      -5983.760      -6104.881    
  -6209.776      -6469.933      -6929.258      -7481.121      -7982.072    
  -8257.688      -8123.187      -7491.018      -6546.063      -5584.354    
  -4807.805      -4257.366      -3851.437      -3404.601      -2708.663    
  -1709.613      -519.5554       701.1691       1829.982       2756.116    
   3292.403       3251.192       2682.772       1893.649       1220.882    
   875.1985       914.6957       1229.495       1581.625       1720.967    
   1488.431       920.4397       241.2401      -291.1426      -560.4128    
  -643.5272      -694.1036      -790.8549      -912.4902      -1044.001    
  -1198.042      -1342.718      -1377.085      -1272.479      -1169.539    
  -1202.595      -1298.516      -1270.368      -1059.178      -741.1082    
  -359.9063       108.0711       598.1354       932.4048       984.4837    
   760.9000       345.0659      -194.5152      -811.9225      -1482.686    
  -2198.830      -2877.164      -3319.888      -3367.057      -3112.498    
  -2832.406      -2819.022      -3164.184      -3854.162      -4817.609    
  -5872.527      -6710.709      -7040.306      -6712.104      -5786.880    
  -4474.753      -3019.388      -1616.601      -533.4691      -15.21032    
  -86.29018      -483.3708      -802.7517      -696.8501      -23.94849    
   1110.026       2362.877       3287.991       3613.376       3438.790    
   3045.335       2658.786       2436.031       2421.108       2479.641    
   2400.337       2129.410       1797.291       1487.402       1144.942    
   687.1377       92.90179      -620.5012      -1445.042      -2342.959    
  -3205.035      -3863.653      -4119.587      -3847.760      -3097.893    
  -2071.064      -1039.258      -262.0053       131.7799       211.8429    
   141.1232       3.026306      -238.5949      -666.0220      -1333.076    
  -2194.836      -3028.722      -3540.485      -3589.089      -3231.472    
  -2608.073      -1901.519      -1305.475      -935.6226      -772.4644    
  -729.5303      -763.3401      -901.1298      -1192.197      -1660.357    
  -2247.292      -2781.854      -3052.493      -2983.660      -2751.334    
  -2588.526      -2641.840      -2864.287      -3073.949      -3005.706    
  -2425.990      -1292.217       210.5292       1808.065       3249.761    
   4337.703       5025.032       5454.291       5816.464       6196.976    
   6555.937       6715.274       6405.595       5466.396       4147.704    
   3002.760       2456.159       2531.631       2994.095       3619.318    
   4290.614       4961.864       5540.053       5960.589       6070.292    
   5665.146       4668.279       3286.280       1973.967       1082.527    
   712.7732       778.0431       1136.394       1587.010       1936.940    
   2037.488       1733.498       922.1892      -371.2146      -1830.675    
  -2944.293      -3240.745      -2529.300      -1001.112       889.2538    
   2683.084       4056.896       4818.527       4921.897       4369.453    
   3313.343       2036.375       821.7232      -311.6503      -1594.615    
  -3243.118      -5261.741      -7424.481      -9389.563      -10812.69    
  -11507.55      -11551.60      -11195.48      -10664.75      -10110.42    
  -9738.824      -9828.286      -10513.48      -11595.43      -12667.37    
  -13303.55      -13240.60      -12387.64      -10753.12      -8388.944    
  -5550.744      -2626.000       76.34442       2476.208       4622.244    
   6555.665       8306.007       9899.087       11289.66       12268.66    
   12611.97       12133.00       10870.59       9133.870       7380.226    
   6043.540       5408.603       5404.308       5633.499       5496.752    
   4453.304       2336.795      -527.8818      -3504.799      -5981.922    
  -7598.574      -8443.764      -8917.926      -9395.500      -9942.073    
  -10366.36      -10461.33      -10196.72      -9670.780      -9011.881    
  -8315.378      -7573.588      -6629.692      -5079.823      -2439.468    
   1501.021       6795.146       12981.72       19433.06       25236.44    
   29356.91       31060.29       29749.20       26949.53       23164.42    
   19618.14       17392.98       16899.33       17686.96       18853.60    
   19488.20       18879.31       16656.23       13125.60       9181.842    
   5748.269       3283.620       1878.639       1606.691       2583.791    
   4637.138       7115.896       9140.490       10103.48       9853.668    
   8677.111       7208.907       6276.171       6432.155       7650.367    
   9411.091       10987.73       11800.29       11828.25       11454.38    
   11085.33       10951.20       10974.86       10845.00       10223.91    
   8831.710       6633.181       3968.902       1617.087       427.4360    
   815.0039       2516.408       4791.038       6833.729       8056.615    
   8082.458       6731.125       4065.225       362.4048      -3953.109    
  -8607.676      -13075.91      -16646.43      -19197.11      -19900.14    
  -18541.71      -15569.11      -12062.29      -9364.686      -8330.461    
  -8847.999      -10144.49      -11472.28      -12598.32      -13546.99    
  -14251.95      -14498.73      -13990.95      -12731.55      -11236.63    
  -10089.70      -9508.293      -9520.332      -10198.36      -11881.32    
  -14125.62      -16783.55      -19316.31      -20701.66      -21012.78    
  -19358.32      -15760.93      -11018.47      -6374.754      -2841.989    
  -807.1982      -42.67407      -138.0188      -883.8690      -2254.834    
  -4134.299      -6079.112      -7245.553      -6686.767      -4083.623    
  -167.1885       3719.200       6433.320       7245.662       5823.943    
   2338.237      -2314.372      -6889.727      -10552.36      -12978.14    
  -14052.74      -13744.58      -12162.51      -9500.447      -5907.783    
  -1805.996       1782.732       3528.817       2681.706      -373.8907    
  -4294.961      -7479.172      -8853.539      -8177.048      -5974.098    
  -3184.113      -746.0676       845.6459       1516.197       1405.603    
   818.7460       415.9014       1081.002       3282.770       6637.918    
   10290.23       13808.81       16743.45       19573.57       22426.34    
   25119.37       27299.07       28500.55       28325.93       26974.63    
   25407.44       24786.58       25483.93       26349.56       26883.59    
   25896.59       23632.67       21100.93       19409.88       18953.24    
   19027.78       18347.36       16051.51       12450.72       8866.016    
   6589.382       6170.420       7175.086       8490.229       8870.808    
   7596.707       4925.090       1759.911      -1010.343      -3006.046    
  -4354.085      -5284.226      -5672.836      -5036.121      -2968.523    
   475.8754       4590.521       8223.536       10470.19       11156.72    
   10677.59       9482.376       7896.647       6102.546       4148.127    
   1969.767      -353.0627      -2424.120      -3872.891      -4803.386    
  -5654.085      -6689.639      -7877.134      -9030.301      -10042.05    
  -11138.79      -12684.11      -14768.80      -17028.95      -18990.06    
  -20722.27      -21343.46      -21807.75      -21696.05      -20970.08    
  -19755.70      -18357.82      -17225.36      -17182.53      -18069.25    
  -19786.93      -21095.17      -21804.84      -21354.26      -20023.91    
  -18355.73      -16725.19      -15212.98      -13618.06      -11585.75    
  -8875.001      -5865.584      -3619.444      -3083.891      -4361.651    
  -6631.604      -8706.664      -9739.267      -9394.829      -7760.751    
  -5119.942      -1827.602       1729.264       5053.941       7485.319    
   8391.309       7534.361       5368.524       2849.703       898.0614    
   22.42566       397.1058       1876.093       3894.942       5691.509    
   6802.005       7294.378       7415.564       7096.973       5917.900    
   3590.910       317.8065      -3294.550      -6642.469      -9238.340    
  -10792.98      -11409.16      -11475.36      -11303.85      -10872.46    
  -10059.86      -8854.937      -7365.938      -5854.104      -4614.266    
  -3687.132      -2848.419      -1885.135      -901.0947      -308.8760    
  -389.0264      -962.9084      -1268.886      -501.4189       1577.122    
   4534.567       7579.271       9997.618       11447.58       11976.86    
   11879.96       11503.54       11086.25       10633.82       9914.835    
   8690.483       6777.788       4293.588       1695.282      -533.7655    
  -2191.395      -3422.398      -4545.322      -5855.453      -7545.419    
  -9744.859      -12557.40      -15765.74      -18734.04      -20835.34    
  -21893.33      -22182.83      -21942.26      -21083.98      -19213.37    
  -15901.50      -11217.15      -5880.881      -1046.342       2199.443    
   3281.391       2318.062       16.52319      -2688.109      -4952.125    
  -6293.171      -6542.155      -5611.894      -3543.336      -692.4893    
   2279.324       4687.174       6196.929       6855.357       6811.496    
   6160.429       5015.795       3604.968       2224.329       1110.657    
   355.7839       88.31494       279.1770       726.5732       979.7007    
   578.6475      -779.6763      -3052.306      -5828.418      -8513.303    
  -10629.57      -12067.66      -12992.45      -13480.71      -13203.48    
  -11763.85      -9134.615      -5854.959      -2685.776      -222.2869    
   1377.962       2360.089       3071.162       3652.320       4078.456    
   4369.421       4564.893       4724.101       4951.333       5240.717    
   5502.815       5708.848       5930.115       6221.760       6473.959    
