  0.2500000e-01  -33334.40       32115.25      -12345.00      -12345.00    
  -5.000015       294.9750             0.      -12345.00       2.000000    
  -12345.00      -12345.00      -12345.00      -12345.00      -12345.00    
  -12345.00      -12345.00      -12345.00      -12345.00      -12345.00    
  -12345.00      -12345.00      -12345.00      -12345.00      -12345.00    
  -12345.00      -12345.00      -12345.00      -12345.00      -12345.00    
  -12345.00       40.74483      -115.2388       2210.440             0.    
   37.85200      -118.1230      -12345.00      -12345.00      -12345.00    
  -12345.00      -12345.00      -12345.00      -12345.00      -12345.00    
  -12345.00      -12345.00      -12345.00      -12345.00      -12345.00    
   406.2044       36.86216       218.6824       3.653861      -12345.00    
  -12345.00       133.8095       89.99994       90.00000      -12345.00    
  -12345.00      -12345.00      -12345.00      -12345.00      -12345.00    
  -12345.00      -12345.00      -12345.00      -12345.00      -12345.00    
      1982       267         7        40        24
       296         6         0         0     12000
    -12345    -12345    -12345    -12345    -12345
         1         7        11    -12345    -12345
    -12345    -12345    -12345    -12345    -12345
    -12345    -12345    -12345    -12345    -12345
    -12345    -12345    -12345    -12345    -12345
         1         1         1         1         0
ELK     -12345  -12345  
[...]
   5738.604       5566.548       5402.231       5306.535       5192.742    
   4920.212       4470.434       3919.007       3281.400       2663.824    
   2308.908       2415.248       2890.272       3381.833       3564.677    
   3317.839       2661.959       1666.438       479.4177      -677.3787    
  -1586.138      -2109.416      -2243.704      -2187.970      -2239.722    
  -2590.703      -3212.319      -3964.290      -4760.111      -5537.801    
  -6112.472      -6256.436      -5945.990      -5381.981      -4834.950    
  -4453.294      -4231.922      -4077.241      -3872.186      -3507.992    
  -2948.234      -2277.601      -1581.091      -827.7226       32.78180    
   923.6985       1652.679       2049.244       2142.033       2165.706    
   2346.786       2743.050       3300.441       3955.475       4636.082    
   5224.378       5681.750       6006.681       6125.955       5957.792    
   5511.958       4892.410       4246.300       3738.534       3484.065    
   3496.074       3674.053       3831.028       3818.993       3631.706    
   3360.536       3066.964       2707.471       2238.052       1718.669    
   1307.416       1155.384       1313.254       1697.204       2127.925    
   2428.071       2426.958       1973.501       1127.748       191.9507    
  -592.7115      -1242.056      -1873.567      -2513.046      -3111.016    
  -3600.889      -3957.431      -4266.261      -4671.804      -5235.540    
  -5919.120      -6633.152      -7268.774      -7696.792      -7815.848    
  -7688.383      -7453.614      -7210.751      -7010.916      -6870.357    
  -6815.865      -6907.072      -7216.649      -7710.979      -8300.391    
  -8933.588      -9675.920      -10642.94      -11820.24      -13018.20    
  -13996.80      -14634.51      -14921.28      -14927.58      -14686.41    
  -14229.58      -13622.52      -12898.74      -11982.15      -10728.91    
  -8996.122      -6786.664      -4234.456      -1641.242       682.0543    
   2535.907       3878.235       4799.644       5429.551       5848.461    
   6147.822       6435.462       6782.098       7279.914       8042.621    
   9096.984       10378.18       11729.80       13033.39       14171.93    
   15036.60       15492.96       15513.88       15160.97       14639.06    
   14067.18       13459.18       12646.94       11448.69       9869.924    
   8021.115       6045.875       4081.573       2289.521       876.6074    
   26.53888      -101.6444       555.5726       1873.561       3516.781    
   5030.418       6048.547       6454.292       6522.332       6739.336    
   7505.829       8888.851       10703.78       12762.50       14825.58    
   16732.87       18229.53       19119.84       19383.62       19152.99    
   18677.46       17940.63       16934.89       15617.99       13874.58    
   11486.57       8366.098       4578.096       225.7321      -4596.582    
  -9633.098      -14394.30      -18216.44      -20546.54      -21089.68    
  -20041.85      -17714.14      -14668.84      -11654.24      -9472.587    
  -8710.805      -9462.703      -11293.97      -13480.73      -15409.70    
  -16774.03      -17482.43      -17515.55      -16869.76      -15659.76    
  -14087.35      -12551.37      -11394.26      -10791.00      -10826.93    
  -11832.77      -14136.38      -17813.52      -22288.45      -26470.35    
  -29050.74      -28970.61      -26021.99      -20805.50      -14842.42    
  -9900.067      -7319.052      -7558.826      -10287.93      -14617.44    
  -19217.25      -22579.70      -23497.22      -21598.36      -17668.76    
  -13182.49      -9770.031      -8551.450      -9731.977      -12567.18    
  -15516.98      -17020.66      -15820.65      -11551.15      -4958.035    
   2132.067       7456.849       9540.224       8529.985       5944.497    
   3522.300       2303.444       2441.652       3481.966       4877.811    
   6313.918       7523.253       7904.098       6663.793       3373.382    
  -1576.067      -6894.104      -10762.86      -11530.56      -8670.889    
  -3019.865       3737.264       9992.713       14833.71       18062.61    
   19961.23       20588.16       19949.37       18148.01       15373.64    
   12109.72       9495.372       9028.949       11578.59       16539.41    
   21726.47       24592.63       23522.37       18884.27       12603.49    
   7089.865       4238.428       4717.575       7866.494       12463.28    
   16822.71       19226.92       18256.01       13783.75       7482.782    
   1962.832      -794.6772      -389.2104       2138.249       5070.680    
   6860.374       6831.041       5183.888       2683.110       272.6317    
  -1311.322      -1816.073      -1486.779      -723.2778       19.26025    
   453.6604       528.9172       807.3027       2316.689       5497.104    
   9927.514       14277.66       17318.07       18493.49       18048.05    
   16447.15       13944.41       10745.83       7231.790       3903.241    
   1356.301       318.6150       1347.786       4223.202       7982.838    
   11619.07       14476.88       15946.56       15380.75       12376.38    
   7135.708       631.9567      -5552.439      -9857.689      -11566.96    
  -11122.84      -9796.762      -8804.752      -8638.233      -9105.152    
  -9762.729      -10043.26      -9476.526      -8111.740      -6544.913    
  -5373.949      -4740.026      -4434.691      -4353.406      -4652.061    
  -5485.952      -6605.554      -7190.041      -6350.206      -3913.737    
  -677.4984       1959.197       2734.974       1138.497      -2418.023    
  -6949.780      -11506.25      -15544.20      -18576.40      -20278.33    
  -20675.57      -20232.10      -19513.81      -19009.13      -19136.82    
  -20077.26      -21648.24      -23528.83      -25703.74      -28021.28    
  -30164.32      -31428.77      -31375.96      -30061.36      -28030.53    
  -25836.46      -23871.38      -22497.71      -21942.80      -22003.22    
  -21927.67      -21085.79      -19329.99      -17240.21      -15469.57    
  -14077.92      -12635.39      -10877.29      -9192.651      -8430.621    
  -9192.267      -11202.76      -13414.20      -14614.48      -14004.61    
  -11594.57      -8084.417      -4394.799      -923.7490       2625.094    
   6626.650       10937.23       14939.71       18000.65       20080.12    
   21654.48       23421.80       25813.27       28628.88       30995.19    
   32115.25       31891.34       31069.87       30596.44       30832.52    
   31264.41       31174.09       30040.39       27963.09       25412.25    
   22635.24       20185.57       18163.54       16898.77       16756.32    
   17712.93       19305.46       20881.49       21662.28       21221.81    
   19114.59       15716.28       11940.45       9282.068       8730.637    
   10137.20       12187.63       13337.58       12851.31       11054.71    
   8976.702       7791.843       8459.119       11047.53       14423.55    
   17054.87       18103.24       17879.88       17292.70       17122.81    
   17618.96       18447.02       18949.74       18612.28       17385.69    
   15608.74       13774.47       12243.41       11037.62       9855.279    
   8391.795       6589.880       4617.806       2651.938       722.2804    
  -1192.807      -3020.768      -4601.057      -5782.623      -6578.128    
  -7154.583      -7767.575      -8630.373      -9663.963      -10452.82    
  -10536.72      -9755.688      -8384.895      -7067.798      -6540.631    
  -7195.875      -8917.582      -11384.07      -14326.33      -17733.76    
  -21386.09      -24647.99      -26690.96      -26997.24      -25667.48    
  -23428.77      -20939.61      -18799.58      -17356.09      -16508.26    
  -15766.49      -14731.98      -13422.72      -12023.95      -10705.83    
  -9609.173      -8848.918      -8307.737      -7488.312      -5798.835    
  -3047.514       258.9639       3180.174       4820.321       4863.988    
   3708.527       2434.621       2391.852       4523.264       8693.599    
   13859.94       18734.00       22404.08       24467.04       24876.00    
   23777.45       21690.09       19155.61       16800.36       14998.28    
   13893.72       13506.51       13784.84       14450.45       14952.63    
   14688.85       13518.31       11962.17       10738.31       10376.88    
   11162.26       13109.43       15730.11       18211.32       19909.65    
   20507.64       20244.81       19515.01       18725.52       18302.51    
   18523.88       19435.05       20598.04       21465.59       21813.00    
   21803.67       21567.13       21073.60       20017.31       18339.37    
   16255.80       14003.47       11850.65       10166.13       9352.689    
   9490.417       10184.65       10786.62       10875.37       10519.83    
   10037.40       9677.188       9412.762       8810.637       7272.693    
   4501.347       854.0931      -2685.626      -4905.986      -5071.302    
  -3366.036      -709.2818       1775.011       3186.810       3205.711    
   2139.589       540.4031      -1317.319      -3511.859      -6109.275    
  -8873.863      -11362.77      -13100.96      -13799.66      -13483.57    
  -12597.25      -11714.10      -11148.75      -11010.82      -11338.66    
  -12153.74      -13359.55      -14658.62      -15697.65      -16293.23    
  -16413.05      -16115.84      -15457.25      -14400.10      -12820.82    
  -10595.31      -7858.757      -4922.705      -2113.522       483.8481    
   3052.812       5875.875       9108.391       12615.14       16010.98    
   18690.29       20211.38       20578.65       20270.91       19528.73    
   18388.25       16884.14       15389.09       14601.19       14850.52    
   15821.46       16805.65       17068.85       16435.91       15199.64    
   13882.14       12848.02       12229.46       11879.83       11505.55    
   10804.53       9618.577       7994.895       6005.577       3777.697    
   1513.070      -792.6301      -2971.373      -4895.589      -6403.936    
  -7401.379      -7997.287      -8405.938      -8802.701      -9284.793    
  -9853.752      -10515.31      -11189.69      -11732.74      -12085.54    
  -12400.89      -12851.52      -13303.48      -13335.40      -12673.58    
  -11484.21      -10275.62      -9506.622      -9407.932      -9900.025    
  -10659.77      -11296.12      -11507.59      -11290.48      -10958.11    
  -10892.77      -11241.03      -11783.14      -12154.49      -12098.30    
  -11687.68      -11273.48      -11206.52      -11490.32      -11832.96    
  -11894.18      -11532.73      -10761.95      -9683.682      -8426.023    
  -7078.160      -5671.979      -4086.143      -2242.661      -351.8860    
   1103.052       1691.439       1414.895       678.3511      -106.2043    
  -752.0149      -1209.871      -1428.130      -1388.883      -1193.078    
  -918.9553      -490.8787       236.7655       1268.747       2442.450    
   3616.102       4818.315       6127.844       7329.228       7989.948    
   7750.779       6628.135       4952.505       3143.481       1514.537    
   119.3755      -1187.795      -2675.772      -4452.469      -6286.158    
  -7788.800      -8739.828      -9209.702      -9468.801      -9856.593    
  -10661.33      -11984.49      -13709.63      -15536.35      -17005.13    
  -17595.81      -16895.22      -14823.60      -11777.13      -8506.188    
  -5742.900      -4002.395      -3401.062      -3778.319      -4838.028    
  -6328.217      -8044.144      -9910.366      -11914.32      -14013.51    
  -16014.93      -17802.48      -19346.42      -20481.64      -20956.47    
  -20621.94      -19787.59      -18774.51      -17828.93      -17068.21    
  -16664.10      -16798.67      -17360.19      -17852.74      -17520.95    
  -15722.66      -12159.50      -7035.862      -1110.449       4469.007    
   8552.046       10599.05       10891.29       10224.27       9414.229    
   8938.298       8899.191       9100.761       9218.211       9022.654    
   8495.374       7725.993       6788.427       5674.542       4421.903    
   3186.063       2214.996       1723.197       1770.047       2314.235    
   3313.927       4786.655       6755.637       9167.002       11754.68    
   14053.25       15618.75       16289.98       16288.52       16026.43    
   15715.70       15310.57       14587.70       13412.06       11946.20    
   10331.81       8989.242       7828.636       6568.275       4935.687    
   2908.895       680.5566      -1595.621      -3942.765      -6483.154    
  -9212.172      -11958.80      -14405.20      -16365.22      -17819.28    
  -18919.34      -20034.96      -21613.88      -23852.76      -26532.02    
  -29202.47      -31407.59      -32800.63      -33334.40      -32915.43    
  -31756.74      -30358.30      -28904.31      -27652.52      -26559.96    
  -25526.45      -24504.99      -23580.50      -22697.26      -21780.33    
  -20607.41      -19145.04      -17441.28      -15556.95      -13585.12    
  -11577.45      -9531.662      -7520.113      -5768.238      -4470.033    
  -3589.776      -2846.149      -2031.203      -1137.114      -240.7454    
   676.6279       1734.942       3003.824       4387.332       5670.368    
   6672.121       7300.536       7598.536       7866.513       8444.967    
   9533.907       10985.49       12441.02       13642.07       14519.39    
   15071.60       15336.93       15465.10       15657.66       15932.05    
   16208.44       16412.49       16598.69       16811.65       16998.52    
   17056.05       16862.50       16322.56       15302.11       13809.58    
   12050.86       10390.78       9128.361       8320.139       7701.628    
   6837.748       5355.280       3276.632       1073.625      -584.9919    
  -1247.720      -937.4391      -90.61301       725.7982       1129.944    
   1090.038       802.9349       435.8701       20.54639      -435.7354    
  -840.7954      -1077.615      -1127.726      -1066.933      -914.3055    
  -570.3953       41.92957       828.0118       1513.795       1811.838    
   1622.049       1068.072       377.9636      -241.8971      -645.7988    
  -698.1245      -314.6083       448.1384       1369.585       2223.989    
   2938.842       3614.108       4343.421       5107.284       5716.976    
   5943.949       5638.221       4959.412       4323.503       4173.343    
   4678.498       5651.381       6775.893       7796.341       8540.430    
   8819.016       8508.282       7721.354       6795.729       6015.297    
   5456.156       5097.613       4917.183       4873.138       4872.190    
   4767.179       4528.093       4235.052       4047.702       4149.888    
   4703.049       5695.297       6985.112       8361.030       9669.817    
   10810.92       11684.03       12143.37       12070.59       11344.78    
   9936.275       7957.851       5678.438       3398.684       1295.082    
  -611.0742      -2381.138      -4035.250      -5543.567      -6860.087    
  -7963.813      -8758.930      -9157.449      -9156.510      -8901.546    
  -8608.196      -8516.509      -8765.669      -9342.937      -10060.78    
  -10647.21      -10821.73      -10330.65      -9081.610      -7156.111    
  -4835.220      -2433.268      -181.7710       1801.739       3415.592    
   4579.667       5240.306       5348.813       4892.831       3965.609    
   2771.429       1572.675       577.9453      -121.0537      -559.0396    
  -840.9302      -1089.044      -1431.130      -2016.185      -2982.010    
  -4391.157      -6141.495      -7942.897      -9424.063      -10291.09    
  -10429.24      -10035.30      -9497.369      -9165.456      -9105.024    
  -9225.604      -9414.747      -9582.848      -9653.041      -9548.547    
  -9302.025      -9018.223      -8747.669      -8491.818      -8190.561    
  -7837.658      -7435.338      -7024.902      -6679.803      -6424.919    
  -6177.387      -5764.687      -5068.772      -4147.834      -3140.741    
  -2135.785      -1142.675      -120.8363       954.3984       2070.546    
   3153.215       4144.773       4961.549       5560.705       5920.950    
   6046.045       6007.650       5868.698       5656.036       5327.167    
   4826.166       4173.985       3607.142       3406.452       3720.185    
   4462.407       5374.450       6222.446       6929.262       7527.563    
   8090.457       8623.421       8936.115       8761.325       7955.396    
   6656.425       5295.891       4268.587       3740.315       3588.454    
   3648.996       3837.459       4110.405       4364.112       4451.162    
   4281.258       3866.369       3251.387       2411.856       1272.016    
  -215.2046      -1931.672      -3661.042      -5167.866      -6254.917    
  -6842.890      -7021.231      -6999.314      -7031.958      -7327.541    
  -7961.382      -8912.146      -10046.90      -11227.36      -12266.55    
  -12990.04      -13380.72      -13567.89      -13704.79      -13806.93    
  -13793.62      -13614.95      -13281.86      -12734.05      -12012.67    
  -11109.59      -10148.62      -9249.229      -8478.448      -7809.255    
  -7148.783      -6383.734      -5433.387      -4331.777      -3209.391    
  -2172.860      -1343.266      -638.2136      -249.8867      -341.2251    
  -930.0583      -1785.171      -2592.831      -3087.870      -3222.314    
  -3100.613      -2838.802      -2508.624      -2057.696      -1371.285    
  -376.3898       893.0109       2297.763       3657.883       4858.425    
   5910.601       6900.282       7919.688       9079.320       10371.18    
   11634.53       12625.74       13182.39       13318.69       13162.91    
   12822.24       12346.42       11756.19       11104.19       10405.88    
   9644.786       8829.596       8081.041       7595.165       7488.582    
   7727.353       8131.366       8490.579       8675.960       8659.030    
   8467.236       8208.147       8022.509       7990.444       8009.085    
   7903.311       7585.989       7066.439       6510.124       6031.794    
   5663.177       5288.140       4721.673       3779.728       2345.154    
   449.1087      -1661.599      -3580.835      -4979.997      -5700.304    
  -5739.628      -5156.362      -4074.919      -2726.944      -1336.213    
