  0.2500000e-01  -36288.00       29864.00      -12345.00      -12345.00    
  -5.000015       294.9750             0.      -12345.00       2.000000    
  -12345.00      -12345.00      -12345.00      -12345.00      -12345.00    
  -12345.00      -12345.00      -12345.00      -12345.00      -12345.00    
  -12345.00      -12345.00      -12345.00      -12345.00      -12345.00    
  -12345.00      -12345.00      -12345.00      -12345.00      -12345.00    
  -12345.00       37.01661      -112.8224       1714.500             0.    
   37.85200      -118.1230      -12345.00      -12345.00      -12345.00    
  -12345.00      -12345.00      -12345.00      -12345.00      -12345.00    
  -12345.00      -12345.00      -12345.00      -12345.00      -12345.00    
   478.1191       99.56704       282.7769       4.300311      -12345.00    
  -12345.00      -50.23125             0.             0.      -12345.00    
  -12345.00      -12345.00      -12345.00      -12345.00      -12345.00    
  -12345.00      -12345.00      -12345.00      -12345.00      -12345.00    
      1982       267         7        40        24
       296         6         0         0     12000
    -12345    -12345    -12345    -12345    -12345
         1         7        11    -12345    -12345
    -12345    -12345    -12345    -12345    -12345
    -12345    -12345    -12345    -12345    -12345
    -12345    -12345    -12345    -12345    -12345
         1         1         1         1         0
KNB     -12345  -12345  
[...]
   4096.000       4400.000       4656.000       4864.000       4992.000    
   5024.000       5016.000       5072.000       5200.000       5328.000    
   5368.000       5312.000       5240.000       5240.000       5384.000    
   5720.000       6216.000       6784.000       7288.000       7592.000    
   7664.000       7552.000       7352.000       7104.000       6808.000    
   6416.000       5936.000       5368.000       4760.000       4136.000    
   3556.000       3049.000       2635.000       2285.000       1946.000    
   1587.000       1226.000       919.0000       714.0000       622.0000    
   632.0000       733.0000       902.0000       1099.000       1312.000    
   1579.000       1940.000       2397.000       2920.000       3492.000    
   4096.000       4688.000       5248.000       5776.000       6304.000    
   6856.000       7352.000       7712.000       7904.000       7960.000    
   7920.000       7824.000       7664.000       7400.000       7000.000    
   6480.000       5848.000       5096.000       4200.000       3135.000    
   1905.000       581.0000      -694.0000      -1780.000      -2629.000    
  -3305.000      -3921.000      -4560.000      -5264.000      -5976.000    
  -6616.000      -7096.000      -7392.000      -7544.000      -7648.000    
  -7840.000      -8176.000      -8608.000      -9048.000      -9416.000    
  -9720.000      -9952.000      -10120.00      -10208.00      -10232.00    
  -10224.00      -10216.00      -10200.00      -10152.00      -10064.00    
  -9936.000      -9720.000      -9432.000      -9088.000      -8720.000    
  -8336.000      -7920.000      -7480.000      -7024.000      -6552.000    
  -6104.000      -5672.000      -5232.000      -4704.000      -4050.000    
  -3269.000      -2441.000      -1669.000      -1037.000      -537.0000    
  -84.00000       412.0000       996.0000       1667.000       2385.000    
   3074.000       3647.000       4042.000       4248.000       4328.000    
   4312.000       4232.000       4093.000       3867.000       3551.000    
   3153.000       2686.000       2152.000       1546.000       888.0000    
   226.0000      -405.0000      -988.0000      -1500.000      -1891.000    
  -2139.000      -2290.000      -2417.000      -2562.000      -2727.000    
  -2923.000      -3169.000      -3454.000      -3707.000      -3824.000    
  -3755.000      -3537.000      -3238.000      -2879.000      -2444.000    
  -1923.000      -1323.000      -668.0000      -4.000000       591.0000    
   1033.000       1255.000       1228.000       954.0000       465.0000    
  -177.0000      -896.0000      -1627.000      -2342.000      -3048.000    
  -3761.000      -4488.000      -5272.000      -6120.000      -6984.000    
  -7808.000      -8496.000      -9032.000      -9408.000      -9672.000    
  -9880.000      -10048.00      -10176.00      -10288.00      -10384.00    
  -10512.00      -10688.00      -10944.00      -11264.00      -11544.00    
  -11704.00      -11672.00      -11488.00      -11208.00      -10864.00    
  -10464.00      -10000.00      -9488.000      -9000.000      -8584.000    
  -8296.000      -8112.000      -7968.000      -7752.000      -7384.000    
  -6888.000      -6304.000      -5704.000      -5128.000      -4520.000    
  -3788.000      -2842.000      -1688.000      -386.0000       1007.000    
   2449.000       3895.000       5280.000       6552.000       7688.000    
   8720.000       9664.000       10552.00       11360.00       12080.00    
   12664.00       13072.00       13288.00       13336.00       13272.00    
   13168.00       13008.00       12744.00       12272.00       11536.00    
   10544.00       9424.000       8296.000       7256.000       6320.000    
   5456.000       4648.000       3900.000       3231.000       2691.000    
   2308.000       2080.000       1979.000       1971.000       2031.000    
   2158.000       2366.000       2650.000       2973.000       3298.000    
   3630.000       4031.000       4584.000       5368.000       6384.000    
   7560.000       8784.000       9952.000       11000.00       11912.00    
   12696.00       13376.00       13992.00       14560.00       15032.00    
   15336.00       15408.00       15248.00       14968.00       14728.00    
   14664.00       14784.00       15056.00       15408.00       15752.00    
   15984.00       16016.00       15768.00       15256.00       14568.00    
   13792.00       12976.00       12080.00       11024.00       9728.000    
   8208.000       6552.000       4936.000       3512.000       2339.000    
   1418.000       678.0000       8.000000      -724.0000      -1627.000    
  -2761.000      -4120.000      -5672.000      -7328.000      -8992.000    
  -10584.00      -12080.00      -13408.00      -14472.00      -15192.00    
  -15560.00      -15680.00      -15744.00      -15912.00      -16216.00    
  -16544.00      -16744.00      -16712.00      -16456.00      -16040.00    
  -15536.00      -14968.00      -14352.00      -13648.00      -12784.00    
  -11768.00      -10688.00      -9680.000      -8816.000      -8128.000    
  -7640.000      -7336.000      -7120.000      -6896.000      -6568.000    
  -6104.000      -5496.000      -4800.000      -4120.000      -3581.000    
  -3259.000      -3203.000      -3414.000      -3879.000      -4552.000    
  -5368.000      -6176.000      -6848.000      -7280.000      -7368.000    
  -7080.000      -6472.000      -5656.000      -4680.000      -3573.000    
  -2366.000      -1183.000      -156.0000       637.0000       1180.000    
   1515.000       1717.000       1865.000       2029.000       2290.000    
   2744.000       3442.000       4328.000       5296.000       6240.000    
   7168.000       8136.000       9160.000       10216.00       11264.00    
   12224.00       13000.00       13504.00       13744.00       13864.00    
   14080.00       14528.00       15160.00       15808.00       16336.00    
   16736.00       17072.00       17432.00       17800.00       18088.00    
   18240.00       18272.00       18256.00       18200.00       17984.00    
   17480.00       16576.00       15224.00       13464.00       11376.00    
   9136.000       6912.000       4832.000       2939.000       1146.000    
  -604.0000      -2291.000      -3886.000      -5432.000      -7032.000    
  -8696.000      -10296.00      -11640.00      -12640.00      -13336.00    
  -13896.00      -14528.00      -15312.00      -16200.00      -17048.00    
  -17768.00      -18320.00      -18656.00      -18656.00      -18264.00    
  -17576.00      -16752.00      -15944.00      -15168.00      -14384.00    
  -13536.00      -12592.00      -11584.00      -10632.00      -9872.000    
  -9280.000      -8736.000      -8096.000      -7272.000      -6296.000    
  -5200.000      -4009.000      -2696.000      -1270.000       233.0000    
   1754.000       3222.000       4576.000       5816.000       6936.000    
   7928.000       8752.000       9408.000       9952.000       10408.00    
   10728.00       10840.00       10624.00       10008.00       8976.000    
   7608.000       6008.000       4272.000       2504.000       790.0000    
  -771.0000      -2163.000      -3436.000      -4608.000      -5648.000    
  -6528.000      -7272.000      -7960.000      -8616.000      -9184.000    
  -9536.000      -9576.000      -9336.000      -8944.000      -8600.000    
  -8440.000      -8440.000      -8488.000      -8496.000      -8424.000    
  -8200.000      -7640.000      -6584.000      -5016.000      -3106.000    
  -1074.000       878.0000       2615.000       4020.000       4976.000    
   5432.000       5368.000       4864.000       4059.000       3091.000    
   2075.000       1054.000       27.00000      -980.0000      -1888.000    
  -2589.000      -2982.000      -3019.000      -2743.000      -2294.000    
  -1863.000      -1624.000      -1680.000      -2023.000      -2526.000    
  -2997.000      -3249.000      -3193.000      -2918.000      -2635.000    
  -2507.000      -2522.000      -2567.000      -2582.000      -2620.000    
  -2776.000      -3061.000      -3376.000      -3591.000      -3633.000    
  -3527.000      -3355.000      -3195.000      -3110.000      -3168.000    
  -3417.000      -3834.000      -4328.000      -4824.000      -5232.000    
  -5488.000      -5584.000      -5536.000      -5400.000      -5208.000    
  -4952.000      -4680.000      -4408.000      -4136.000      -3864.000    
  -3552.000      -3222.000      -2921.000      -2684.000      -2493.000    
  -2252.000      -1809.000      -1016.000       181.0000       1720.000    
   3519.000       5560.000       7856.000       10336.00       12792.00    
   14984.00       16776.00       18168.00       19256.00       20168.00    
   21056.00       22024.00       23120.00       24328.00       25648.00    
   27080.00       28448.00       29472.00       29864.00       29584.00    
   28864.00       28016.00       27192.00       26376.00       25456.00    
   24328.00       22920.00       21224.00       19288.00       17176.00    
   14888.00       12400.00       9744.000       7008.000       4288.000    
   1651.000      -924.0000      -3450.000      -5944.000      -8440.000    
  -10880.00      -13112.00      -14912.00      -16168.00      -16936.00    
  -17368.00      -17656.00      -17872.00      -18000.00      -17968.00    
  -17760.00      -17392.00      -16936.00      -16384.00      -15640.00    
  -14672.00      -13536.00      -12304.00      -11048.00      -9792.000    
  -8552.000      -7272.000      -5864.000      -4296.000      -2656.000    
  -1089.000       298.0000       1545.000       2745.000       3900.000    
   4872.000       5488.000       5664.000       5456.000       5040.000    
   4584.000       4184.000       3829.000       3454.000       2965.000    
   2259.000       1292.000       116.0000      -1193.000      -2637.000    
  -4312.000      -6368.000      -8792.000      -11384.00      -13736.00    
  -15472.00      -16416.00      -16632.00      -16272.00      -15488.00    
  -14400.00      -13144.00      -11888.00      -10744.00      -9720.000    
  -8768.000      -7792.000      -6768.000      -5744.000      -4864.000    
  -4232.000      -3866.000      -3674.000      -3540.000      -3354.000    
  -3030.000      -2501.000      -1717.000      -682.0000       535.0000    
   1830.000       3111.000       4296.000       5320.000       6120.000    
   6720.000       7136.000       7368.000       7344.000       7048.000    
   6584.000       6112.000       5784.000       5648.000       5648.000    
   5640.000       5560.000       5368.000       5040.000       4544.000    
   3863.000       3023.000       2093.000       1155.000       276.0000    
  -502.0000      -1159.000      -1725.000      -2295.000      -2979.000    
  -3795.000      -4616.000      -5296.000      -5752.000      -6104.000    
  -6536.000      -7192.000      -8096.000      -9168.000      -10280.00    
  -11328.00      -12264.00      -13104.00      -13848.00      -14416.00    
  -14776.00      -14968.00      -15096.00      -15216.00      -15304.00    
  -15272.00      -15064.00      -14704.00      -14320.00      -14080.00    
  -14080.00      -14296.00      -14568.00      -14696.00      -14528.00    
  -13992.00      -13128.00      -12000.00      -10704.00      -9384.000    
  -8160.000      -7096.000      -6088.000      -4936.000      -3451.000    
  -1562.000       647.0000       3028.000       5392.000       7536.000    
   9280.000       10520.00       11256.00       11552.00       11424.00    
   10880.00       9944.000       8640.000       7032.000       5192.000    
   3288.000       1506.000      -7.000000      -1173.000      -1929.000    
  -2225.000      -2059.000      -1476.000      -537.0000       691.0000    
   2112.000       3607.000       5072.000       6456.000       7752.000    
   8928.000       10032.00       11112.00       12200.00       13280.00    
   14296.00       15280.00       16336.00       17520.00       18800.00    
   20120.00       21456.00       22824.00       24176.00       25368.00    
   26256.00       26776.00       26992.00       27040.00       27032.00    
   26984.00       26840.00       26544.00       26080.00       25504.00    
   24840.00       24120.00       23400.00       22696.00       21960.00    
   21008.00       19632.00       17680.00       15168.00       12240.00    
   9064.000       5704.000       2199.000      -1458.000      -5264.000    
  -9208.000      -13216.00      -17088.00      -20584.00      -23552.00    
  -25936.00      -27840.00      -29400.00      -30776.00      -32120.00    
  -33408.00      -34688.00      -35648.00      -36224.00      -36288.00    
  -35840.00      -35008.00      -33728.00      -32160.00      -30312.00    
  -28320.00      -26320.00      -24456.00      -22784.00      -21312.00    
  -20024.00      -18904.00      -17952.00      -17104.00      -16224.00    
  -15160.00      -13816.00      -12168.00      -10360.00      -8616.000    
  -7080.000      -5720.000      -4392.000      -3007.000      -1612.000    
  -346.0000       709.0000       1598.000       2445.000       3345.000    
   4304.000       5288.000       6232.000       7104.000       7872.000    
   8472.000       8864.000       9064.000       9128.000       9144.000    
   9112.000       8976.000       8672.000       8192.000       7592.000    
   6960.000       6296.000       5568.000       4752.000       3913.000    
   3138.000       2518.000       2083.000       1793.000       1579.000    
   1402.000       1277.000       1255.000       1380.000       1654.000    
   2011.000       2341.000       2557.000       2653.000       2731.000    
   2954.000       3455.000       4256.000       5288.000       6392.000    
   7392.000       8128.000       8568.000       8768.000       8848.000    
   8872.000       8848.000       8768.000       8648.000       8584.000    
   8704.000       9088.000       9688.000       10312.00       10760.00    
   10960.00       10992.00       10944.00       10896.00       10904.00    
   11048.00       11376.00       11856.00       12352.00       12712.00    
   12800.00       12552.00       11920.00       10880.00       9472.000    
   7776.000       5920.000       4030.000       2222.000       652.0000    
  -534.0000      -1269.000      -1609.000      -1701.000      -1701.000    
  -1720.000      -1810.000      -1976.000      -2204.000      -2495.000    
  -2877.000      -3355.000      -3859.000      -4248.000      -4424.000    
  -4360.000      -4104.000      -3723.000      -3228.000      -2609.000    
  -1877.000      -1104.000      -403.0000       134.0000       494.0000    
   738.0000       933.0000       1092.000       1174.000       1125.000    
   897.0000       467.0000      -151.0000      -906.0000      -1727.000    
  -2543.000      -3299.000      -3964.000      -4520.000      -4984.000    
  -5360.000      -5672.000      -5960.000      -6240.000      -6512.000    
  -6752.000      -6872.000      -6792.000      -6432.000      -5792.000    
  -4912.000      -3907.000      -2935.000      -2189.000      -1786.000    
  -1695.000      -1744.000      -1716.000      -1467.000      -997.0000    
  -429.0000       71.00000       388.0000       522.0000       583.0000    
   735.0000       1118.000       1783.000       2666.000       3620.000    
   4504.000       5288.000       6032.000       6784.000       7488.000    
   8128.000       8768.000       9472.000       10280.00       11128.00    
   11880.00       12376.00       12504.00       12272.00       11760.00    
   11056.00       10256.00       9400.000       8472.000       7408.000    
   6224.000       4976.000       3721.000       2442.000       1106.000    
  -290.0000      -1697.000      -3038.000      -4248.000      -5328.000    
  -6328.000      -7304.000      -8320.000      -9336.000      -10312.00    
  -11208.00      -12000.00      -12672.00      -13176.00      -13480.00    
  -13568.00      -13440.00      -13088.00      -12472.00      -11528.00    
  -10256.00      -8712.000      -7000.000      -5296.000      -3735.000    
  -2408.000      -1329.000      -420.0000       419.0000       1244.000    
   2055.000       2828.000       3550.000       4200.000       4768.000    
   5240.000       5656.000       6072.000       6480.000       6792.000    
   6888.000       6720.000       6312.000       5728.000       5008.000    
   4160.000       3186.000       2068.000       828.0000      -484.0000    
  -1797.000      -3055.000      -4240.000      -5400.000      -6576.000    
  -7856.000      -9264.000      -10752.00      -12200.00      -13448.00    
  -14368.00      -14920.00      -15096.00      -14912.00      -14400.00    
  -13592.00      -12568.00      -11416.00      -10224.00      -9072.000    
  -7968.000      -6856.000      -5680.000      -4408.000      -3089.000    
  -1786.000      -526.0000       734.0000       2038.000       3356.000    
   4576.000       5600.000       6344.000       6792.000       6952.000    
   6912.000       6800.000       6728.000       6744.000       6792.000    
   6808.000       6736.000       6560.000       6248.000       5784.000    
   5160.000       4400.000       3591.000       2830.000       2219.000    
   1784.000       1440.000       1060.000       574.0000       2.000000    
  -599.0000      -1178.000      -1700.000      -2143.000      -2533.000    
  -2949.000      -3457.000      -4015.000      -4496.000      -4800.000    
  -4896.000      -4848.000      -4760.000      -4744.000      -4864.000    
  -5096.000      -5352.000      -5544.000      -5608.000      -5520.000    
  -5336.000      -5192.000      -5224.000      -5480.000      -5864.000    
  -6248.000      -6536.000      -6688.000      -6704.000      -6632.000    
  -6544.000      -6464.000      -6368.000      -6112.000      -5592.000    
  -4808.000      -3838.000      -2834.000      -1937.000      -1207.000    
  -619.0000      -117.0000       325.0000       709.0000       1068.000    
   1492.000       2080.000       2875.000       3820.000       4784.000    
   5632.000       6288.000       6720.000       6928.000       6920.000    
