  0.2500000e-01  -36160.00       36352.00      -12345.00      -12345.00    
  -5.000015       294.9750             0.      -12345.00       2.000000    
  -12345.00      -12345.00      -12345.00      -12345.00      -12345.00    
  -12345.00      -12345.00      -12345.00      -12345.00      -12345.00    
  -12345.00      -12345.00      -12345.00      -12345.00      -12345.00    
  -12345.00      -12345.00      -12345.00      -12345.00      -12345.00    
  -12345.00       37.01661      -112.8224       1714.500             0.    
   37.85200      -118.1230      -12345.00      -12345.00      -12345.00    
  -12345.00      -12345.00      -12345.00      -12345.00      -12345.00    
  -12345.00      -12345.00      -12345.00      -12345.00      -12345.00    
   478.1191       99.56704       282.7769       4.300311      -12345.00    
  -12345.00       1.362250       90.00000       90.00000      -12345.00    
  -12345.00      -12345.00      -12345.00      -12345.00      -12345.00    
  -12345.00      -12345.00      -12345.00      -12345.00      -12345.00    
      1982       267         7        40        24
       296         6         0         0     12000
    -12345    -12345    -12345    -12345    -12345
         1         7        11    -12345    -12345
    -12345    -12345    -12345    -12345    -12345
    -12345    -12345    -12345    -12345    -12345
    -12345    -12345    -12345    -12345    -12345
         1         1         1         1         0
KNB     -12345  -12345  
[...]
  -7552.000      -7392.000      -7240.000      -7016.000      -6680.000    
  -6216.000      -5640.000      -5032.000      -4472.000      -4059.000    
  -3792.000      -3646.000      -3555.000      -3438.000      -3236.000    
  -2949.000      -2653.000      -2432.000      -2319.000      -2265.000    
  -2180.000      -2000.000      -1733.000      -1466.000      -1287.000    
  -1219.000      -1221.000      -1246.000      -1274.000      -1297.000    
  -1295.000      -1235.000      -1089.000      -852.0000      -534.0000    
  -137.0000       346.0000       915.0000       1519.000       2060.000    
   2441.000       2613.000       2584.000       2397.000       2102.000    
   1757.000       1412.000       1106.000       844.0000       598.0000    
   310.0000      -82.00000      -615.0000      -1278.000      -1996.000    
  -2674.000      -3237.000      -3642.000      -3860.000      -3864.000    
  -3663.000      -3291.000      -2783.000      -2171.000      -1493.000    
  -784.0000      -52.00000       692.0000       1394.000       1960.000    
   2320.000       2495.000       2577.000       2651.000       2740.000    
   2829.000       2910.000       2989.000       3061.000       3109.000    
   3123.000       3103.000       3047.000       2940.000       2757.000    
   2480.000       2103.000       1640.000       1113.000       550.0000    
  -28.00000      -595.0000      -1114.000      -1540.000      -1856.000    
  -2068.000      -2175.000      -2137.000      -1903.000      -1446.000    
  -798.0000      -20.00000       820.0000       1672.000       2506.000    
   3316.000       4120.000       4944.000       5824.000       6728.000    
   7632.000       8488.000       9296.000       10088.00       10872.00    
   11648.00       12424.00       13184.00       13928.00       14592.00    
   15120.00       15440.00       15528.00       15416.00       15160.00    
   14792.00       14328.00       13752.00       13056.00       12256.00    
   11376.00       10440.00       9488.000       8536.000       7616.000    
   6760.000       6016.000       5408.000       4960.000       4680.000    
   4544.000       4536.000       4608.000       4704.000       4728.000    
   4584.000       4216.000       3664.000       2993.000       2264.000    
   1468.000       558.0000      -487.0000      -1630.000      -2806.000    
  -3952.000      -5016.000      -5960.000      -6776.000      -7464.000    
  -8072.000      -8624.000      -9104.000      -9512.000      -9816.000    
  -10016.00      -10144.00      -10216.00      -10216.00      -10096.00    
  -9752.000      -9136.000      -8248.000      -7120.000      -5808.000    
  -4392.000      -2950.000      -1534.000      -176.0000       1135.000    
   2422.000       3678.000       4840.000       5856.000       6680.000    
   7336.000       7864.000       8320.000       8704.000       8984.000    
   9176.000       9272.000       9312.000       9288.000       9176.000    
   8952.000       8552.000       7920.000       7024.000       5880.000    
   4592.000       3225.000       1841.000       513.0000      -650.0000    
  -1526.000      -2042.000      -2175.000      -1944.000      -1431.000    
  -806.0000      -298.0000      -97.00000      -262.0000      -715.0000    
  -1314.000      -1958.000      -2613.000      -3272.000      -3939.000    
  -4640.000      -5456.000      -6400.000      -7416.000      -8384.000    
  -9168.000      -9704.000      -10000.00      -10096.00      -10096.00    
  -10088.00      -10176.00      -10488.00      -11096.00      -11992.00    
  -13064.00      -14104.00      -14840.00      -15024.00      -14504.00    
  -13288.00      -11512.00      -9320.000      -6792.000      -3998.000    
  -1056.000       1772.000       4208.000       6080.000       7360.000    
   8136.000       8560.000       8768.000       8824.000       8688.000    
   8312.000       7680.000       6848.000       5912.000       4976.000    
   4096.000       3279.000       2446.000       1555.000       665.0000    
  -86.00000      -565.0000      -720.0000      -587.0000      -265.0000    
   111.0000       398.0000       466.0000       207.0000      -463.0000    
  -1603.000      -3197.000      -5128.000      -7232.000      -9320.000    
  -11216.00      -12728.00      -13632.00      -13800.00      -13232.00    
  -12040.00      -10416.00      -8608.000      -6816.000      -5120.000    
  -3507.000      -1948.000      -418.0000       1127.000       2682.000    
   4096.000       5136.000       5624.000       5576.000       5176.000    
   4680.000       4304.000       4224.000       4560.000       5304.000    
   6304.000       7336.000       8160.000       8648.000       8816.000    
   8760.000       8608.000       8416.000       8120.000       7584.000    
   6672.000       5240.000       3265.000       817.0000      -1887.000    
  -4632.000      -7336.000      -9992.000      -12616.00      -15120.00    
  -17264.00      -18784.00      -19544.00      -19608.00      -19224.00    
  -18640.00      -17992.00      -17280.00      -16440.00      -15416.00    
  -14088.00      -12392.00      -10360.00      -8104.000      -5784.000    
  -3557.000      -1494.000       388.0000       2146.000       3845.000    
   5488.000       6992.000       8272.000       9272.000       10016.00    
   10640.00       11304.00       12144.00       13216.00       14440.00    
   15664.00       16656.00       17256.00       17384.00       17120.00    
   16664.00       16168.00       15720.00       15288.00       14760.00    
   13992.00       12816.00       11128.00       8912.000       6296.000    
   3465.000       678.0000      -1856.000      -4038.000      -5880.000    
  -7456.000      -8864.000      -10168.00      -11392.00      -12504.00    
  -13408.00      -14008.00      -14240.00      -14080.00      -13608.00    
  -12992.00      -12448.00      -12048.00      -11680.00      -11112.00    
  -10184.00      -8856.000      -7224.000      -5504.000      -3945.000    
  -2686.000      -1735.000      -975.0000      -307.0000       287.0000    
   810.0000       1345.000       2017.000       2885.000       3869.000    
   4776.000       5392.000       5600.000       5424.000       4952.000    
   4304.000       3518.000       2583.000       1462.000       152.0000    
  -1280.000      -2705.000      -3995.000      -5064.000      -5888.000    
  -6416.000      -6560.000      -6248.000      -5424.000      -4160.000    
  -2627.000      -1102.000       121.0000       838.0000       1028.000    
   843.0000       486.0000       82.00000      -355.0000      -852.0000    
  -1411.000      -2002.000      -2598.000      -3214.000      -3902.000    
  -4704.000      -5624.000      -6584.000      -7512.000      -8376.000    
  -9168.000      -9792.000      -10120.00      -10056.00      -9648.000    
  -9000.000      -8208.000      -7256.000      -6048.000      -4464.000    
  -2490.000      -153.0000       2451.000       5232.000       8104.000    
   10952.00       13624.00       16024.00       18120.00       19960.00    
   21544.00       22864.00       23912.00       24696.00       25296.00    
   25800.00       26296.00       26800.00       27208.00       27352.00    
   27120.00       26480.00       25528.00       24400.00       23232.00    
   22184.00       21368.00       20824.00       20560.00       20488.00    
   20504.00       20488.00       20384.00       20216.00       20024.00    
   19792.00       19488.00       19072.00       18512.00       17768.00    
   16752.00       15400.00       13696.00       11640.00       9264.000    
   6552.000       3568.000       404.0000      -2824.000      -6040.000    
  -9224.000      -12344.00      -15408.00      -18464.00      -21568.00    
  -24704.00      -27776.00      -30624.00      -33024.00      -34880.00    
  -35904.00      -36160.00      -35648.00      -34752.00      -33536.00    
  -32080.00      -30400.00      -28576.00      -26688.00      -24880.00    
  -23216.00      -21680.00      -20160.00      -18520.00      -16688.00    
  -14720.00      -12744.00      -10992.00      -9648.000      -8800.000    
  -8416.000      -8352.000      -8480.000      -8712.000      -9048.000    
  -9488.000      -10016.00      -10552.00      -11008.00      -11288.00    
  -11368.00      -11256.00      -10952.00      -10416.00      -9632.000    
  -8648.000      -7560.000      -6512.000      -5608.000      -4912.000    
  -4424.000      -4059.000      -3657.000      -3064.000      -2199.000    
  -1069.000       254.0000       1665.000       3069.000       4416.000    
   5696.000       6888.000       7896.000       8664.000       9216.000    
   9648.000       10120.00       10704.00       11312.00       11800.00    
   12024.00       11976.00       11704.00       11288.00       10752.00    
   10120.00       9480.000       8896.000       8384.000       7880.000    
   7352.000       6816.000       6280.000       5744.000       5240.000    
   4904.000       4856.000       5096.000       5512.000       5928.000    
   6216.000       6296.000       6104.000       5616.000       4832.000    
   3815.000       2697.000       1626.000       639.0000      -331.0000    
  -1345.000      -2393.000      -3418.000      -4360.000      -5144.000    
  -5696.000      -5968.000      -6008.000      -5920.000      -5744.000    
  -5456.000      -4976.000      -4280.000      -3471.000      -2681.000    
  -2060.000      -1700.000      -1603.000      -1667.000      -1719.000    
  -1570.000      -1055.000      -93.00000       1256.000       2773.000    
   4160.000       5184.000       5744.000       5880.000       5752.000    
   5536.000       5336.000       5152.000       4888.000       4440.000    
   3696.000       2640.000       1307.000      -268.0000      -2048.000    
  -3956.000      -5856.000      -7640.000      -9264.000      -10784.00    
  -12224.00      -13600.00      -14872.00      -16040.00      -17088.00    
  -17976.00      -18704.00      -19304.00      -19824.00      -20256.00    
  -20576.00      -20768.00      -20856.00      -20808.00      -20512.00    
  -19816.00      -18560.00      -16728.00      -14464.00      -12072.00    
  -9776.000      -7696.000      -5808.000      -4051.000      -2328.000    
  -567.0000       1230.000       2954.000       4456.000       5648.000    
   6552.000       7224.000       7688.000       7936.000       7952.000    
   7784.000       7488.000       7120.000       6760.000       6520.000    
   6544.000       6936.000       7616.000       8360.000       8888.000    
   8968.000       8600.000       7976.000       7440.000       7224.000    
   7344.000       7608.000       7736.000       7560.000       7040.000    
   6304.000       5496.000       4720.000       4003.000       3279.000    
   2494.000       1625.000       674.0000      -361.0000      -1493.000    
  -2689.000      -3846.000      -4856.000      -5720.000      -6520.000    
  -7400.000      -8392.000      -9496.000      -10624.00      -11656.00    
  -12512.00      -13160.00      -13632.00      -13992.00      -14280.00    
  -14536.00      -14776.00      -14992.00      -15112.00      -15080.00    
  -14864.00      -14496.00      -14024.00      -13456.00      -12704.00    
  -11584.00      -9944.000      -7696.000      -4920.000      -1811.000    
   1376.000       4376.000       7032.000       9320.000       11376.00    
   13424.00       15656.00       18136.00       20808.00       23536.00    
   26144.00       28464.00       30416.00       32008.00       33280.00    
   34432.00       35328.00       35968.00       36224.00       35968.00    
   35136.00       33856.00       32208.00       30184.00       27728.00    
   24736.00       21208.00       17328.00       13312.00       9320.000    
   5392.000       1495.000      -2345.000      -6016.000      -9384.000    
  -12304.00      -14672.00      -16448.00      -17672.00      -18408.00    
  -18728.00      -18720.00      -18464.00      -18056.00      -17576.00    
  -17096.00      -16712.00      -16488.00      -16432.00      -16480.00    
  -16592.00      -16768.00      -17000.00      -17280.00      -17520.00    
  -17624.00      -17496.00      -17112.00      -16480.00      -15616.00    
  -14504.00      -13192.00      -11760.00      -10312.00      -8904.000    
  -7504.000      -6088.000      -4680.000      -3277.000      -1865.000    
  -402.0000       1139.000       2787.000       4640.000       6856.000    
   9544.000       12696.00       16144.00       19680.00       23040.00    
   25976.00       28336.00       30128.00       31496.00       32640.00    
   33664.00       34688.00       35584.00       36160.00       36352.00    
   35968.00       35200.00       34240.00       33088.00       31856.00    
   30456.00       28952.00       27352.00       25616.00       23680.00    
   21496.00       19120.00       16632.00       14104.00       11512.00    
   8792.000       5920.000       2915.000      -131.0000      -3044.000    
  -5624.000      -7736.000      -9328.000      -10456.00      -11232.00    
  -11760.00      -12088.00      -12264.00      -12336.00      -12384.00    
  -12536.00      -12864.00      -13384.00      -13992.00      -14560.00    
  -15000.00      -15344.00      -15736.00      -16312.00      -17128.00    
  -18112.00      -19120.00      -20032.00      -20744.00      -21152.00    
  -21144.00      -20712.00      -19984.00      -19208.00      -18584.00    
  -18168.00      -17880.00      -17576.00      -17120.00      -16352.00    
  -15200.00      -13728.00      -12080.00      -10392.00      -8744.000    
  -7152.000      -5592.000      -4067.000      -2579.000      -1131.000    
   334.0000       1916.000       3723.000       5832.000       8272.000    
   10992.00       13896.00       16824.00       19584.00       21952.00    
   23720.00       24696.00       24808.00       24112.00       22768.00    
   20960.00       18792.00       16304.00       13528.00       10528.00    
   7392.000       4192.000       1026.000      -2052.000      -5000.000    
  -7808.000      -10400.00      -12696.00      -14616.00      -16096.00    
  -17120.00      -17704.00      -17872.00      -17664.00      -17152.00    
  -16432.00      -15600.00      -14696.00      -13680.00      -12448.00    
  -10904.00      -9024.000      -6832.000      -4408.000      -1857.000    
   698.0000       3072.000       5088.000       6656.000       7784.000    
   8592.000       9272.000       10000.00       10888.00       11960.00    
   13136.00       14288.00       15272.00       16008.00       16512.00    
   16880.00       17248.00       17680.00       18160.00       18616.00    
   19000.00       19288.00       19464.00       19440.00       19120.00    
   18456.00       17512.00       16448.00       15464.00       14688.00    
   14136.00       13688.00       13176.00       12480.00       11592.00    
   10600.00       9656.000       8816.000       8040.000       7264.000    
   6408.000       5424.000       4296.000       3045.000       1723.000    
   363.0000      -1050.000      -2535.000      -4067.000      -5552.000    
  -6896.000      -8040.000      -9000.000      -9856.000      -10696.00    
  -11624.00      -12656.00      -13720.00      -14672.00      -15424.00    
  -15984.00      -16368.00      -16608.00      -16672.00      -16520.00    
  -16120.00      -15496.00      -14696.00      -13824.00      -12944.00    
  -12064.00      -11160.00      -10184.00      -9160.000      -8192.000    
  -7376.000      -6736.000      -6216.000      -5728.000      -5200.000    
  -4640.000      -4152.000      -3864.000      -3848.000      -4096.000    
  -4520.000      -5024.000      -5544.000      -6056.000      -6576.000    
  -7096.000      -7608.000      -8112.000      -8568.000      -8928.000    
  -9136.000      -9248.000      -9376.000      -9632.000      -10000.00    
  -10416.00      -10792.00      -11072.00      -11192.00      -11096.00    
  -10768.00      -10200.00      -9392.000      -8376.000      -7240.000    
  -6088.000      -4952.000      -3818.000      -2648.000      -1462.000    
  -282.0000       919.0000       2205.000       3617.000       5152.000    
   6784.000       8496.000       10216.00       11848.00       13304.00    
   14496.00       15392.00       15944.00       16112.00       15896.00    
   15320.00       14408.00       13168.00       11624.00       9800.000    
   7776.000       5608.000       3370.000       1113.000      -1156.000    
  -3479.000      -5904.000      -8424.000      -10960.00      -13360.00    
  -15472.00      -17192.00      -18448.00      -19248.00      -19616.00    
  -19584.00      -19192.00      -18448.00      -17336.00      -15832.00    
  -13936.00      -11728.00      -9320.000      -6840.000      -4400.000    
  -2066.000       127.0000       2119.000       3830.000       5208.000    
   6312.000       7264.000       8224.000       9288.000       10480.00    
   11784.00       13136.00       14464.00       15680.00       16752.00    
   17672.00       18480.00       19280.00       20152.00       21104.00    
   22048.00       22856.00       23448.00       23784.00       23904.00    
   23880.00       23752.00       23496.00       23032.00       22352.00    
   21464.00       20408.00       19168.00       17688.00       15960.00    
   13984.00       11816.00       9512.000       7128.000       4696.000    
   2244.000      -166.0000      -2430.000      -4448.000      -6144.000    
  -7496.000      -8504.000      -9232.000      -9760.000      -10144.00    
  -10368.00      -10320.00      -9896.000      -9048.000      -7832.000    
  -6336.000      -4688.000      -3001.000      -1358.000       169.0000    
   1566.000       2863.000       4112.000       5400.000       6768.000    
   8256.000       9816.000       11360.00       12736.00       13808.00    
   14520.00       14896.00       14976.00       14776.00       14256.00    
   13368.00       12080.00       10376.00       8312.000       6000.000    
   3554.000       1093.000      -1298.000      -3572.000      -5728.000    
  -7840.000      -9944.000      -12064.00      -14128.00      -16032.00    
