  0.2500000e-01  -66880.00       56512.00      -12345.00      -12345.00    
  -5.000015       294.9750             0.      -12345.00       2.000000    
  -12345.00      -12345.00      -12345.00      -12345.00      -12345.00    
  -12345.00      -12345.00      -12345.00      -12345.00      -12345.00    
  -12345.00      -12345.00      -12345.00      -12345.00      -12345.00    
  -12345.00      -12345.00      -12345.00      -12345.00      -12345.00    
  -12345.00       37.01661      -112.8224       1714.500             0.    
   37.85200      -118.1230      -12345.00      -12345.00      -12345.00    
  -12345.00      -12345.00      -12345.00      -12345.00      -12345.00    
  -12345.00      -12345.00      -12345.00      -12345.00      -12345.00    
   478.1191       99.56704       282.7769       4.300311      -12345.00    
  -12345.00      -17.75533             0.       90.00000      -12345.00    
  -12345.00      -12345.00      -12345.00      -12345.00      -12345.00    
  -12345.00      -12345.00      -12345.00      -12345.00      -12345.00    
      1982       267         7        40        24
       296         6         0         0     12000
    -12345    -12345    -12345    -12345    -12345
         1         7        11    -12345    -12345
    -12345    -12345    -12345    -12345    -12345
    -12345    -12345    -12345    -12345    -12345
    -12345    -12345    -12345    -12345    -12345
         1         1         1         1         0
KNB     -12345  -12345  
[...]
  -30192.00      -29488.00      -28472.00      -27160.00      -25600.00    
  -23904.00      -22160.00      -20416.00      -18704.00      -17016.00    
  -15328.00      -13568.00      -11680.00      -9640.000      -7488.000    
  -5256.000      -3010.000      -748.0000       1583.000       4071.000    
   6760.000       9632.000       12576.00       15480.00       18256.00    
   20848.00       23216.00       25352.00       27248.00       28896.00    
   30296.00       31496.00       32536.00       33408.00       34304.00    
   35200.00       36032.00       36736.00       37120.00       37056.00    
   36544.00       35712.00       34496.00       33152.00       31696.00    
   29992.00       28064.00       25944.00       23712.00       21480.00    
   19320.00       17288.00       15400.00       13656.00       11992.00    
   10328.00       8608.000       6800.000       4968.000       3208.000    
   1583.000       120.0000      -1181.000      -2293.000      -3174.000    
  -3795.000      -4168.000      -4328.000      -4328.000      -4224.000    
  -4120.000      -4120.000      -4288.000      -4592.000      -4952.000    
  -5280.000      -5472.000      -5448.000      -5136.000      -4480.000    
  -3512.000      -2355.000      -1165.000      -45.00000       955.0000    
   1780.000       2354.000       2654.000       2756.000       2768.000    
   2727.000       2604.000       2376.000       2028.000       1475.000    
   517.0000      -1097.000      -3523.000      -6712.000      -10432.00    
  -14344.00      -18112.00      -21488.00      -24352.00      -26704.00    
  -28664.00      -30352.00      -31848.00      -33152.00      -34304.00    
  -35328.00      -36096.00      -36608.00      -36800.00      -36416.00    
  -35456.00      -33792.00      -31464.00      -28416.00      -24808.00    
  -20896.00      -17024.00      -13424.00      -10160.00      -7152.000    
  -4296.000      -1556.000       1094.000       3627.000       6000.000    
   8192.000       10288.00       12424.00       14712.00       17152.00    
   19600.00       21904.00       23920.00       25640.00       27136.00    
   28552.00       30016.00       31552.00       33024.00       34176.00    
   34752.00       34560.00       33408.00       31392.00       28728.00    
   25816.00       23056.00       20744.00       19000.00       17808.00    
   17016.00       16360.00       15592.00       14504.00       13040.00    
   11256.00       9248.000       7096.000       4800.000       2311.000    
  -457.0000      -3517.000      -6784.000      -10128.00      -13456.00    
  -16768.00      -20080.00      -23376.00      -26512.00      -29304.00    
  -31568.00      -33152.00      -34176.00      -34496.00      -34432.00    
  -34048.00      -33792.00      -33600.00      -33600.00      -33536.00    
  -33216.00      -32720.00      -32016.00      -31312.00      -30792.00    
  -30536.00      -30520.00      -30560.00      -30432.00      -29912.00    
  -28872.00      -27272.00      -25176.00      -22680.00      -19816.00    
  -16576.00      -12968.00      -9096.000      -5104.000      -1144.000    
   2710.000       6424.000       10032.00       13576.00       17048.00    
   20392.00       23528.00       26360.00       28856.00       31000.00    
   32768.00       34176.00       35264.00       36032.00       36480.00    
   36672.00       36480.00       36032.00       35264.00       34304.00    
   33088.00       31872.00       30672.00       29712.00       29080.00    
   28696.00       28352.00       27880.00       27200.00       26344.00    
   25432.00       24592.00       23968.00       23584.00       23344.00    
   23096.00       22808.00       22496.00       22200.00       21864.00    
   21400.00       20728.00       19816.00       18680.00       17360.00    
   15952.00       14544.00       13200.00       11952.00       10824.00    
   9864.000       9128.000       8680.000       8600.000       8936.000    
   9624.000       10536.00       11432.00       12040.00       12136.00    
   11616.00       10544.00       9120.000       7576.000       6088.000    
   4784.000       3682.000       2714.000       1772.000       794.0000    
  -176.0000      -1032.000      -1735.000      -2404.000      -3304.000    
  -4680.000      -6624.000      -9064.000      -11872.00      -14920.00    
  -18056.00      -21168.00      -24176.00      -27152.00      -30168.00    
  -33216.00      -36160.00      -38848.00      -41088.00      -42816.00    
  -44096.00      -44992.00      -45760.00      -46528.00      -47296.00    
  -48128.00      -48832.00      -49408.00      -49600.00      -49472.00    
  -49024.00      -48320.00      -47424.00      -46336.00      -44992.00    
  -43136.00      -40704.00      -37696.00      -34240.00      -30480.00    
  -26616.00      -22656.00      -18496.00      -14040.00      -9336.000    
  -4608.000      -81.00000       4104.000       7920.000       11416.00    
   14632.00       17600.00       20288.00       22624.00       24520.00    
   25952.00       26928.00       27488.00       27632.00       27368.00    
   26672.00       25496.00       23776.00       21464.00       18592.00    
   15232.00       11472.00       7440.000       3273.000      -900.0000    
  -4992.000      -9016.000      -13032.00      -17072.00      -21072.00    
  -24912.00      -28440.00      -31584.00      -34304.00      -36608.00    
  -38656.00      -40384.00      -41856.00      -42944.00      -43712.00    
  -44160.00      -44224.00      -44160.00      -44160.00      -44224.00    
  -44544.00      -44992.00      -45504.00      -45824.00      -45952.00    
  -45504.00      -44544.00      -43072.00      -41152.00      -38912.00    
  -36416.00      -33600.00      -30512.00      -27176.00      -23880.00    
  -20880.00      -18288.00      -16032.00      -13912.00      -11672.00    
  -9120.000      -6152.000      -2762.000       1002.000       5088.000    
   9472.000       14104.00       18872.00       23600.00       28080.00    
   32192.00       35840.00       39168.00       41984.00       44352.00    
   46400.00       48064.00       49344.00       50240.00       50624.00    
   50368.00       49472.00       47808.00       45440.00       42432.00    
   39040.00       35584.00       32448.00       29712.00       27368.00    
   25280.00       23256.00       21136.00       18840.00       16376.00    
   13856.00       11400.00       9096.000       6928.000       4840.000    
   2873.000       1117.000      -315.0000      -1357.000      -2003.000    
  -2295.000      -2312.000      -2172.000      -2029.000      -2022.000    
  -2186.000      -2420.000      -2561.000      -2508.000      -2269.000    
  -1923.000      -1557.000      -1240.000      -996.0000      -773.0000    
  -475.0000      -34.00000       512.0000       1016.000       1287.000    
   1169.000       595.0000      -409.0000      -1746.000      -3287.000    
  -4896.000      -6464.000      -7928.000      -9296.000      -10632.00    
  -11976.00      -13360.00      -14760.00      -16136.00      -17440.00    
  -18600.00      -19552.00      -20216.00      -20568.00      -20560.00    
  -20184.00      -19448.00      -18400.00      -17104.00      -15568.00    
  -13728.00      -11472.00      -8840.000      -5992.000      -3167.000    
  -573.0000       1634.000       3350.000       4512.000       5112.000    
   5192.000       4872.000       4304.000       3702.000       3231.000    
   2964.000       2861.000       2805.000       2672.000       2409.000    
   2083.000       1815.000       1666.000       1544.000       1202.000    
   364.0000      -1085.000      -3002.000      -5064.000      -6984.000    
  -8592.000      -9904.000      -11032.00      -12112.00      -13208.00    
  -14296.00      -15304.00      -16256.00      -17288.00      -18576.00    
  -20168.00      -21992.00      -23896.00      -25744.00      -27464.00    
  -29048.00      -30528.00      -32032.00      -33664.00      -35648.00    
  -37952.00      -40640.00      -43456.00      -46336.00      -49024.00    
  -51392.00      -53376.00      -54848.00      -55616.00      -55744.00    
  -55296.00      -54528.00      -53440.00      -52032.00      -50368.00    
  -48256.00      -45696.00      -42752.00      -39552.00      -36032.00    
  -32432.00      -28736.00      -25064.00      -21376.00      -17608.00    
  -13744.00      -9880.000      -6184.000      -2767.000       382.0000    
   3323.000       6080.000       8624.000       10912.00       12928.00    
   14712.00       16368.00       18016.00       19712.00       21424.00    
   23008.00       24296.00       25200.00       25744.00       26080.00    
   26408.00       26880.00       27584.00       28536.00       29728.00    
   31112.00       32632.00       34176.00       35840.00       37504.00    
   38912.00       39936.00       40256.00       39808.00       38784.00    
   37376.00       35840.00       34560.00       33600.00       33152.00    
   33216.00       33536.00       33984.00       34240.00       34304.00    
   34048.00       33600.00       33088.00       32552.00       31920.00    
   31248.00       30544.00       29856.00       29200.00       28560.00    
   27944.00       27376.00       26896.00       26528.00       26264.00    
   26176.00       26424.00       27192.00       28528.00       30360.00    
   32512.00       34880.00       37376.00       40000.00       42624.00    
   45248.00       47744.00       49984.00       52032.00       53632.00    
   54912.00       55808.00       56320.00       56512.00       56384.00    
   56064.00       55616.00       55104.00       54528.00       53824.00    
   52992.00       52160.00       51328.00       50560.00       49856.00    
   49152.00       48384.00       47360.00       45888.00       43904.00    
   41408.00       38528.00       35264.00       31928.00       28368.00    
   24576.00       20464.00       16032.00       11456.00       7032.000    
   3016.000      -515.0000      -3607.000      -6376.000      -8952.000    
  -11456.00      -13992.00      -16624.00      -19376.00      -22152.00    
  -24840.00      -27280.00      -29360.00      -31000.00      -32120.00    
  -32664.00      -32728.00      -32480.00      -32120.00      -31728.00    
  -31288.00      -30760.00      -30168.00      -29576.00      -29024.00    
  -28488.00      -27928.00      -27296.00      -26528.00      -25520.00    
  -24152.00      -22384.00      -20272.00      -17968.00      -15656.00    
  -13472.00      -11440.00      -9552.000      -7768.000      -6056.000    
  -4416.000      -2833.000      -1251.000       356.0000       2021.000    
   3753.000       5504.000       7168.000       8616.000       9776.000    
   10672.00       11392.00       12072.00       12880.00       13944.00    
   15280.00       16784.00       18264.00       19512.00       20408.00    
   20880.00       20976.00       20760.00       20320.00       19712.00    
   18960.00       18008.00       16776.00       15176.00       13168.00    
   10792.00       8184.000       5488.000       2812.000       219.0000    
  -2249.000      -4568.000      -6728.000      -8680.000      -10352.00    
  -11632.00      -12440.00      -12768.00      -12672.00      -12296.00    
  -11808.00      -11320.00      -10904.00      -10608.00      -10488.00    
  -10544.00      -10744.00      -11008.00      -11296.00      -11600.00    
  -11928.00      -12296.00      -12656.00      -12976.00      -13208.00    
  -13312.00      -13248.00      -12920.00      -12288.00      -11368.00    
  -10208.00      -8840.000      -7224.000      -5304.000      -3079.000    
  -614.0000       1943.000       4456.000       6832.000       9016.000    
   10976.00       12784.00       14496.00       16120.00       17576.00    
   18800.00       19776.00       20528.00       21128.00       21632.00    
   22096.00       22552.00       23016.00       23504.00       24000.00    
   24472.00       24856.00       25048.00       24992.00       24672.00    
   24160.00       23600.00       23128.00       22776.00       22448.00    
   21984.00       21240.00       20152.00       18712.00       16984.00    
   15056.00       13016.00       10904.00       8688.000       6304.000    
   3748.000       1063.000      -1668.000      -4400.000      -7144.000    
  -9936.000      -12800.00      -15784.00      -18912.00      -22208.00    
  -25688.00      -29344.00      -33024.00      -36672.00      -40064.00    
  -43200.00      -46080.00      -48640.00      -51072.00      -53312.00    
  -55552.00      -57792.00      -59968.00      -62080.00      -63872.00    
  -65280.00      -66304.00      -66816.00      -66880.00      -66496.00    
  -65536.00      -64192.00      -62464.00      -60480.00      -58176.00    
  -55552.00      -52672.00      -49600.00      -46528.00      -43328.00    
  -40192.00      -37120.00      -33984.00      -30800.00      -27528.00    
  -24232.00      -21000.00      -17864.00      -14824.00      -11808.00    
  -8768.000      -5624.000      -2313.000       1174.000       4760.000    
   8344.000       11848.00       15240.00       18512.00       21672.00    
   24752.00       27712.00       30488.00       32960.00       35200.00    
   37056.00       38464.00       39552.00       40256.00       40640.00    
   40768.00       40640.00       40192.00       39424.00       38272.00    
   36736.00       35008.00       33152.00       31128.00       28984.00    
   26672.00       24144.00       21376.00       18368.00       15152.00    
   11744.00       8152.000       4472.000       857.0000      -2539.000    
  -5568.000      -8144.000      -10264.00      -12032.00      -13624.00    
  -15224.00      -16936.00      -18768.00      -20640.00      -22424.00    
  -24008.00      -25368.00      -26528.00      -27504.00      -28304.00    
  -28904.00      -29280.00      -29448.00      -29464.00      -29408.00    
  -29296.00      -29056.00      -28568.00      -27776.00      -26720.00    
  -25528.00      -24320.00      -23144.00      -21968.00      -20712.00    
  -19280.00      -17664.00      -15936.00      -14224.00      -12632.00    
  -11152.00      -9688.000      -8080.000      -6216.000      -4064.000    
  -1709.000       702.0000       3018.000       5120.000       6968.000    
   8552.000       9904.000       11064.00       12088.00       13016.00    
   13896.00       14744.00       15592.00       16440.00       17280.00    
   18024.00       18600.00       18968.00       19216.00       19488.00    
   19928.00       20568.00       21352.00       22160.00       22888.00    
   23504.00       24024.00       24480.00       24864.00       25128.00    
   25272.00       25320.00       25368.00       25504.00       25800.00    
   26280.00       26912.00       27608.00       28240.00       28768.00    
   29200.00       29608.00       30048.00       30536.00       31048.00    
   31544.00       32000.00       32336.00       32512.00       32504.00    
   32328.00       31976.00       31400.00       30584.00       29536.00    
   28328.00       26984.00       25488.00       23752.00       21688.00    
   19264.00       16552.00       13688.00       10784.00       7856.000    
   4824.000       1596.000      -1917.000      -5680.000      -9568.000    
  -13352.00      -16816.00      -19848.00      -22464.00      -24800.00    
  -26984.00      -29104.00      -31128.00      -32960.00      -34560.00    
  -35776.00      -36736.00      -37376.00      -37888.00      -38208.00    
  -38464.00      -38720.00      -38976.00      -39040.00      -38912.00    
  -38592.00      -38016.00      -37248.00      -36288.00      -35136.00    
  -33856.00      -32360.00      -30624.00      -28624.00      -26384.00    
  -23968.00      -21440.00      -18824.00      -16096.00      -13216.00    
  -10152.00      -6864.000      -3344.000       365.0000       4128.000    
   7784.000       11152.00       14096.00       16544.00       18488.00    
   19992.00       21088.00       21824.00       22232.00       22368.00    
   22312.00       22176.00       22048.00       21952.00       21824.00    
   21568.00       21104.00       20400.00       19488.00       18384.00    
   17112.00       15680.00       14096.00       12344.00       10416.00    
   8320.000       6048.000       3594.000       939.0000      -1862.000    
  -4696.000      -7480.000      -10168.00      -12760.00      -15288.00    
  -17768.00      -20168.00      -22488.00      -24664.00      -26688.00    
  -28552.00      -30304.00      -31960.00      -33472.00      -34688.00    
  -35584.00      -36096.00      -36224.00      -36096.00      -35712.00    
  -35072.00      -34304.00      -33280.00      -32192.00      -30920.00    
  -29512.00      -27992.00      -26360.00      -24680.00      -22968.00    
  -21232.00      -19456.00      -17656.00      -15856.00      -14056.00    
  -12248.00      -10424.00      -8560.000      -6640.000      -4624.000    
  -2530.000      -409.0000       1647.000       3549.000       5248.000    
   6752.000       8064.000       9200.000       10144.00       10848.00    
   11296.00       11488.00       11440.00       11184.00       10720.00    
   10064.00       9264.000       8408.000       7608.000       6960.000    
   6512.000       6248.000       6080.000       5904.000       5672.000    
   5376.000       5056.000       4792.000       4624.000       4592.000    
   4728.000       5032.000       5464.000       5952.000       6384.000    
   6696.000       6888.000       7032.000       7232.000       7560.000    
   8024.000       8648.000       9392.000       10248.00       11168.00    
   12104.00       13056.00       14008.00       14936.00       15824.00    
   16632.00       17304.00       17784.00       18072.00       18184.00    
   18168.00       18072.00       17928.00       17752.00       17536.00    
   17288.00       17032.00       16808.00       16616.00       16416.00    
   16072.00       15480.00       14560.00       13352.00       11952.00    
   10488.00       9048.000       7664.000       6304.000       4928.000    
   3526.000       2147.000       893.0000      -137.0000      -885.0000    
