  0.2500000e-01  -42816.00       33856.00      -12345.00      -12345.00    
  -5.000015       294.9750             0.      -12345.00       2.000000    
  -12345.00      -12345.00      -12345.00      -12345.00      -12345.00    
  -12345.00      -12345.00      -12345.00      -12345.00      -12345.00    
  -12345.00      -12345.00      -12345.00      -12345.00      -12345.00    
  -12345.00      -12345.00      -12345.00      -12345.00      -12345.00    
  -12345.00       34.38975      -116.4115       792.6299             0.    
   37.85200      -118.1230      -12345.00      -12345.00      -12345.00    
  -12345.00      -12345.00      -12345.00      -12345.00      -12345.00    
  -12345.00      -12345.00      -12345.00      -12345.00      -12345.00    
   413.9006       157.6387       338.6439       3.722425      -12345.00    
  -12345.00       26.01525             0.             0.      -12345.00    
  -12345.00      -12345.00      -12345.00      -12345.00      -12345.00    
  -12345.00      -12345.00      -12345.00      -12345.00      -12345.00    
      1982       267         7        40        24
       296         6         0         0     12000
    -12345    -12345    -12345    -12345    -12345
         1         7        11    -12345    -12345
    -12345    -12345    -12345    -12345    -12345
    -12345    -12345    -12345    -12345    -12345
    -12345    -12345    -12345    -12345    -12345
         1         1         1         1         0
LAC     -12345  -12345  
[...]
  -8240.000      -8520.000      -8664.000      -8704.000      -8704.000    
  -8688.000      -8496.000      -8280.000      -7864.000      -7352.000    
  -6824.000      -6368.000      -6000.000      -5664.000      -5312.000    
  -4968.000      -4680.000      -4528.000      -4528.000      -4656.000    
  -4864.000      -5104.000      -5312.000      -5440.000      -5448.000    
  -5376.000      -5096.000      -4792.000      -4320.000      -3898.000    
  -3439.000      -3009.000      -2601.000      -2193.000      -1762.000    
  -1303.000      -838.0000      -417.0000      -111.0000       32.00000    
   13.00000      -104.0000      -237.0000      -331.0000      -387.0000    
  -445.0000      -547.0000      -709.0000      -911.0000      -1096.000    
  -1196.000      -1195.000      -1137.000      -1089.000      -1096.000    
  -1152.000      -1226.000      -1292.000      -1358.000      -1461.000    
  -1627.000      -1923.000      -2276.000      -2721.000      -3103.000    
  -3462.000      -3660.000      -3845.000      -3922.000      -4050.000    
  -4080.000      -4136.000      -4092.000      -4104.000      -4088.000    
  -4152.000      -4120.000      -4072.000      -3848.000      -3648.000    
  -3413.000      -3316.000      -3240.000      -3269.000      -3239.000    
  -3212.000      -3036.000      -2824.000      -2530.000      -2216.000    
  -1888.000      -1531.000      -1144.000      -757.0000      -416.0000    
  -140.0000       99.00000       358.0000       683.0000       1079.000    
   1515.000       1926.000       2319.000       2613.000       2909.000    
   3246.000       3645.000       4057.000       4392.000       4600.000    
   4704.000       4792.000       4936.000       5184.000       5488.000    
   5792.000       6024.000       6152.000       6192.000       6224.000    
   6296.000       6384.000       6448.000       6432.000       6320.000    
   6160.000       5976.000       5776.000       5512.000       5200.000    
   4880.000       4472.000       4152.000       3803.000       3553.000    
   3280.000       3107.000       2927.000       2738.000       2519.000    
   2281.000       2058.000       1881.000       1781.000       1780.000    
   1863.000       2052.000       2242.000       2381.000       2422.000    
   2366.000       2266.000       2189.000       2171.000       2189.000    
   2178.000       2079.000       1874.000       1591.000       1279.000    
   972.0000       671.0000       357.0000       30.00000      -278.0000    
  -529.0000      -705.0000      -816.0000      -866.0000      -845.0000    
  -734.0000      -537.0000      -273.0000       23.00000       329.0000    
   645.0000       966.0000       1273.000       1541.000       1756.000    
   1918.000       2029.000       2084.000       2061.000       1938.000    
   1703.000       1348.000       866.0000       260.0000      -443.0000    
  -1169.000      -1868.000      -2432.000      -2936.000      -3336.000    
  -3773.000      -4248.000      -4760.000      -5264.000      -5752.000    
  -6168.000      -6608.000      -6920.000      -7208.000      -7304.000    
  -7240.000      -7016.000      -6672.000      -6208.000      -5672.000    
  -4952.000      -4112.000      -3172.000      -2178.000      -1216.000    
  -371.0000       310.0000       833.0000       1246.000       1581.000    
   1906.000       2159.000       2399.000       2535.000       2653.000    
   2680.000       2626.000       2478.000       2237.000       1926.000    
   1582.000       1248.000       945.0000       660.0000       345.0000    
  -35.00000      -478.0000      -938.0000      -1335.000      -1591.000    
  -1665.000      -1582.000      -1409.000      -1221.000      -1065.000    
  -937.0000      -808.0000      -651.0000      -457.0000      -236.0000    
  -16.00000       163.0000       272.0000       316.0000       340.0000    
   418.0000       617.0000       959.0000       1458.000       2037.000    
   2697.000       3392.000       4082.000       4712.000       5248.000    
   5648.000       5920.000       6056.000       6072.000       5968.000    
   5768.000       5520.000       5296.000       5152.000       5104.000    
   5144.000       5216.000       5248.000       5208.000       5088.000    
   4928.000       4760.000       4616.000       4488.000       4368.000    
   4256.000       4168.000       4104.000       4085.000       4062.000    
   4034.000       3870.000       3717.000       3472.000       3289.000    
   3084.000       2882.000       2666.000       2405.000       2079.000    
   1687.000       1246.000       768.0000       245.0000      -338.0000    
  -1002.000      -1702.000      -2427.000      -3035.000      -3533.000    
  -3893.000      -4152.000      -4376.000      -4616.000      -4872.000    
  -5128.000      -5312.000      -5408.000      -5392.000      -5288.000    
  -5136.000      -4992.000      -4712.000      -4472.000      -4096.000    
  -3739.000      -3252.000      -2654.000      -1960.000      -1242.000    
  -586.0000      -46.00000       365.0000       671.0000       924.0000    
   1175.000       1442.000       1702.000       1906.000       2020.000    
   2045.000       2017.000       1974.000       1933.000       1891.000    
   1855.000       1854.000       1917.000       2041.000       2186.000    
   2294.000       2320.000       2248.000       2084.000       1838.000    
   1509.000       1105.000       651.0000       178.0000      -280.0000    
  -700.0000      -1067.000      -1375.000      -1620.000      -1790.000    
  -1870.000      -1845.000      -1706.000      -1462.000      -1129.000    
  -729.0000      -294.0000       134.0000       515.0000       829.0000    
   1082.000       1288.000       1466.000       1622.000       1751.000    
   1829.000       1829.000       1741.000       1574.000       1348.000    
   1077.000       764.0000       417.0000       48.00000      -325.0000    
  -698.0000      -1087.000      -1506.000      -2023.000      -2590.000    
  -3260.000      -3987.000      -4712.000      -5392.000      -5992.000    
  -6520.000      -7104.000      -7744.000      -8416.000      -9064.000    
  -9632.000      -10128.00      -10584.00      -11008.00      -11392.00    
  -11728.00      -11960.00      -12056.00      -12008.00      -11840.00    
  -11576.00      -11240.00      -10808.00      -10304.00      -9600.000    
  -8752.000      -7840.000      -6912.000      -6088.000      -5264.000    
  -4496.000      -3759.000      -3015.000      -2235.000      -1423.000    
  -619.0000       122.0000       775.0000       1362.000       1920.000    
   2454.000       2924.000       3269.000       3578.000       3909.000    
   4320.000       4776.000       5160.000       5320.000       5240.000    
   4864.000       4312.000       3689.000       3054.000       2442.000    
   1868.000       1313.000       737.0000       115.0000      -522.0000    
  -1078.000      -1452.000      -1601.000      -1565.000      -1404.000    
  -1139.000      -745.0000      -200.0000       468.0000       1210.000    
   2031.000       2943.000       3929.000       4928.000       5888.000    
   6880.000       8000.000       9296.000       10688.00       11976.00    
   12912.00       13408.00       13504.00       13328.00       12992.00    
   12576.00       12128.00       11680.00       11216.00       10704.00    
   10168.00       9456.000       8616.000       7680.000       6424.000    
   4888.000       3101.000       1114.000      -891.0000      -2797.000    
  -4496.000      -6032.000      -7440.000      -8696.000      -9720.000    
  -10376.00      -10584.00      -10456.00      -10200.00      -10040.00    
  -10000.00      -9968.000      -9608.000      -8832.000      -7712.000    
  -6544.000      -5424.000      -4456.000      -3430.000      -2069.000    
  -316.0000       1737.000       3785.000       5576.000       7008.000    
   8176.000       9368.000       10856.00       12712.00       14712.00    
   16440.00       17488.00       17680.00       17200.00       16480.00    
   15936.00       15760.00       15880.00       16088.00       16184.00    
   16072.00       15792.00       15448.00       15176.00       15032.00    
   15000.00       14992.00       14912.00       14720.00       14456.00    
   14208.00       14000.00       13824.00       13648.00       13448.00    
   13160.00       12680.00       11856.00       10464.00       8272.000    
   5464.000       2452.000      -484.0000      -3088.000      -5328.000    
  -7288.000      -9080.000      -10736.00      -12208.00      -13456.00    
  -14496.00      -15456.00      -16472.00      -17624.00      -18840.00    
  -19928.00      -20720.00      -21136.00      -21152.00      -20856.00    
  -20344.00      -19696.00      -18976.00      -18192.00      -17264.00    
  -16056.00      -14528.00      -12496.00      -10296.00      -7920.000    
  -5624.000      -3396.000      -1213.000       997.0000       3117.000    
   4928.000       6264.000       7096.000       7504.000       7584.000    
   7344.000       6784.000       5720.000       4248.000       2483.000    
   595.0000      -1386.000      -3491.000      -5760.000      -8200.000    
  -10768.00      -13368.00      -15864.00      -18096.00      -19856.00    
  -21040.00      -21640.00      -21768.00      -21592.00      -21216.00    
  -20680.00      -19928.00      -18888.00      -17496.00      -15784.00    
  -13904.00      -11808.00      -9744.000      -7560.000      -5384.000    
  -3164.000      -936.0000       1350.000       3689.000       6056.000    
   8408.000       10664.00       12712.00       14408.00       15648.00    
   16424.00       16816.00       16936.00       16856.00       16632.00    
   16288.00       15880.00       15496.00       15240.00       15136.00    
   15104.00       15024.00       14760.00       14288.00       13672.00    
   13000.00       12312.00       11552.00       10704.00       9568.000    
   8288.000       6736.000       5056.000       3274.000       1404.000    
  -446.0000      -2221.000      -3848.000      -5264.000      -6560.000    
  -7760.000      -8968.000      -10256.00      -11664.00      -13192.00    
  -14824.00      -16464.00      -18008.00      -19336.00      -20360.00    
  -21072.00      -21544.00      -21864.00      -22096.00      -22200.00    
  -22064.00      -21552.00      -20560.00      -19080.00      -17152.00    
  -14928.00      -12376.00      -9376.000      -6016.000      -2507.000    
   1099.000       4728.000       8320.000       11808.00       15144.00    
   18264.00       21120.00       23696.00       26032.00       28128.00    
   29888.00       31096.00       31512.00       30984.00       29552.00    
   27440.00       24880.00       22072.00       19072.00       16064.00    
   12456.00       8424.000       4176.000      -243.0000      -4776.000    
  -9320.000      -13736.00      -17920.00      -21784.00      -25248.00    
  -28232.00      -30664.00      -32488.00      -33664.00      -34240.00    
  -34368.00      -34112.00      -33472.00      -32600.00      -31360.00    
  -29728.00      -27656.00      -25104.00      -22136.00      -18880.00    
  -15576.00      -12264.00      -8824.000      -5256.000      -1572.000    
   2304.000       6280.000       10160.00       13728.00       16848.00    
   19496.00       21752.00       23792.00       25744.00       27632.00    
   29376.00       30824.00       31792.00       32184.00       31976.00    
   31208.00       29976.00       28352.00       26384.00       24088.00    
   21504.00       18696.00       15864.00       13024.00       10080.00    
   7152.000       4184.000       1312.000      -1460.000      -4024.000    
  -6296.000      -8240.000      -9824.000      -11032.00      -11856.00    
  -12320.00      -12432.00      -12184.00      -11560.00      -10344.00    
  -8664.000      -6384.000      -3662.000      -652.0000       2602.000    
   6056.000       9648.000       13320.00       16936.00       20368.00    
   23440.00       26056.00       28176.00       29864.00       31192.00    
   32240.00       33024.00       33536.00       33856.00       33856.00    
   33536.00       32832.00       31768.00       30304.00       28560.00    
   26648.00       24616.00       22504.00       20320.00       18040.00    
   15720.00       13240.00       10408.00       7408.000       4256.000    
   1124.000      -2007.000      -5184.000      -8456.000      -11800.00    
  -15160.00      -18480.00      -21744.00      -24928.00      -27976.00    
  -30792.00      -33280.00      -35392.00      -37248.00      -38720.00    
  -40000.00      -41088.00      -41984.00      -42624.00      -42816.00    
  -42496.00      -41856.00      -40768.00      -39296.00      -37504.00    
  -35392.00      -33088.00      -30616.00      -27960.00      -25128.00    
  -22200.00      -19320.00      -16656.00      -14320.00      -12376.00    
  -10864.00      -9592.000      -8552.000      -7648.000      -6824.000    
  -6072.000      -5432.000      -4816.000      -4264.000      -3742.000    
  -3176.000      -2491.000      -1609.000      -476.0000       877.0000    
   2399.000       3984.000       5608.000       7256.000       8920.000    
   10600.00       12288.00       13952.00       15560.00       17040.00    
   18328.00       19368.00       20152.00       20640.00       20768.00    
   20488.00       19760.00       18576.00       16904.00       14832.00    
   12312.00       9224.000       5736.000       2038.000      -1829.000    
  -5824.000      -9864.000      -13848.00      -17624.00      -21032.00    
  -23936.00      -26296.00      -28136.00      -29496.00      -30360.00    
  -30680.00      -30424.00      -29656.00      -28480.00      -27016.00    
  -25312.00      -23328.00      -20984.00      -18344.00      -15216.00    
  -11960.00      -8528.000      -5280.000      -2344.000       156.0000    
   2283.000       4087.000       5672.000       7032.000       8096.000    
   8800.000       8928.000       8512.000       7704.000       6480.000    
   5024.000       3426.000       1736.000       11.00000      -1653.000    
  -3174.000      -4472.000      -5544.000      -6376.000      -6960.000    
  -7264.000      -7216.000      -6856.000      -6080.000      -5048.000    
  -3863.000      -2601.000      -1309.000      -31.00000       1177.000    
   2292.000       3302.000       4184.000       4880.000       5304.000    
   5432.000       5320.000       5088.000       4848.000       4664.000    
   4384.000       3946.000       3258.000       2333.000       1257.000    
   146.0000      -910.0000      -1899.000      -2829.000      -3704.000    
  -4528.000      -5344.000      -6304.000      -7472.000      -8856.000    
  -10320.00      -11672.00      -12760.00      -13528.00      -14000.00    
  -14264.00      -14384.00      -14352.00      -14104.00      -13520.00    
  -12552.00      -11008.00      -9120.000      -6880.000      -4544.000    
  -2182.000       182.0000       2631.000       5192.000       7824.000    
   10416.00       12864.00       15120.00       17200.00       19112.00    
   20864.00       22472.00       23928.00       25216.00       26288.00    
   27096.00       27592.00       27784.00       27704.00       27392.00    
   26880.00       26208.00       25392.00       24448.00       23432.00    
   22368.00       21296.00       20272.00       19312.00       18488.00    
   17808.00       17232.00       16680.00       16040.00       15248.00    
   14360.00       13472.00       12688.00       12064.00       11584.00    
   11192.00       10808.00       10400.00       9976.000       9576.000    
   9248.000       8984.000       8776.000       8472.000       8064.000    
   7552.000       6928.000       6280.000       5512.000       4712.000    
   3920.000       3173.000       2483.000       1797.000       1043.000    
   194.0000      -703.0000      -1558.000      -2355.000      -3114.000    
  -3887.000      -4688.000      -5512.000      -6256.000      -7008.000    
  -7752.000      -8552.000      -9400.000      -10280.00      -11160.00    
  -12048.00      -12936.00      -13792.00      -14576.00      -15256.00    
  -15808.00      -16208.00      -16424.00      -16416.00      -16144.00    
  -15568.00      -14688.00      -13584.00      -12112.00      -10464.00    
  -8496.000      -6336.000      -4031.000      -1577.000       926.0000    
   3448.000       5936.000       8344.000       10656.00       12848.00    
   14872.00       16648.00       18168.00       19432.00       20456.00    
   21240.00       21744.00       21904.00       21672.00       21064.00    
   20168.00       19104.00       17968.00       16800.00       15536.00    
   14120.00       12576.00       10784.00       8960.000       7016.000    
   5112.000       3327.000       1681.000       158.0000      -1291.000    
  -2732.000      -4160.000      -5488.000      -6656.000      -7536.000    
  -8096.000      -8368.000      -8480.000      -8568.000      -8736.000    
  -9008.000      -9280.000      -9456.000      -9464.000      -9360.000    
  -9288.000      -9424.000      -9896.000      -10672.00      -11648.00    
  -12648.00      -13568.00      -14400.00      -15184.00      -15984.00    
  -16776.00      -17536.00      -18184.00      -18720.00      -19144.00    
  -19512.00      -19832.00      -20104.00      -20304.00      -20384.00    
  -20320.00      -20112.00      -19760.00      -19272.00      -18632.00    
  -17792.00      -16744.00      -15464.00      -13968.00      -12392.00    
  -10632.00      -8880.000      -6936.000      -4880.000      -2663.000    
  -332.0000       2121.000       4672.000       7280.000       9896.000    
   12480.00       15024.00       17488.00       19800.00       21920.00    
   23816.00       25472.00       26888.00       28008.00       28776.00    
   29152.00       29128.00       28760.00       28144.00       27376.00    
   26512.00       25536.00       24384.00       22952.00       21216.00    
   19208.00       17008.00       14776.00       12400.00       10104.00    
   7664.000       5184.000       2660.000       204.0000      -2151.000    
