  0.2500000e-01  -83776.00       148480.0      -12345.00      -12345.00    
  -5.000015       294.9750             0.      -12345.00       2.000000    
  -12345.00      -12345.00      -12345.00      -12345.00      -12345.00    
  -12345.00      -12345.00      -12345.00      -12345.00      -12345.00    
  -12345.00      -12345.00      -12345.00      -12345.00      -12345.00    
  -12345.00      -12345.00      -12345.00      -12345.00      -12345.00    
  -12345.00       34.38975      -116.4115       792.6299             0.    
   37.85200      -118.1230      -12345.00      -12345.00      -12345.00    
  -12345.00      -12345.00      -12345.00      -12345.00      -12345.00    
  -12345.00      -12345.00      -12345.00      -12345.00      -12345.00    
   413.9006       157.6387       338.6439       3.722425      -12345.00    
  -12345.00      -10.22442       90.00000       90.00000      -12345.00    
  -12345.00      -12345.00      -12345.00      -12345.00      -12345.00    
  -12345.00      -12345.00      -12345.00      -12345.00      -12345.00    
      1982       267         7        40        24
       296         6         0         0     12000
    -12345    -12345    -12345    -12345    -12345
         1         7        11    -12345    -12345
    -12345    -12345    -12345    -12345    -12345
    -12345    -12345    -12345    -12345    -12345
    -12345    -12345    -12345    -12345    -12345
         1         1         1         1         0
LAC     -12345  -12345  
[...]
  -358.0000      -953.0000      -1518.000      -2010.000      -2404.000    
  -2727.000      -2965.000      -3140.000      -3222.000      -3221.000    
  -3081.000      -2792.000      -2354.000      -1808.000      -1213.000    
  -636.0000      -128.0000       293.0000       622.0000       861.0000    
   1018.000       1097.000       1083.000       948.0000       688.0000    
   344.0000      -15.00000      -335.0000      -611.0000      -892.0000    
  -1229.000      -1660.000      -2166.000      -2722.000      -3260.000    
  -3738.000      -4112.000      -4384.000      -4536.000      -4624.000    
  -4648.000      -4600.000      -4432.000      -4192.000      -3825.000    
  -3336.000      -2726.000      -2051.000      -1370.000      -705.0000    
  -63.00000       539.0000       1072.000       1514.000       1851.000    
   2079.000       2204.000       2257.000       2297.000       2345.000    
   2408.000       2448.000       2428.000       2334.000       2170.000    
   1953.000       1703.000       1434.000       1144.000       820.0000    
   453.0000       56.00000      -345.0000      -723.0000      -1048.000    
  -1276.000      -1366.000      -1303.000      -1104.000      -815.0000    
  -503.0000      -240.0000      -84.00000      -39.00000      -59.00000    
  -64.00000       25.00000       249.0000       596.0000       990.0000    
   1320.000       1487.000       1442.000       1183.000       731.0000    
   123.0000      -587.0000      -1341.000      -2093.000      -2830.000    
  -3534.000      -4168.000      -4696.000      -5104.000      -5392.000    
  -5560.000      -5616.000      -5584.000      -5496.000      -5352.000    
  -5144.000      -4856.000      -4496.000      -4096.000      -3618.000    
  -3091.000      -2503.000      -1840.000      -1103.000      -324.0000    
   450.0000       1191.000       1906.000       2588.000       3233.000    
   3843.000       4432.000       5032.000       5640.000       6248.000    
   6816.000       7320.000       7744.000       8112.000       8432.000    
   8688.000       8832.000       8808.000       8568.000       8104.000    
   7440.000       6648.000       5824.000       4992.000       4192.000    
   3370.000       2500.000       1595.000       713.0000      -75.00000    
  -715.0000      -1203.000      -1587.000      -1962.000      -2370.000    
  -2829.000      -3268.000      -3627.000      -3797.000      -3776.000    
  -3557.000      -3211.000      -2790.000      -2355.000      -1963.000    
  -1638.000      -1347.000      -1023.000      -604.0000      -66.00000    
   566.0000       1224.000       1830.000       2308.000       2657.000    
   2885.000       3053.000       3162.000       3225.000       3178.000    
   3003.000       2698.000       2315.000       1922.000       1582.000    
   1324.000       1153.000       1052.000       994.0000       954.0000    
   927.0000       921.0000       941.0000       983.0000       1040.000    
   1104.000       1162.000       1199.000       1209.000       1198.000    
   1174.000       1142.000       1093.000       1020.000       928.0000    
   842.0000       791.0000       801.0000       888.0000       1032.000    
   1185.000       1297.000       1329.000       1263.000       1113.000    
   924.0000       758.0000       656.0000       619.0000       616.0000    
   597.0000       523.0000       392.0000       234.0000       89.00000    
         0.       12.00000       167.0000       463.0000       854.0000    
   1257.000       1590.000       1814.000       1950.000       2040.000    
   2125.000       2226.000       2317.000       2367.000       2324.000    
   2179.000       1970.000       1758.000       1595.000       1518.000    
   1540.000       1639.000       1772.000       1896.000       1985.000    
   2020.000       1996.000       1904.000       1746.000       1558.000    
   1402.000       1330.000       1360.000       1476.000       1629.000    
   1754.000       1805.000       1767.000       1637.000       1428.000    
   1155.000       830.0000       464.0000       64.00000      -373.0000    
  -871.0000      -1449.000      -2086.000      -2741.000      -3369.000    
  -3928.000      -4384.000      -4736.000      -4992.000      -5184.000    
  -5336.000      -5456.000      -5568.000      -5648.000      -5680.000    
  -5696.000      -5736.000      -5848.000      -6040.000      -6280.000    
  -6472.000      -6608.000      -6648.000      -6680.000      -6744.000    
  -6920.000      -7184.000      -7528.000      -7896.000      -8280.000    
  -8672.000      -9064.000      -9416.000      -9704.000      -9920.000    
  -10056.00      -10136.00      -10176.00      -10144.00      -10024.00    
  -9800.000      -9512.000      -9240.000      -9096.000      -9192.000    
  -9560.000      -10152.00      -10848.00      -11512.00      -12032.00    
  -12360.00      -12528.00      -12640.00      -12760.00      -12888.00    
  -12976.00      -12968.00      -12776.00      -12376.00      -11768.00    
  -10984.00      -10072.00      -9080.000      -8088.000      -7128.000    
  -6176.000      -5192.000      -4176.000      -3113.000      -2014.000    
  -948.0000       7.000000       787.0000       1374.000       1793.000    
   2075.000       2254.000       2356.000       2447.000       2537.000    
   2646.000       2748.000       2863.000       2975.000       3107.000    
   3232.000       3368.000       3500.000       3649.000       3835.000    
   4063.000       4312.000       4544.000       4712.000       4784.000    
   4704.000       4488.000       4120.000       3658.000       3149.000    
   2654.000       2210.000       1837.000       1536.000       1302.000    
   1145.000       1104.000       1221.000       1523.000       2004.000    
   2639.000       3386.000       4208.000       5088.000       5984.000    
   6848.000       7624.000       8256.000       8704.000       8952.000    
   9024.000       8928.000       8672.000       8264.000       7752.000    
   7144.000       6464.000       5728.000       4960.000       4136.000    
   3252.000       2297.000       1302.000       327.0000      -556.0000    
  -1307.000      -1903.000      -2368.000      -2707.000      -2974.000    
  -3181.000      -3368.000      -3502.000      -3583.000      -3568.000    
  -3499.000      -3381.000      -3265.000      -3130.000      -2986.000    
  -2816.000      -2600.000      -2313.000      -1945.000      -1513.000    
  -1051.000      -595.0000      -188.0000       141.0000       387.0000    
   576.0000       751.0000       949.0000       1196.000       1506.000    
   1877.000       2265.000       2580.000       2716.000       2599.000    
   2223.000       1665.000       1057.000       527.0000       130.0000    
  -170.0000      -480.0000      -937.0000      -1655.000      -2672.000    
  -3928.000      -5272.000      -6608.000      -7856.000      -9016.000    
  -10120.00      -11240.00      -12432.00      -13720.00      -15064.00    
  -16352.00      -17432.00      -18200.00      -18608.00      -18688.00    
  -18544.00      -18264.00      -17880.00      -17360.00      -16632.00    
  -15592.00      -14128.00      -12256.00      -10024.00      -7680.000    
  -5424.000      -3443.000      -1796.000      -452.0000       702.0000    
   1796.000       2932.000       4152.000       5400.000       6544.000    
   7448.000       8040.000       8272.000       8152.000       7696.000    
   6880.000       5752.000       4336.000       2705.000       952.0000    
  -835.0000      -2559.000      -4104.000      -5344.000      -6192.000    
  -6640.000      -6784.000      -6728.000      -6544.000      -6312.000    
  -6032.000      -5600.000      -4856.000      -3605.000      -1760.000    
   587.0000       3177.000       5704.000       7960.000       9856.000    
   11448.00       12808.00       14032.00       15104.00       16000.00    
   16600.00       16768.00       16416.00       15584.00       14424.00    
   13096.00       11696.00       10280.00       8808.000       7272.000    
   5760.000       4440.000       3477.000       2939.000       2756.000    
   2727.000       2640.000       2394.000       2061.000       1889.000    
   2177.000       3135.000       4720.000       6624.000       8400.000    
   9616.000       10088.00       9824.000       9056.000       8008.000    
   6832.000       5608.000       4216.000       2491.000       293.0000    
  -2389.000      -5456.000      -8824.000      -12432.00      -16264.00    
  -20264.00      -24272.00      -28032.00      -31272.00      -33792.00    
  -35584.00      -36864.00      -37696.00      -38208.00      -38528.00    
  -38464.00      -37952.00      -37056.00      -35840.00      -34496.00    
  -33088.00      -31776.00      -30376.00      -28952.00      -27632.00    
  -26608.00      -26088.00      -26248.00      -27144.00      -28688.00    
  -30624.00      -32672.00      -34624.00      -36416.00      -38080.00    
  -39552.00      -40832.00      -41856.00      -42432.00      -42496.00    
  -41728.00      -40320.00      -38144.00      -35072.00      -31048.00    
  -25616.00      -18928.00      -10776.00      -1453.000       8544.000    
   18712.00       28632.00       38080.00       46848.00       55104.00    
   62656.00       69632.00       75904.00       81408.00       86080.00    
   89792.00       92480.00       94080.00       94656.00       94272.00    
   92992.00       90880.00       87744.00       83520.00       78144.00    
   71552.00       64192.00       56512.00       48960.00       41792.00    
   35008.00       28480.00       21944.00       15472.00       9096.000    
   3108.000      -2099.000      -6240.000      -9288.000      -11368.00    
  -12696.00      -13440.00      -13736.00      -13656.00      -13216.00    
  -12416.00      -11264.00      -9896.000      -8424.000      -6904.000    
  -5360.000      -3716.000      -1903.000       115.0000       2340.000    
   4736.000       7168.000       9368.000       10976.00       11760.00    
   11736.00       11136.00       10240.00       9304.000       8408.000    
   7480.000       6400.000       4952.000       3053.000       733.0000    
  -1803.000      -4376.000      -6944.000      -9624.000      -12600.00    
  -16024.00      -19952.00      -24336.00      -29000.00      -33728.00    
  -38400.00      -42880.00      -47296.00      -51584.00      -55808.00    
  -59776.00      -63360.00      -66240.00      -68480.00      -70144.00    
  -71296.00      -72128.00      -72640.00      -72768.00      -72192.00    
  -70784.00      -68288.00      -64704.00      -60224.00      -55040.00    
  -49408.00      -43392.00      -37184.00      -30984.00      -24712.00    
  -18440.00      -12232.00      -5952.000       342.0000       6560.000    
   12536.00       18104.00       23120.00       27544.00       31400.00    
   34688.00       37440.00       39488.00       40832.00       41280.00    
   41024.00       40064.00       38464.00       36416.00       33984.00    
   31072.00       27680.00       23960.00       19960.00       15888.00    
   11792.00       7816.000       3925.000       186.0000      -3321.000    
  -6480.000      -9216.000      -11504.00      -13384.00      -14960.00    
  -16280.00      -17312.00      -17952.00      -18096.00      -17688.00    
  -16752.00      -15400.00      -13784.00      -11976.00      -10016.00    
  -7880.000      -5488.000      -2772.000       230.0000       3428.000    
   6728.000       10120.00       13592.00       17048.00       20264.00    
   22968.00       24952.00       26192.00       26816.00       27040.00    
   27056.00       26888.00       26440.00       25544.00       24088.00    
   22136.00       19768.00       17112.00       14264.00       11240.00    
   8040.000       4584.000       876.0000      -3055.000      -7096.000    
  -11152.00      -15064.00      -18768.00      -22192.00      -25344.00    
  -28216.00      -30784.00      -32896.00      -34496.00      -35264.00    
  -35136.00      -34048.00      -32008.00      -29232.00      -25992.00    
  -22360.00      -18264.00      -13824.00      -9000.000      -3843.000    
   1456.000       6688.000       11712.00       16488.00       21024.00    
   25368.00       29528.00       33472.00       37248.00       40896.00    
   44608.00       48448.00       52480.00       56704.00       60992.00    
   65344.00       69824.00       74304.00       78912.00       83584.00    
   88384.00       93312.00       98432.00       103680.0       109056.0    
   114368.0       119552.0       124544.0       129344.0       133888.0    
   138112.0       141888.0       145088.0       147328.0       148480.0    
   148480.0       147264.0       144896.0       141376.0       136832.0    
   131264.0       124736.0       117312.0       109120.0       100224.0    
   90816.00       81024.00       70912.00       60672.00       50304.00    
   40064.00       29808.00       19912.00       10200.00       915.0000    
  -7816.000      -15912.00      -23384.00      -30336.00      -36864.00    
  -42944.00      -48704.00      -53888.00      -58688.00      -62976.00    
  -66944.00      -70464.00      -73536.00      -76160.00      -78208.00    
  -79744.00      -80896.00      -81664.00      -82304.00      -82752.00    
  -83200.00      -83520.00      -83712.00      -83776.00      -83776.00    
  -83712.00      -83712.00      -83648.00      -83456.00      -82880.00    
  -81856.00      -80064.00      -77568.00      -74304.00      -70528.00    
  -66432.00      -62272.00      -58240.00      -54336.00      -50624.00    
  -46976.00      -43456.00      -40128.00      -36928.00      -33984.00    
  -31392.00      -28928.00      -26416.00      -23784.00      -20896.00    
  -17800.00      -14600.00      -11472.00      -8512.000      -5664.000    
  -2778.000       301.0000       3623.000       7112.000       10648.00    
   14072.00       17320.00       20400.00       23408.00       26456.00    
   29536.00       32520.00       35200.00       37504.00       39296.00    
   40704.00       41728.00       42432.00       42816.00       42752.00    
   42112.00       40960.00       39296.00       37184.00       34880.00    
   32488.00       30024.00       27552.00       25048.00       22624.00    
   20296.00       18136.00       16208.00       14552.00       13168.00    
   12056.00       11200.00       10560.00       10112.00       9824.000    
   9672.000       9656.000       9728.000       9840.000       9952.000    
   10016.00       9984.000       9832.000       9608.000       9344.000    
   9112.000       8936.000       8768.000       8568.000       8216.000    
   7608.000       6720.000       5664.000       4552.000       3514.000    
   2645.000       1970.000       1415.000       881.0000       320.0000    
  -225.0000      -652.0000      -839.0000      -674.0000      -101.0000    
   871.0000       2214.000       3936.000       6072.000       8624.000    
   11552.00       14760.00       18184.00       21744.00       25344.00    
   28896.00       32304.00       35456.00       38336.00       40832.00    
   43008.00       44800.00       46272.00       47360.00       47936.00    
   47872.00       47104.00       45504.00       43200.00       40320.00    
   36928.00       33216.00       29184.00       24872.00       20168.00    
   15072.00       9664.000       3870.000      -2135.000      -8176.000    
  -14104.00      -19792.00      -25184.00      -30280.00      -35136.00    
  -39808.00      -44352.00      -48704.00      -52864.00      -56640.00    
  -59776.00      -62208.00      -63808.00      -64576.00      -64768.00    
  -64448.00      -63872.00      -63168.00      -62400.00      -61568.00    
  -60544.00      -59328.00      -57920.00      -56576.00      -55424.00    
  -54720.00      -54528.00      -54976.00      -56000.00      -57344.00    
  -58880.00      -60544.00      -62208.00      -63872.00      -65664.00    
  -67456.00      -69184.00      -70784.00      -72064.00      -72832.00    
  -73088.00      -72704.00      -71680.00      -70272.00      -68480.00    
  -66432.00      -64384.00      -62272.00      -60160.00      -58112.00    
  -56064.00      -54144.00      -52288.00      -50688.00      -49216.00    
  -47872.00      -46592.00      -45440.00      -44416.00      -43456.00    
  -42688.00      -42048.00      -41472.00      -40704.00      -39744.00    
  -38400.00      -36736.00      -34752.00      -32656.00      -30408.00    
  -28120.00      -25768.00      -23408.00      -21016.00      -18664.00    
  -16496.00      -14600.00      -12984.00      -11568.00      -10240.00    
  -8824.000      -7288.000      -5600.000      -3774.000      -1879.000    
   3.000000       1803.000       3517.000       5168.000       6840.000    
   8600.000       10512.00       12640.00       14936.00       17344.00    
   19760.00       22072.00       24176.00       26032.00       27656.00    
   29080.00       30304.00       31240.00       31808.00       31920.00    
   31584.00       30856.00       29816.00       28496.00       26912.00    
   25024.00       22864.00       20384.00       17624.00       14632.00    
   11504.00       8304.000       5000.000       1536.000      -2116.000    
  -5928.000      -9864.000      -13792.00      -17576.00      -21080.00    
  -24208.00      -26944.00      -29336.00      -31472.00      -33408.00    
  -35136.00      -36672.00      -37760.00      -38464.00      -38720.00    
  -38656.00      -38400.00      -38080.00      -37888.00      -37760.00    
  -37696.00      -37760.00      -37824.00      -37824.00      -37824.00    
  -37888.00      -38016.00      -38208.00      -38528.00      -38848.00    
  -39104.00      -39232.00      -39232.00      -38976.00      -38592.00    
  -38016.00      -37248.00      -36352.00      -35328.00      -34176.00    
  -32896.00      -31624.00      -30184.00      -28608.00      -26904.00    
  -25064.00      -23168.00      -21184.00      -19080.00      -16848.00    
  -14440.00      -11960.00      -9456.000      -7080.000      -4864.000    
  -2846.000      -1008.000       714.0000       2368.000       3975.000    
