  0.2500000e-01  -34432.00       46080.00      -12345.00      -12345.00    
  -5.000015       294.9750             0.      -12345.00       2.000000    
  -12345.00      -12345.00      -12345.00      -12345.00      -12345.00    
  -12345.00      -12345.00      -12345.00      -12345.00      -12345.00    
  -12345.00      -12345.00      -12345.00      -12345.00      -12345.00    
  -12345.00      -12345.00      -12345.00      -12345.00      -12345.00    
  -12345.00       34.38975      -116.4115       792.6299             0.    
   37.85200      -118.1230      -12345.00      -12345.00      -12345.00    
  -12345.00      -12345.00      -12345.00      -12345.00      -12345.00    
  -12345.00      -12345.00      -12345.00      -12345.00      -12345.00    
   413.9006       157.6387       338.6439       3.722425      -12345.00    
  -12345.00       1.151417             0.       90.00000      -12345.00    
  -12345.00      -12345.00      -12345.00      -12345.00      -12345.00    
  -12345.00      -12345.00      -12345.00      -12345.00      -12345.00    
      1982       267         7        40        24
       296         6         0         0     12000
    -12345    -12345    -12345    -12345    -12345
         1         7        11    -12345    -12345
    -12345    -12345    -12345    -12345    -12345
    -12345    -12345    -12345    -12345    -12345
    -12345    -12345    -12345    -12345    -12345
         1         1         1         1         0
LAC     -12345  -12345  
[...]
   1638.000       2012.000       2356.000       2616.000       2750.000    
   2736.000       2581.000       2303.000       1933.000       1531.000    
   1166.000       899.0000       764.0000       756.0000       822.0000    
   877.0000       850.0000       730.0000       575.0000       473.0000    
   480.0000       586.0000       734.0000       861.0000       911.0000    
   860.0000       730.0000       565.0000       398.0000       236.0000    
   63.00000      -136.0000      -361.0000      -594.0000      -824.0000    
  -1063.000      -1326.000      -1614.000      -1914.000      -2209.000    
  -2492.000      -2774.000      -3094.000      -3497.000      -4025.000    
  -4688.000      -5440.000      -6192.000      -6824.000      -7296.000    
  -7632.000      -7840.000      -7968.000      -8024.000      -8024.000    
  -7944.000      -7752.000      -7488.000      -7168.000      -6768.000    
  -6272.000      -5656.000      -4944.000      -4192.000      -3493.000    
  -2910.000      -2477.000      -2159.000      -1884.000      -1583.000    
  -1224.000      -834.0000      -480.0000      -233.0000      -135.0000    
  -186.0000      -331.0000      -483.0000      -575.0000      -583.0000    
  -522.0000      -422.0000      -307.0000      -182.0000      -46.00000    
   94.00000       224.0000       307.0000       297.0000       161.0000    
  -102.0000      -454.0000      -835.0000      -1191.000      -1497.000    
  -1747.000      -1939.000      -2069.000      -2144.000      -2186.000    
  -2225.000      -2280.000      -2348.000      -2419.000      -2472.000    
  -2472.000      -2376.000      -2152.000      -1817.000      -1432.000    
  -1078.000      -810.0000      -637.0000      -530.0000      -451.0000    
  -386.0000      -348.0000      -358.0000      -427.0000      -535.0000    
  -639.0000      -701.0000      -716.0000      -699.0000      -684.0000    
  -709.0000      -801.0000      -966.0000      -1192.000      -1457.000    
  -1735.000      -2005.000      -2236.000      -2403.000      -2492.000    
  -2520.000      -2513.000      -2471.000      -2370.000      -2182.000    
  -1916.000      -1625.000      -1369.000      -1172.000      -992.0000    
  -738.0000      -340.0000       201.0000       803.0000       1376.000    
   1868.000       2294.000       2721.000       3241.000       3911.000    
   4712.000       5576.000       6400.000       7088.000       7576.000    
   7816.000       7832.000       7664.000       7416.000       7160.000    
   6952.000       6768.000       6544.000       6200.000       5664.000    
   4952.000       4152.000       3360.000       2656.000       2122.000    
   1777.000       1550.000       1308.000       945.0000       409.0000    
  -303.0000      -1174.000      -2157.000      -3157.000      -4039.000    
  -4672.000      -5032.000      -5160.000      -5192.000      -5240.000    
  -5344.000      -5400.000      -5280.000      -4880.000      -4192.000    
  -3378.000      -2623.000      -2085.000      -1787.000      -1623.000    
  -1415.000      -984.0000      -267.0000       616.0000       1402.000    
   1819.000       1709.000       1077.000       70.00000      -1046.000    
  -1958.000      -2430.000      -2413.000      -2052.000      -1608.000    
  -1324.000      -1327.000      -1565.000      -1859.000      -2016.000    
  -1946.000      -1672.000      -1269.000      -807.0000      -319.0000    
   205.0000       782.0000       1365.000       1803.000       1903.000    
   1548.000       804.0000      -70.00000      -761.0000      -1104.000    
  -1154.000      -1114.000      -1211.000      -1601.000      -2303.000    
  -3184.000      -4036.000      -4704.000      -5160.000      -5496.000    
  -5808.000      -6120.000      -6368.000      -6536.000      -6728.000    
  -7128.000      -7824.000      -8736.000      -9600.000      -10032.00    
  -9744.000      -8768.000      -7488.000      -6392.000      -5880.000    
  -6112.000      -6864.000      -7712.000      -8152.000      -7920.000    
  -7112.000      -6120.000      -5424.000      -5352.000      -5896.000    
  -6688.000      -7240.000      -7208.000      -6544.000      -5432.000    
  -4120.000      -2866.000      -1782.000      -874.0000      -73.00000    
   676.0000       1413.000       2226.000       3250.000       4592.000    
   6248.000       8056.000       9824.000       11384.00       12632.00    
   13528.00       14048.00       14200.00       14040.00       13592.00    
   12880.00       11928.00       10840.00       9760.000       8824.000    
   8184.000       7912.000       8008.000       8368.000       8736.000    
   8896.000       8672.000       8032.000       7008.000       5688.000    
   4176.000       2623.000       1174.000       15.00000      -743.0000    
  -1098.000      -1158.000      -1112.000      -1174.000      -1487.000    
  -2040.000      -2708.000      -3332.000      -3758.000      -3850.000    
  -3520.000      -2767.000      -1674.000      -373.0000       999.0000    
   2368.000       3776.000       5376.000       7336.000       9712.000    
   12360.00       15000.00       17304.00       19080.00       20256.00    
   20944.00       21328.00       21544.00       21600.00       21312.00    
   20512.00       18960.00       16576.00       13456.00       9960.000    
   6416.000       3024.000      -250.0000      -3583.000      -7176.000    
  -11104.00      -15216.00      -19184.00      -22688.00      -25536.00    
  -27760.00      -29496.00      -30848.00      -31768.00      -32128.00    
  -31824.00      -30840.00      -29216.00      -27024.00      -24432.00    
  -21632.00      -18824.00      -16136.00      -13592.00      -11160.00    
  -8856.000      -6736.000      -4864.000      -3380.000      -2440.000    
  -2146.000      -2462.000      -3212.000      -4152.000      -5112.000    
  -6032.000      -6920.000      -7768.000      -8480.000      -8952.000    
  -9176.000      -9304.000      -9504.000      -9880.000      -10344.00    
  -10656.00      -10496.00      -9584.000      -7856.000      -5456.000    
  -2736.000      -28.00000       2434.000       4592.000       6480.000    
   8136.000       9552.000       10688.00       11544.00       12112.00    
   12424.00       12496.00       12384.00       12112.00       11704.00    
   11208.00       10728.00       10352.00       10120.00       9976.000    
   9832.000       9560.000       9104.000       8464.000       7752.000    
   7144.000       6784.000       6776.000       7096.000       7640.000    
   8264.000       8840.000       9240.000       9376.000       9176.000    
   8592.000       7672.000       6488.000       5120.000       3574.000    
   1783.000      -297.0000      -2645.000      -5144.000      -7608.000    
  -9840.000      -11776.00      -13456.00      -15016.00      -16536.00    
  -18000.00      -19256.00      -20120.00      -20488.00      -20392.00    
  -19968.00      -19304.00      -18384.00      -17120.00      -15384.00    
  -13064.00      -10208.00      -6984.000      -3578.000      -249.0000    
   2733.000       5192.000       7072.000       8440.000       9392.000    
   10064.00       10576.00       11016.00       11368.00       11560.00    
   11480.00       11120.00       10552.00       9904.000       9256.000    
   8544.000       7568.000       6128.000       4096.000       1567.000    
  -1260.000      -4136.000      -6872.000      -9352.000      -11560.00    
  -13576.00      -15488.00      -17424.00      -19416.00      -21424.00    
  -23352.00      -25064.00      -26480.00      -27568.00      -28352.00    
  -28808.00      -28872.00      -28384.00      -27168.00      -25104.00    
  -22264.00      -18800.00      -14864.00      -10688.00      -6392.000    
  -2065.000       2259.000       6560.000       10800.00       14944.00    
   18928.00       22696.00       26192.00       29352.00       32128.00    
   34432.00       36288.00       37696.00       38848.00       39808.00    
   40704.00       41600.00       42368.00       43072.00       43712.00    
   44096.00       44352.00       44416.00       44224.00       43776.00    
   43072.00       42304.00       41600.00       40960.00       40640.00    
   40576.00       40768.00       41152.00       41664.00       42112.00    
   42624.00       43008.00       43264.00       43328.00       43136.00    
   42688.00       42048.00       41152.00       40000.00       38784.00    
   37440.00       35968.00       34432.00       32720.00       30752.00    
   28488.00       25880.00       23000.00       19912.00       16744.00    
   13528.00       10344.00       7144.000       3911.000       683.0000    
  -2414.000      -5240.000      -7688.000      -9688.000      -11240.00    
  -12352.00      -13088.00      -13496.00      -13608.00      -13416.00    
  -12904.00      -12072.00      -10920.00      -9392.000      -7496.000    
  -5288.000      -2892.000      -467.0000       1836.000       3933.000    
   5776.000       7336.000       8576.000       9488.000       10072.00    
   10352.00       10400.00       10264.00       9968.000       9488.000    
   8736.000       7688.000       6400.000       4976.000       3600.000    
   2418.000       1472.000       675.0000      -138.0000      -1112.000    
  -2290.000      -3609.000      -4968.000      -6296.000      -7568.000    
  -8856.000      -10288.00      -11920.00      -13712.00      -15536.00    
  -17264.00      -18832.00      -20240.00      -21496.00      -22648.00    
  -23680.00      -24488.00      -24944.00      -24904.00      -24304.00    
  -23152.00      -21584.00      -19672.00      -17496.00      -15112.00    
  -12496.00      -9704.000      -6816.000      -3895.000      -994.0000    
   1814.000       4472.000       6912.000       9080.000       10880.00    
   12272.00       13192.00       13656.00       13704.00       13416.00    
   12848.00       12000.00       10800.00       9216.000       7240.000    
   4912.000       2305.000      -467.0000      -3246.000      -5888.000    
  -8304.000      -10416.00      -12224.00      -13784.00      -15184.00    
  -16472.00      -17672.00      -18760.00      -19664.00      -20256.00    
  -20408.00      -20112.00      -19376.00      -18280.00      -16912.00    
  -15328.00      -13544.00      -11512.00      -9280.000      -6936.000    
  -4568.000      -2309.000      -223.0000       1636.000       3258.000    
   4648.000       5824.000       6736.000       7352.000       7712.000    
   7896.000       8008.000       8120.000       8264.000       8432.000    
   8632.000       8872.000       9168.000       9536.000       9992.000    
   10520.00       11104.00       11696.00       12216.00       12608.00    
   12824.00       12824.00       12568.00       12072.00       11384.00    
   10568.00       9728.000       8840.000       7840.000       6616.000    
   5056.000       3149.000       955.0000      -1389.000      -3765.000    
  -6128.000      -8496.000      -10888.00      -13320.00      -15704.00    
  -17936.00      -19936.00      -21616.00      -22896.00      -23760.00    
  -24232.00      -24400.00      -24320.00      -24064.00      -23688.00    
  -23264.00      -22840.00      -22424.00      -21992.00      -21456.00    
  -20744.00      -19880.00      -18928.00      -17960.00      -17008.00    
  -16080.00      -15176.00      -14288.00      -13448.00      -12712.00    
  -12128.00      -11776.00      -11672.00      -11768.00      -12016.00    
  -12368.00      -12808.00      -13360.00      -14032.00      -14816.00    
  -15680.00      -16576.00      -17520.00      -18544.00      -19704.00    
  -20992.00      -22360.00      -23672.00      -24736.00      -25424.00    
  -25704.00      -25672.00      -25528.00      -25472.00      -25688.00    
  -26208.00      -26984.00      -27880.00      -28760.00      -29536.00    
  -30168.00      -30664.00      -31088.00      -31480.00      -31912.00    
  -32392.00      -32896.00      -33408.00      -33856.00      -34240.00    
  -34432.00      -34432.00      -34240.00      -33792.00      -33280.00    
  -32688.00      -32040.00      -31368.00      -30632.00      -29760.00    
  -28656.00      -27272.00      -25600.00      -23688.00      -21632.00    
  -19496.00      -17344.00      -15192.00      -13016.00      -10672.00    
  -8056.000      -5056.000      -1635.000       2157.000       6168.000    
   10216.00       14120.00       17808.00       21312.00       24704.00    
   28048.00       31280.00       34304.00       37120.00       39552.00    
   41664.00       43328.00       44608.00       45568.00       46016.00    
   46080.00       45760.00       45056.00       43840.00       42240.00    
   40128.00       37504.00       34432.00       31072.00       27440.00    
   23712.00       19912.00       15992.00       11952.00       7776.000    
   3527.000      -672.0000      -4680.000      -8416.000      -11832.00    
  -14944.00      -17808.00      -20424.00      -22704.00      -24528.00    
  -25776.00      -26376.00      -26336.00      -25744.00      -24752.00    
  -23504.00      -22064.00      -20504.00      -18792.00      -16912.00    
  -14856.00      -12704.00      -10528.00      -8488.000      -6696.000    
  -5224.000      -4092.000      -3272.000      -2752.000      -2547.000    
  -2694.000      -3234.000      -4168.000      -5472.000      -7024.000    
  -8688.000      -10360.00      -11968.00      -13488.00      -14920.00    
  -16264.00      -17552.00      -18824.00      -20096.00      -21360.00    
  -22568.00      -23664.00      -24584.00      -25288.00      -25800.00    
  -26144.00      -26344.00      -26432.00      -26376.00      -26120.00    
  -25640.00      -24928.00      -24032.00      -22976.00      -21744.00    
  -20376.00      -18808.00      -17016.00      -14976.00      -12736.00    
  -10336.00      -7872.000      -5392.000      -2949.000      -534.0000    
   1857.000       4264.000       6752.000       9376.000       12192.00    
   15200.00       18384.00       21616.00       24744.00       27608.00    
   30144.00       32320.00       34112.00       35520.00       36608.00    
   37248.00       37504.00       37440.00       37120.00       36800.00    
   36416.00       36032.00       35648.00       35200.00       34688.00    
   34048.00       33280.00       32472.00       31712.00       31096.00    
   30640.00       30336.00       30128.00       29944.00       29736.00    
   29480.00       29216.00       28968.00       28776.00       28632.00    
   28512.00       28304.00       27912.00       27264.00       26360.00    
   25264.00       24040.00       22760.00       21432.00       20096.00    
   18712.00       17248.00       15704.00       14096.00       12512.00    
   11040.00       9712.000       8528.000       7488.000       6584.000    
   5768.000       5032.000       4360.000       3791.000       3373.000    
   3137.000       3069.000       3131.000       3276.000       3462.000    
   3632.000       3740.000       3764.000       3721.000       3629.000    
   3500.000       3318.000       3038.000       2600.000       1946.000    
   1054.000      -41.00000      -1264.000      -2529.000      -3757.000    
  -4888.000      -5928.000      -6896.000      -7816.000      -8720.000    
  -9592.000      -10344.00      -10880.00      -11112.00      -11024.00    
  -10696.00      -10240.00      -9704.000      -9136.000      -8472.000    
  -7744.000      -6968.000      -6232.000      -5608.000      -5128.000    
  -4768.000      -4440.000      -4083.000      -3664.000      -3212.000    
  -2787.000      -2441.000      -2166.000      -1880.000      -1470.000    
  -875.0000      -124.0000       685.0000       1430.000       2013.000    
   2391.000       2570.000       2585.000       2475.000       2271.000    
   1997.000       1656.000       1229.000       685.0000       4.000000    
  -807.0000      -1711.000      -2657.000      -3594.000      -4480.000    
  -5296.000      -6072.000      -6832.000      -7568.000      -8264.000    
  -8904.000      -9472.000      -9936.000      -10304.00      -10544.00    
  -10632.00      -10536.00      -10248.00      -9808.000      -9328.000    
  -8920.000      -8664.000      -8560.000      -8520.000      -8464.000    
  -8344.000      -8192.000      -8064.000      -8056.000      -8200.000    
  -8464.000      -8752.000      -8968.000      -9064.000      -9056.000    
  -8992.000      -8936.000      -8912.000      -8928.000      -8976.000    
  -9048.000      -9160.000      -9320.000      -9592.000      -9976.000    
  -10448.00      -10960.00      -11424.00      -11808.00      -12104.00    
  -12320.00      -12488.00      -12648.00      -12848.00      -13128.00    
  -13488.00      -13912.00      -14328.00      -14656.00      -14840.00    
  -14872.00      -14768.00      -14592.00      -14360.00      -14112.00    
  -13880.00      -13656.00      -13424.00      -13136.00      -12760.00    
  -12288.00      -11712.00      -10984.00      -10096.00      -9024.000    
  -7760.000      -6352.000      -4832.000      -3286.000      -1776.000    
  -323.0000       1098.000       2534.000       4032.000       5592.000    
   7192.000       8776.000       10312.00       11808.00       13296.00    
   14832.00       16416.00       18056.00       19688.00       21248.00    
   22704.00       24032.00       25232.00       26312.00       27272.00    
   28120.00       28880.00       29576.00       30248.00       30912.00    
   31520.00       32000.00       32272.00       32304.00       32096.00    
   31704.00       31192.00       30600.00       29992.00       29416.00    
   28888.00       28424.00       27992.00       27544.00       27016.00    
   26368.00       25632.00       24848.00       24040.00       23256.00    
   22496.00       21784.00       21136.00       20544.00       20032.00    
   19560.00       19160.00       18792.00       18408.00       17960.00    
   17416.00       16768.00       16032.00       15280.00       14568.00    
   13944.00       13432.00       13032.00       12688.00       12296.00    
   11816.00       11248.00       10592.00       9864.000       9104.000    
