  0.2500000e-01  -976914.0       890790.0      -12345.00      -12345.00    
  -5.000015       294.9750             0.      -12345.00       2.000000    
  -12345.00      -12345.00      -12345.00      -12345.00      -12345.00    
  -12345.00      -12345.00      -12345.00      -12345.00      -12345.00    
  -12345.00      -12345.00      -12345.00      -12345.00      -12345.00    
  -12345.00      -12345.00      -12345.00      -12345.00      -12345.00    
  -12345.00       38.43217      -118.1544       1507.080             0.    
   37.85200      -118.1230      -12345.00      -12345.00      -12345.00    
  -12345.00      -12345.00      -12345.00      -12345.00      -12345.00    
  -12345.00      -12345.00      -12345.00      -12345.00      -12345.00    
   64.45695       357.5635       177.5442      0.5797598      -12345.00    
  -12345.00       143.0516       90.00003       90.00000      -12345.00    
  -12345.00      -12345.00      -12345.00      -12345.00      -12345.00    
  -12345.00      -12345.00      -12345.00      -12345.00      -12345.00    
      1982       267         7        40        24
       296         6         0         0     12000
    -12345    -12345    -12345    -12345    -12345
         1         7        11    -12345    -12345
    -12345    -12345    -12345    -12345    -12345
    -12345    -12345    -12345    -12345    -12345
    -12345    -12345    -12345    -12345    -12345
         1         1         1         1         0
MNV     -12345  -12345  
[...]
   313.1076       318.4659       321.9893       328.1388       337.5994    
   347.9977       358.6487       370.7026       381.2803       383.9797    
   379.4125       371.7869       367.3258       369.0875       375.9219    
   382.8297       391.3930       399.5974       408.4135       417.4823    
   424.7161       426.5183       422.4565       416.8126       408.7220    
   400.9902       397.3936       398.1847       401.0635       405.8507    
   410.8907       412.6928       415.4655       418.6705       423.2782    
   426.0509       423.5714       416.0192       401.4530       384.8723    
   370.1267       360.2744       355.9271       353.6675       355.0046    
   361.4473       373.4279       384.7968       391.5251       389.5839    
   377.5705       357.1405       329.1581       301.4286       282.1890    
   273.8128       276.7321       284.9037       299.0453       314.8752    
   325.5591       325.5591       310.9197       288.4019       263.6901    
   239.4839       218.0505       203.9570       198.1007       199.6173    
   202.1044       201.7860       198.2298       192.1536       183.7369    
   172.1886       159.2375       144.5247       131.2880       122.7651    
   118.3445       113.8177       106.9176       96.95914       86.92737    
   78.04563       71.35779       65.20830       56.53886       43.15554    
   26.71390       9.913361      -3.396645      -8.755020      -11.16121    
  -11.83855      -12.69534      -14.84877      -20.74550      -32.75886    
  -51.85946      -72.68889      -92.18885      -105.0338      -110.3593    
  -114.3882      -114.9999      -113.5971      -109.7477      -108.0188    
  -113.2306      -123.8740      -140.0224      -157.2880      -175.0591    
  -188.3363      -196.2551      -196.1161      -190.4722      -183.8905    
  -185.2932      -192.1277      -200.9766      -208.7816      -218.1689    
  -230.1823      -239.6428      -243.5656      -246.3383      -248.9316    
  -251.7776      -253.8325      -254.2319      -258.7663      -264.8096    
  -272.0030      -277.1819      -281.5697      -286.5692      -292.2536    
  -295.6380      -293.3051      -289.2105      -286.0865      -286.3065    
  -290.8409      -297.3164      -304.5098      -308.0331      -308.7510    
  -308.1393      -310.3004      -314.1903      -318.3329      -318.6262    
  -314.0261      -307.0855      -303.4888      -306.4738      -312.5172    
  -316.9783      -316.4399      -311.8727      -307.3054      -305.1848    
  -307.0931      -312.2392      -315.6236      -315.4113      -311.5290    
  -306.5295      -300.6657      -295.5929      -295.9518      -299.3690    
  -300.4129      -294.6956      -285.5612      -279.9500      -277.6828    
  -276.6389      -276.0273      -277.0711      -278.7267      -278.0089    
  -275.8883      -272.5444      -267.3654      -258.6960      -246.9682    
  -231.4643      -221.3921      -217.9749      -217.0043      -216.4659    
  -211.3603      -207.6575      -206.0753      -201.7936      -189.8864    
  -176.3969      -166.7569      -158.3402      -146.5063      -131.8668    
  -120.0329      -116.4362      -115.6451      -111.2573      -102.0495    
  -92.23001      -84.96335      -78.48779      -69.99780      -60.46392    
  -50.06562      -37.65287      -21.10509      -2.077808       14.42950    
   27.26683       37.29859       47.58311       57.32928       65.81927    
   73.84422       78.88416       83.05967       90.14689       103.0247    
   120.4697       141.2587       159.1688       175.2439       185.8873    
   194.7691       202.3213       206.9619       210.2730       214.6279    
   225.5646       240.8890       259.5574       274.7353       286.6753    
   297.5715       310.8410       323.1400       333.8568       340.0062    
   346.4085       351.0490       354.8985       359.3596       366.3735    
   376.1930       389.2502       400.1136       408.9625       414.9325    
   423.6348       433.4871       443.1599       448.6245       451.1040    
   451.6423       454.4479       457.1473       459.4878       463.8428    
   474.7794       487.0456       495.2095       497.0773       497.4691    
   498.6519       500.2670       499.9409       497.3148       496.7765    
   498.5053       501.8897       508.0797       514.1963       519.1958    
   524.4808       528.4692       529.2932       525.3705       521.3416    
   518.3566       516.1627       515.5510       516.9538       522.3854    
   526.8466       527.2787       522.0999       516.9209       516.1298    
   515.6976       514.0421       508.9693       504.6876       501.9882    
   496.4832       489.2166       482.8143       481.8438       486.4843    
   490.5132       489.1837       485.4809       479.3314       472.4969    
   462.7836       449.8326       437.0609       426.9153       422.0220    
   419.2164       419.9014       419.0042       417.3158       413.0013    
   402.2846       387.7184       373.4378       361.8895       354.4762    
   349.3301       345.6601       340.6607       335.9140       331.4200    
   325.7028       317.3594       304.9871       290.7798       273.5875    
   256.3953       242.3674       229.0574       218.4797       208.6930    
   199.8441       192.7241       189.0946       184.8534       178.7772    
   170.2544       160.8671       148.9599       133.5621       115.1060    
   95.32048       78.66655       64.71205       54.24806       46.66297    
   42.49509       41.49168       39.19164       31.56606       19.04717    
   1.276054      -17.28617      -35.59564      -50.84679      -60.41350    
  -64.90745      -65.37250      -65.83755      -68.74925      -78.31596    
  -93.31435      -111.5505      -129.6072      -146.0817      -156.3334    
  -162.9151      -167.2296      -169.3502      -170.8591      -173.9503    
  -180.2059      -191.1021      -203.4744      -215.6672      -228.0395    
  -237.6062      -245.5907      -249.0079      -251.6340      -256.0951    
  -261.1678      -268.6140      -276.1663      -286.1980      -298.3504    
  -308.4883      -315.2823      -319.1646      -321.3585      -324.4167    
  -328.5190      -335.4267      -344.8873      -352.2601      -356.1424    
  -357.2191      -356.1019      -355.4169      -360.3431      -370.0892    
  -380.0882      -388.9371      -394.1893      -398.5771      -404.1149    
  -403.4299      -398.1777      -392.9255      -391.8817      -391.7022    
  -393.5372      -397.9983      -407.8177      -421.5928      -432.7418    
  -438.8912      -439.8618      -438.0268      -432.7746      -423.1346    
  -413.3151      -408.3156      -409.7184      -420.3290      -432.7746    
  -439.8618      -440.9057      -433.7123      -421.8784      -409.6123    
  -400.9428      -399.2873      -404.0340      -410.6157      -415.0035    
  -418.7796      -419.3180      -416.6186      -410.3224      -398.8474    
  -384.3874      -370.1801      -360.0018      -352.6290      -346.9117    
  -343.3883      -341.1944      -339.5389      -336.3011      -329.2872    
  -320.2588      -310.7983      -300.7260      -291.2654      -281.4460    
  -269.4326      -258.2104      -248.5703      -237.7803      -225.2286    
  -210.4829      -195.7373      -183.1856      -171.8572      -164.9166    
  -159.7377      -153.6943      -144.2338      -129.9532      -112.5081    
  -94.27197      -77.69135      -63.55740      -53.09342      -46.04667    
  -52.99490      -122.4391      -387.1509      -1045.805      -2192.038    
  -3476.683      -3955.531      -2766.946      -308.8506       1355.238    
  -139.9302      -5399.837      -12179.21      -16665.42      -16552.62    
  -12437.54      -6688.371      -1036.902       3612.793       6066.414    
   7817.836       9761.771       13295.62       17981.42       19547.49    
   14701.51       7094.549       3596.049       8082.519       19994.98    
   34456.90       42199.63       36002.01       16595.97      -6643.250    
  -22105.30      -20380.80       1278.946       34880.02       63029.17    
   73790.56       66671.26       44761.38       19493.23       675.6836    
  -7748.752      -6982.667      -1203.964       2333.763       625.2490    
  -2994.868      -3873.058       567.2402       8216.646       18582.40    
   32903.57       47435.45       57821.59       60164.04       54073.13    
   40193.99       18587.55      -9062.369      -37587.21      -58047.22    
  -64413.86      -52447.19      -23334.29       12914.94       39657.63    
   45668.18       33015.44       12686.72      -4684.129      -13473.48    
  -17831.92      -22432.40      -28549.86      -33627.56      -31696.86    
  -20694.61      -7341.954       1850.388       8313.742       17830.25    
   30594.82       42661.23       46123.44       31968.20       3940.079    
  -26275.17      -43936.62      -38143.54      -12361.38       18294.59    
   37352.20       37387.43       25321.88       14445.19       13742.24    
   23212.90       36500.20       43916.09       39557.95       26716.09    
   12544.13       3720.813      -1582.246      -4039.924      -1824.829    
   6861.558       19393.14       32600.32       47074.02       57590.86    
   58252.75       51027.16       38717.22       26011.67       20267.88    
   20891.34       22275.00       20229.44       14502.01       7275.433    
  -585.9541      -10089.22      -19419.84      -26667.70      -29605.64    
  -24866.56      -17130.62      -11665.79      -9322.040      -12342.37    
  -21072.28      -29396.27      -33655.52      -33240.45      -28993.84    
  -20217.90      -6296.170       7130.445       11457.17       1965.037    
  -18541.06      -37850.91      -45879.71      -41257.08      -22613.25    
   6015.376       32945.59       45816.96       42228.23       28157.22    
   11847.99      -1827.074      -10150.01      -13489.88      -15946.64    
  -21395.97      -30121.63      -37894.27      -37073.19      -26033.48    
  -9180.541       7318.945       18478.90       28270.21       42216.41    
   57365.43       64414.98       59534.53       45519.17       28399.00    
   15195.42       9238.292       7639.962       6086.424       5787.961    
   9007.699       15252.38       22089.76       26004.48       24987.53    
   20445.39       13324.87       2961.684      -9043.945      -17370.14    
  -22253.25      -26427.85      -26385.33      -18468.88      -470.6016    
   21395.85       40289.56       49886.23       47743.27       36661.97    
   21292.84       3871.229      -13165.18      -29654.65      -43944.27    
  -52102.95      -54834.74      -53945.22      -49481.73      -36712.80    
  -15841.15       5541.084       19441.00       24467.60       22842.03    
   14692.10      -920.0283      -21538.95      -39853.88      -50991.05    
  -53855.97      -50357.56      -44971.80      -41816.33      -39625.28    
  -36289.17      -33197.88      -32335.61      -33907.03      -33950.50    
  -28561.18      -18267.15      -10318.09      -12429.56      -23010.02    
  -34206.38      -37132.11      -26020.85      -2493.466       30056.78    
   61359.83       77045.69       75218.60       62658.27       49553.20    
   38086.87       27718.78       18710.25       9017.914      -1157.406    
  -7846.285      -8585.568      -5299.893      -1364.600       1274.417    
   4223.125       8684.708       11616.61       11268.56       6668.887    
  -1270.231      -9639.905      -17507.37      -23654.06      -27119.80    
  -29221.79      -29033.92      -22576.18      -9127.922       7636.625    
   22835.50       29182.53       23641.09       11347.91      -1870.067    
  -14606.54      -27601.25      -39625.80      -49149.84      -56830.97    
  -65018.16      -75033.48      -82227.07      -80469.13      -72110.38    
  -60435.68      -47297.29      -36486.07      -30064.46      -27471.43    
  -25736.56      -23768.43      -20987.75      -15339.50      -4900.672    
   8927.246       19448.43       22988.29       22069.00       20288.98    
   19969.35       20113.18       17743.22       12384.54       4840.941    
  -5127.160      -16095.57      -23876.42      -26740.44      -23777.82    
  -16768.53      -9407.703      -5807.344      -5003.691      -1799.348    
   3719.633       7119.031       4138.375      -5720.883      -17971.30    
  -26149.86      -29221.08      -31290.32      -32487.50      -27024.43    
  -11821.64       10793.76       29529.88       39286.94       37422.21    
   22241.69      -7323.844      -56424.30      -131831.2      -237085.3    
  -370328.3      -526152.9      -685985.5      -827163.4      -928276.6    
  -976914.0      -976833.9      -953708.4      -935180.8      -935878.3    
  -942621.9      -939447.5      -919189.8      -875255.4      -801046.8    
  -700828.1      -588901.6      -473781.1      -342062.2      -183382.7    
  -195.0371       181579.8       321923.9       397307.0       424037.0    
   439014.9       465572.4       516658.2       600251.8       694605.8    
   764690.3       798179.0       810330.5       812891.5       791947.6    
   727070.6       635651.6       559385.3       512506.8       478339.1    
   447880.4       417432.3       373442.4       312027.2       247483.9    
   215677.0       234248.3       290909.5       361256.7       413076.9    
   410055.4       338414.5       233616.1       156722.1       135154.4    
   139771.9       118620.1       43139.28      -85270.01      -249306.9    
  -411950.3      -549392.3      -658797.8      -744037.4      -818536.0    
  -877187.3      -894937.1      -866733.6      -812349.2      -755852.6    
  -713859.0      -689742.1      -678476.4      -666815.2      -620014.1    
  -514377.3      -363068.1      -196492.8      -24739.63       147203.6    
   324674.9       509005.8       692760.7       837583.2       890790.0    
   849733.5       773484.1       720226.8       689648.5       638125.3    
   541754.9       413454.4       283903.9       158422.3       38277.02    
  -72404.72      -173948.0      -276074.0      -374130.2      -444666.7    
  -477818.0      -480779.3      -467571.5      -450502.0      -421091.2    
  -390510.0      -375103.2      -361092.2      -318091.4      -239083.0    
  -147239.5      -71586.94      -17775.41       22840.17       61285.53    
   107496.6       173966.2       262878.6       376118.1       492618.7    
   585838.5       642477.9       666385.0       657858.0       615248.4    
   554808.9       494448.1       442137.8       399325.4       361679.2    
   315517.4       242047.1       128201.3       3271.461      -106941.0    
  -200135.2      -273865.3      -313220.8      -312603.2      -271209.6    
  -199746.7      -106606.5      -17341.68       46881.07       69301.41    
   49895.72       12343.67      -13853.79      -13558.66       8101.008    
   45663.31       83495.51       103077.8       95044.23       65929.45    
   30552.37       3718.313      -3123.395       15954.86       57659.71    
   105244.9       147304.0       184572.1       226575.6       273240.3    
   314350.9       338668.0       351638.9       359893.7       362473.6    
   366637.7       381402.0       392035.1       381382.9       351373.0    
   321118.1       302447.5       297808.5       312509.4       346228.8    
   387151.5       424353.8       452836.3       470271.2       483205.0    
   499781.8       516146.6       526645.8       531392.6       528973.9    
   518007.8       493266.1       441841.3       360346.8       257455.8    
   147236.7       53998.73      -8978.828      -54836.63      -95441.08    
  -123229.6      -123882.7      -91531.39      -30572.80       36932.96    
   85301.11       98461.81       77650.62       44004.45       19032.74    
   16082.88       32749.19       38852.68       8202.883      -54104.55    
  -129274.2      -194041.0      -225204.9      -207734.7      -151725.9    
  -79637.09      -7843.313       55662.16       107305.3       144769.6    
   164628.8       161494.5       135008.7       86122.84       27308.96    
  -29955.68      -69938.22      -83076.30      -64630.49      -24359.09    
   19939.76       60479.50       99644.13       144260.6       196774.5    
   250589.5       293157.3       319937.1       326359.5       306449.4    
   258480.6       183116.7       100228.3       24081.65      -26811.58    
  -52852.52      -74590.52      -114987.7      -180110.9      -254045.6    
  -308261.5      -324681.7      -308194.3      -278191.1      -250913.0    
  -231314.3      -217020.5      -202460.0      -189867.2      -180595.3    
  -172104.0      -166712.1      -168351.1      -174033.7      -182112.9    
  -187411.4      -180412.5      -158956.8      -116446.8      -62621.57    
  -17355.09       1373.076      -11379.11      -45027.32      -83933.14    
  -124115.1      -169000.1      -212571.3      -243782.8      -261096.7    
  -274550.9      -300107.3      -351938.7      -433508.9      -530087.4    
  -615116.7      -671192.5      -704377.1      -728095.3      -750544.0    
  -776420.8      -800643.8      -810101.1      -797001.0      -760767.6    
  -706775.3      -646202.5      -586953.4      -525056.8      -451546.9    
  -361064.4      -270082.6      -187340.8      -111698.9      -43760.74    
   17639.67       72942.55       116787.8       141130.2       147811.8    
   149506.9       152141.3       153664.2       150774.5       142221.8    
   131834.2       127854.5       133586.1       145285.2       154849.5    
   153465.2       136576.5       110864.1       80210.23       52978.57    
   42148.11       55307.12       89686.27       132044.7       166789.2    
   184028.5       182944.0       170143.9       152971.9       137614.8    
   124583.2       113129.1       99876.02       84841.95       69704.88    
   56551.64       42089.95       22606.54      -9838.523      -50873.73    
  -90874.33      -122036.8      -140568.4      -148902.1      -154123.0    
  -159145.2      -156890.1      -139292.6      -105528.9      -58449.66    
  -4661.328       40451.68       73025.67       98540.52       120111.0    
   137663.3       152620.2       166027.4       177444.6       184076.2    
