  0.2500000e-01  -493568.0       450560.0      -12345.00      -12345.00    
  -5.000015       294.9750             0.      -12345.00       2.000000    
  -12345.00      -12345.00      -12345.00      -12345.00      -12345.00    
  -12345.00      -12345.00      -12345.00      -12345.00      -12345.00    
  -12345.00      -12345.00      -12345.00      -12345.00      -12345.00    
  -12345.00      -12345.00      -12345.00      -12345.00      -12345.00    
  -12345.00       38.43217      -118.1544       1507.080             0.    
   37.85200      -118.1230      -12345.00      -12345.00      -12345.00    
  -12345.00      -12345.00      -12345.00      -12345.00      -12345.00    
  -12345.00      -12345.00      -12345.00      -12345.00      -12345.00    
   64.45695       357.5635       177.5442      0.5797598      -12345.00    
  -12345.00      -213.8078             0.             0.      -12345.00    
  -12345.00      -12345.00      -12345.00      -12345.00      -12345.00    
  -12345.00      -12345.00      -12345.00      -12345.00      -12345.00    
      1982       267         7        40        24
       296         6         0         0     12000
    -12345    -12345    -12345    -12345    -12345
         1         7        11    -12345    -12345
    -12345    -12345    -12345    -12345    -12345
    -12345    -12345    -12345    -12345    -12345
    -12345    -12345    -12345    -12345    -12345
         1         1         1         1         0
MNV     -12345  -12345  
[...]
  -131.0000      -131.0000      -125.0000      -114.0000      -113.0000    
  -121.0000      -127.0000      -125.0000      -120.0000      -110.0000    
  -99.00000      -94.00000      -88.00000      -84.00000      -93.00000    
  -109.0000      -105.0000      -80.00000      -61.00000      -58.00000    
  -62.00000      -54.00000      -45.00000      -51.00000      -56.00000    
  -51.00000      -44.00000      -39.00000      -30.00000      -16.00000    
  -4.000000       2.000000       1.000000      -8.000000      -21.00000    
  -19.00000      -5.000000       6.000000       19.00000       28.00000    
   20.00000       6.000000       8.000000       18.00000       27.00000    
   39.00000       50.00000       55.00000       58.00000       63.00000    
   65.00000       57.00000       49.00000       50.00000       57.00000    
   67.00000       74.00000       73.00000       80.00000       96.00000    
   100.0000       92.00000       84.00000       82.00000       80.00000    
   86.00000       96.00000       100.0000       109.0000       118.0000    
   115.0000       111.0000       106.0000       90.00000       76.00000    
   81.00000       94.00000       103.0000       108.0000       104.0000    
   96.00000       104.0000       126.0000       141.0000       148.0000    
   142.0000       122.0000       111.0000       110.0000       108.0000    
   107.0000       111.0000       110.0000       102.0000       102.0000    
   104.0000       93.00000       87.00000       93.00000       102.0000    
   108.0000       114.0000       119.0000       118.0000       103.0000    
   80.00000       65.00000       65.00000       71.00000       81.00000    
   96.00000       104.0000       94.00000       81.00000       69.00000    
   53.00000       45.00000       52.00000       68.00000       84.00000    
   85.00000       67.00000       61.00000       73.00000       69.00000    
   48.00000       40.00000       39.00000       35.00000       41.00000    
   51.00000       58.00000       65.00000       70.00000       60.00000    
   36.00000       20.00000       15.00000       17.00000       25.00000    
   42.00000       59.00000       57.00000       36.00000       18.00000    
   13.00000       11.00000       3.000000      -5.000000      -7.000000    
  -4.000000      -2.000000      -3.000000      -10.00000      -17.00000    
  -22.00000      -37.00000      -58.00000      -70.00000      -70.00000    
  -59.00000      -51.00000      -65.00000      -86.00000      -95.00000    
  -129.0000      -313.0000      -997.0000      -2862.000      -6728.000    
  -12216.00      -17752.00      -20240.00      -18280.00      -14928.00    
  -15648.00      -25112.00      -42048.00      -60736.00      -76480.00    
  -88896.00      -99264.00      -104192.0      -94144.00      -69184.00    
  -31096.00       10624.00       52352.00       92416.00       117504.0    
   115968.0       80128.00       26544.00      -23320.00      -51584.00    
  -55872.00      -39936.00      -14552.00       10952.00       31912.00    
   46976.00       56832.00       63104.00       66112.00       64704.00    
   58624.00       49024.00       33152.00       15600.00       6032.000    
   4352.000       3958.000       3191.000       3691.000       6920.000    
   10768.00       13560.00       16416.00       20792.00       24864.00    
   28480.00       28816.00       20400.00       9000.000       5928.000    
   15536.00       28184.00       32768.00       21088.00      -8504.000    
  -46336.00      -71424.00      -75264.00      -65664.00      -51776.00    
  -35584.00      -21928.00      -12384.00      -3763.000       7568.000    
   21368.00       31424.00       32208.00       20760.00      -184.0000    
  -27216.00      -59008.00      -90944.00      -116032.0      -128448.0    
  -122432.0      -102784.0      -70528.00      -42624.00      -23256.00    
  -10760.00       412.0000       12680.00       21984.00       22376.00    
   17104.00       14416.00       17728.00       23168.00       25584.00    
   29232.00       37120.00       44096.00       44736.00       39680.00    
   34176.00       32832.00       35008.00       35008.00       27744.00    
   11632.00      -6024.000      -17376.00      -16960.00      -1339.000    
   27264.00       60096.00       85952.00       92096.00       79104.00    
   49728.00       14952.00      -16848.00      -42112.00      -58496.00    
  -63616.00      -60224.00      -56896.00      -58624.00      -66176.00    
  -71360.00      -64640.00      -40128.00      -5152.000       33408.00    
   70592.00       101888.0       125120.0       138688.0       133184.0    
   106560.0       65472.00       28416.00       6880.000       40.00000    
   931.0000       1794.000      -2069.000      -8336.000      -12656.00    
  -17568.00      -27088.00      -40704.00      -51840.00      -55552.00    
  -54208.00      -51968.00      -49984.00      -50304.00      -52544.00    
  -52096.00      -47424.00      -38272.00      -28528.00      -23152.00    
  -22016.00      -23456.00      -28536.00      -31488.00      -22176.00    
  -1344.000       22136.00       39104.00       48832.00       60800.00    
   78144.00       93824.00       104128.0       105728.0       99200.00    
   92800.00       91904.00       93632.00       93824.00       92928.00    
   92096.00       87680.00       77504.00       64000.00       51328.00    
   43200.00       40320.00       36736.00       22832.00       1106.000    
  -19376.00      -32712.00      -39488.00      -40704.00      -36800.00    
  -26416.00      -14736.00      -8584.000      -8224.000      -10800.00    
  -12944.00      -14016.00      -14296.00      -14400.00      -15144.00    
  -14744.00      -8496.000       3997.000       19408.00       33024.00    
   43072.00       49152.00       51072.00       51456.00       51456.00    
   49792.00       39296.00       17664.00      -7064.000      -26032.00    
  -36544.00      -41024.00      -43712.00      -44160.00      -39680.00    
  -26984.00      -7176.000       10536.00       16792.00       11112.00    
   352.0000      -8984.000      -11944.00      -9264.000      -7736.000    
  -14528.00      -29736.00      -43584.00      -45888.00      -31640.00    
  -7184.000       18760.00       37376.00       44032.00       38976.00    
   24304.00       6792.000      -7608.000      -19728.00      -29536.00    
  -34752.00      -36160.00      -37632.00      -44160.00      -56000.00    
  -68288.00      -74176.00      -70656.00      -58688.00      -44032.00    
  -30416.00      -20736.00      -13984.00      -3783.000       13056.00    
   34112.00       51264.00       57600.00       54912.00       50112.00    
   48256.00       51072.00       56768.00       63360.00       65728.00    
   59584.00       48000.00       38272.00       29848.00       18272.00    
   1124.000      -20544.00      -40768.00      -54080.00      -57472.00    
  -52096.00      -43264.00      -33856.00      -19224.00      -1078.000    
   13928.00       15856.00             0.      -27896.00      -58688.00    
  -82944.00      -95424.00      -96128.00      -86144.00      -69056.00    
  -51584.00      -32136.00      -11896.00       5336.000       20264.00    
   37952.00       61632.00       84544.00       95552.00       95040.00    
   92800.00       92288.00       90368.00       86528.00       87040.00    
   99392.00       119872.0       129088.0       112704.0       62016.00    
  -5784.000      -70784.00      -131520.0      -193472.0      -250560.0    
  -292864.0      -316416.0      -318976.0      -305664.0      -286720.0    
  -263680.0      -237440.0      -211008.0      -194368.0      -190592.0    
  -184128.0      -156288.0      -107328.0      -44160.00       19160.00    
   64320.00       78976.00       69952.00       60608.00       64640.00    
   82624.00       108480.0       126784.0       121920.0       98880.00    
   83072.00       97728.00       138944.0       183936.0       210368.0    
   211008.0       190464.0       163392.0       148096.0       150016.0    
   165248.0       188288.0       217344.0       241024.0       241152.0    
   217088.0       187904.0       170496.0       166400.0       177536.0    
   203072.0       228544.0       234880.0       213632.0       167552.0    
   106560.0       41664.00      -14872.00      -57600.00      -99520.00    
  -154624.0      -217984.0      -269824.0      -293888.0      -286720.0    
  -264192.0      -245888.0      -240832.0      -243648.0      -242944.0    
  -234496.0      -211328.0      -180736.0      -169792.0      -191232.0    
  -225408.0      -246336.0      -248192.0      -240320.0      -230656.0    
  -231680.0      -254656.0      -287232.0      -292864.0      -258880.0    
  -214592.0      -190144.0      -179520.0      -159872.0      -125376.0    
  -65344.00       10256.00       75904.00       105984.0       100288.0    
   81024.00       71680.00       80256.00       100480.0       117120.0    
   114624.0       93824.00       53632.00       7920.000      -28304.00    
  -45056.00      -45696.00      -43968.00      -50112.00      -60864.00    
  -53824.00      -11800.00       54528.00       121920.0       168000.0    
   180224.0       162880.0       132736.0       109056.0       99968.00    
   92608.00       75648.00       46848.00       19528.00       10872.00    
   12168.00      -79.00000      -36608.00      -86848.00      -135552.0    
  -177280.0      -211456.0      -243520.0      -274432.0      -302080.0    
  -322560.0      -335872.0      -345600.0      -359936.0      -377344.0    
  -391168.0      -393216.0      -375808.0      -338944.0      -279040.0    
  -206656.0      -121408.0      -40448.00       34624.00       112512.0    
   193408.0       263680.0       311296.0       332800.0       332288.0    
   323072.0       321536.0       329728.0       343040.0       356352.0    
   359424.0       344576.0       310784.0       264704.0       222528.0    
   195520.0       179648.0       164352.0       140032.0       99136.00    
   47040.00      -910.0000      -41344.00      -87360.00      -151168.0    
  -223360.0      -282624.0      -326144.0      -358912.0      -373248.0    
  -353792.0      -300032.0      -232832.0      -178496.0      -151232.0    
  -152832.0      -172544.0      -189376.0      -186304.0      -154240.0    
  -104576.0      -53120.00      -13992.00       11720.00       31448.00    
   51456.00       72256.00       83904.00       79488.00       56576.00    
   21584.00      -7408.000      -15880.00      -3620.000       25216.00    
   69888.00       125312.0       181248.0       226176.0       249536.0    
   247424.0       221504.0       177344.0       128256.0       95168.00    
   91840.00       113024.0       142656.0       172352.0       209408.0    
   260160.0       317952.0       365568.0       388608.0       384512.0    
   354304.0       302592.0       244032.0       200768.0       183168.0    
   177600.0       157696.0       117440.0       66176.00       25840.00    
   13400.00       37376.00       88256.00       137984.0       159424.0    
   149440.0       127040.0       109248.0       105920.0       119744.0    
   144192.0       162432.0       164032.0       150464.0       133440.0    
   124608.0       127232.0       140992.0       164736.0       195968.0    
   226880.0       246976.0       251456.0       242624.0       224448.0    
   198976.0       161984.0       108608.0       45504.00      -12008.00    
  -55808.00      -91840.00      -130560.0      -174400.0      -217728.0    
  -256000.0      -289792.0      -322560.0      -353280.0      -373248.0    
  -369152.0      -331264.0      -261312.0      -183424.0      -102592.0    
  -38144.00       691.0000       18040.00       28888.00       46784.00    
   72896.00       101120.0       132480.0       169984.0       211136.0    
   254592.0       305152.0       367104.0       424960.0       450560.0    
   427520.0       361984.0       277504.0       190272.0       120384.0    
   67584.00       22544.00      -21584.00      -65920.00      -102336.0    
  -122112.0      -129728.0      -142272.0      -172160.0      -215936.0    
  -254720.0      -270848.0      -263680.0      -243072.0      -214848.0    
  -174528.0      -125952.0      -67136.00      -6672.000       53248.00    
   113152.0       171776.0       223936.0       263168.0       291328.0    
   310784.0       322560.0       324608.0       314368.0       288768.0    
   239872.0       177856.0       97664.00       10944.00      -73984.00    
  -154112.0      -231872.0      -307200.0      -371200.0      -415744.0    
  -444416.0      -466944.0      -485888.0      -493568.0      -487936.0    
  -474112.0      -461312.0      -452608.0      -445440.0      -437248.0    
  -424960.0      -407552.0      -383488.0      -349696.0      -304128.0    
  -250944.0      -202368.0      -164608.0      -134208.0      -105600.0    
  -71552.00      -26816.00       26376.00       80192.00       126528.0    
   156800.0       166336.0       156096.0       137792.0       125184.0    
   127936.0       144960.0       164992.0       176704.0       179648.0    
   180608.0       181248.0       176448.0       161536.0       136000.0    
   101504.0       66816.00       31128.00      -431.0000      -24016.00    
  -38720.00      -48576.00      -59520.00      -69696.00      -72448.00    
  -55552.00      -20040.00       25536.00       67456.00       96896.00    
   113536.0       119424.0       116864.0       109824.0       106560.0    
   109376.0       113216.0       110848.0       96768.00       72576.00    
   33152.00      -22624.00      -92544.00      -170624.0      -248704.0    
  -318976.0      -377856.0      -424448.0      -459776.0      -480768.0    
  -487936.0      -480256.0      -458240.0      -425984.0      -391168.0    
  -356864.0      -320000.0      -272896.0      -215168.0      -148736.0    
  -91200.00      -43456.00      -3367.000       38464.00       87104.00    
   140416.0       191104.0       232384.0       261504.0       280064.0    
   289792.0       291328.0       286208.0       276480.0       265216.0    
   253760.0       241344.0       226560.0       207168.0       182464.0    
   155968.0       133760.0       119552.0       110080.0       99648.00    
   83264.00       62016.00       32896.00       3899.000      -15416.00    
  -22096.00      -20616.00      -15944.00      -10872.00      -7160.000    
  -7776.000      -9040.000      -6512.000       1315.000       11984.00    
   21184.00       22688.00       12856.00      -3751.000      -21200.00    
  -37056.00      -52736.00      -69312.00      -87872.00      -106880.0    
  -124096.0      -138624.0      -151488.0      -160704.0      -166208.0    
  -169408.0      -172352.0      -175168.0      -175616.0      -171328.0    
  -161472.0      -144704.0      -117248.0      -78976.00      -32672.00    
   18824.00       72320.00       122688.0       163968.0       193024.0    
   213120.0       231680.0       253568.0       276992.0       297472.0    
   312320.0       319488.0       317952.0       304640.0       280576.0    
   249728.0       215360.0       178560.0       139968.0       104256.0    
   75200.00       55232.00       37376.00       14808.00      -12240.00    
  -37952.00      -57280.00      -67520.00      -70080.00      -68672.00    
  -67136.00      -66752.00      -67904.00      -69824.00      -69952.00    
  -67008.00      -63168.00      -64832.00      -74368.00      -89408.00    
  -106048.0      -123200.0      -140288.0      -156352.0      -168192.0    
  -174464.0      -177600.0      -178048.0      -170816.0      -152832.0    
  -126272.0      -96448.00      -70656.00      -42304.00      -10120.00    
   25504.00       61056.00       92224.00       115840.0       130688.0    
   138304.0       143168.0       148672.0       155008.0       159808.0    
   157248.0       144064.0       121472.0       92608.00       63808.00    
   31872.00      -883.0000      -31880.00      -57280.00      -73920.00    
  -80640.00      -81792.00      -82880.00      -85120.00      -85120.00    
  -82304.00      -79296.00      -78848.00      -79296.00      -77632.00    
  -74112.00      -71936.00      -74112.00      -80640.00      -87872.00    
  -91712.00      -92352.00      -91712.00      -91264.00      -86848.00    
  -74496.00      -55232.00      -38784.00      -27832.00      -23152.00    
  -18424.00      -7992.000       7584.000       24608.00       40768.00    
   54656.00       63808.00       67456.00       67328.00       65472.00    
   62976.00       61184.00       61824.00       65408.00       69760.00    
   71168.00       67456.00       59712.00       51968.00       46592.00    
   43584.00       39616.00       32560.00       21248.00       10040.00    
   2671.000      -1579.000      -6312.000      -15336.00      -29240.00    
  -48128.00      -72064.00      -100288.0      -127616.0      -149376.0    
  -163968.0      -171904.0      -173184.0      -168704.0      -158400.0    
  -142848.0      -122816.0      -99648.00      -75776.00      -55616.00    
  -42944.00      -35584.00      -30000.00      -21792.00      -8776.000    
   9936.000       33920.00       60480.00       85120.00       106432.0    
   126976.0       150464.0       177152.0       203136.0       224640.0    
   241088.0       253568.0       263168.0       269824.0       273408.0    
   272896.0       266752.0       256256.0       243520.0       230656.0    
   214720.0       190144.0       157696.0       123904.0       96192.00    
   74368.00       55872.00       31512.00       2609.000      -24912.00    
  -46656.00      -63616.00      -80064.00      -98240.00      -117184.0    
  -134400.0      -148800.0      -159424.0      -165504.0      -164672.0    
  -155968.0      -140160.0      -119424.0      -97728.00      -79360.00    
  -65728.00      -55616.00      -47936.00      -41856.00      -37440.00    
  -33152.00      -29696.00      -26720.00      -28088.00      -34496.00    
  -42176.00      -46144.00      -46592.00      -47296.00      -52864.00    
  -65216.00      -83712.00      -104768.0      -124032.0      -137792.0    
