  0.2500000e-01  -940124.1       664444.9      -12345.00      -12345.00    
  -5.000015       294.9750             0.      -12345.00       2.000000    
  -12345.00      -12345.00      -12345.00      -12345.00      -12345.00    
  -12345.00      -12345.00      -12345.00      -12345.00      -12345.00    
  -12345.00      -12345.00      -12345.00      -12345.00      -12345.00    
  -12345.00      -12345.00      -12345.00      -12345.00      -12345.00    
  -12345.00       38.43217      -118.1544       1507.080             0.    
   37.85200      -118.1230      -12345.00      -12345.00      -12345.00    
  -12345.00      -12345.00      -12345.00      -12345.00      -12345.00    
  -12345.00      -12345.00      -12345.00      -12345.00      -12345.00    
   64.45695       357.5635       177.5442      0.5797598      -12345.00    
  -12345.00      -236.8862             0.       90.00000      -12345.00    
  -12345.00      -12345.00      -12345.00      -12345.00      -12345.00    
  -12345.00      -12345.00      -12345.00      -12345.00      -12345.00    
      1982       267         7        40        24
       296         6         0         0     12000
    -12345    -12345    -12345    -12345    -12345
         1         7        11    -12345    -12345
    -12345    -12345    -12345    -12345    -12345
    -12345    -12345    -12345    -12345    -12345
    -12345    -12345    -12345    -12345    -12345
         1         1         1         1         0
MNV     -12345  -12345  
[...]
   242.9997       266.4148       283.2481       290.3354       289.5114    
   282.7907       267.2944       246.9781       230.3647       221.8419    
   219.9007       219.1096       219.2891       222.6330       231.4086    
   244.2864       255.0436       258.6807       254.3334       242.7927    
   223.9854       202.2991       184.4952       173.8113       172.5146    
   172.3352       170.0351       166.7645       166.4789       167.4167    
   166.5927       162.5310       154.1876       142.4270       129.2636    
   112.5035       95.13177       81.53617       72.40167       69.48996    
   69.99548       71.47157       72.33600       72.40930       66.69203    
   54.14030       35.90414       15.04185      -3.805969      -18.80435    
  -27.93884      -33.04446      -32.53894      -27.28673      -21.67558    
  -20.88448      -31.85397      -51.59906      -74.94083      -94.93868    
  -108.6076      -112.7098      -112.9625      -111.9187      -114.8304    
  -118.9654      -123.1738      -125.4410      -127.7082      -133.1398    
  -140.5127      -150.4383      -162.9900      -175.7945      -183.8523    
  -183.9256      -179.6111      -174.6850      -171.8794      -173.0294    
  -176.0144      -181.6989      -186.2333      -185.5155      -180.9482    
  -177.9632      -177.1721      -180.1571      -183.9332      -189.5444    
  -194.9760      -198.8255      -200.3016      -195.6282      -186.9992    
  -180.0257      -175.1729      -174.0229      -176.0373      -180.2457    
  -186.7212      -193.3762      -194.5996      -189.0617      -181.8355    
  -175.8327      -173.1737      -172.0970      -169.8703      -167.2846    
  -165.0579      -165.3106      -165.9223      -166.7867      -166.3217    
  -165.0655      -160.5716      -155.4660      -149.3898      -140.3286    
  -126.8796      -112.4600      -102.5016      -100.7804      -107.2231    
  -118.4125      -129.9608      -137.9125      -141.6557      -135.5796    
  -120.2956      -103.9677      -92.02766      -86.13094      -80.91918    
  -77.97464      -78.87954      -85.14279      -93.77940      -104.5366    
  -112.6677      -115.9788      -113.2465      -105.6943      -95.15697    
  -85.91634      -77.54012      -73.01334      -74.63603      -78.81155    
  -85.97207      -94.96759      -101.9486      -107.7064      -111.1969    
  -111.0908      -108.3585      -105.0146      -100.8796      -99.98231    
  -98.72615      -94.91718      -90.67598      -87.40538      -89.49313    
  -96.22145      -106.3670      -115.1098      -124.3909      -132.6281    
  -136.8364      -136.4775      -129.7164      -120.1497      -109.6124    
  -100.3717      -95.95110      -98.47105      -107.4994      -121.7067    
  -136.5256      -149.1507      -157.7468      -159.5085      -155.3001    
  -146.5246      -133.9728      -121.0622      -113.1510      -113.2243    
  -121.1026      -135.5627      -147.5761      -155.9194      -157.8606    
  -156.8167      -156.3845      -157.1756      -156.9962      -154.8756    
  -150.7405      -148.5466      -147.0706      -145.5945      -144.9828    
  -147.1767      -150.9528      -155.8790      -161.4168      -168.1779    
  -175.2980      -179.7920      -179.8981      -177.8836      -175.1514    
  -173.2103      -168.3902      -161.7352      -158.2447      -160.5447    
  -168.2032      -178.4144      -190.0284      -199.8807      -206.2096    
  -206.5685      -200.7779      -193.7640      -186.1385      -180.2746    
  -174.5168      -172.1030      -177.4942      -187.5260      -202.0188    
  -211.9445      -216.6912      -216.6179      -212.9479      -205.6812    
  -199.9968      -196.0740      -194.0924      -194.4841      -193.8320    
  -193.1799      -194.9744      -202.3801      -214.4263      -227.0842    
  -230.3548      -224.8498      -213.1953      -202.3320      -193.8420    
  -188.5164      -187.5787      -194.8049      -208.1806      -225.5119    
  -238.0231      -241.5793      -238.3744      -229.0200      -214.3072    
  -198.4444      -185.0282      -178.1938      -179.8821      -187.8994    
  -199.4401      -210.3692      -217.7015      -221.0783      -218.7378    
  -211.4711      -202.2633      -193.0555      -187.0121      -184.6716    
  -184.4517      -186.7846      -190.5202      -195.4792      -198.9293    
  -197.6327      -191.7688      -186.3371      -180.1143      -172.6682    
  -162.7754      -155.6149      -153.6333      -153.0545      -151.0728    
  -148.7323      -147.6151      -148.7652      -150.5269      -154.6619    
  -159.5881      -162.6792      -159.3681      -147.8198      -130.8398    
  -112.8892      -98.78812      -90.73033      -90.29813      -94.25371    
  -101.1943      -108.4938      -112.5556      -110.6472      -102.5895    
  -94.17278      -86.18829      -80.39771      -75.32495      -71.58165    
  -71.43504      -74.70566      -78.22903      -77.36459      -73.08295    
  -67.29237      -63.76900      -60.24562      -57.26060      -58.66339    
  -61.03674      -65.17177      -66.42795      -64.62579      -61.06194    
  -57.57141      -55.55696      -53.18361      -49.66023      -47.00128    
  -45.74513      -45.81844      -45.99788      -46.64238      -49.66023    
  -55.55696      -58.54198      -59.04750      -56.82077      -52.40012    
  -47.72673      -43.95059      -40.28061      -38.98398      -38.11954    
  -36.46400      -32.25566      -25.49451      -18.98613      -13.95381    
  -9.965408      -9.573654      -11.12305      -13.03134      -18.71579    
  -23.96800      -24.40022      -20.62408      -18.07129      -17.17401    
  -15.30620      -11.24446      -6.391602      -2.329865      -1.073715    
 -0.2497559       1.185860       3.844818       3.086533     -0.2978592    
  -4.114456      -7.931061      -11.31545      -16.28207      -20.38428    
  -21.86037      -18.94865      -14.88692      -9.495724      -6.551170    
  -4.218288      -5.661541      -10.26926      -19.62368      -30.12813    
  -53.82880      -151.8212      -512.1788      -1493.227      -3533.241    
  -6787.156      -10633.75      -13767.31      -15061.09      -14739.85    
  -14999.56      -19265.30      -29485.40      -44390.83      -61143.09    
  -76459.47      -88589.86      -96033.52      -96716.16      -89148.13    
  -73594.53      -52769.59      -32425.62      -13730.71       1622.380    
   10526.39       9288.782      -3078.654      -17129.94      -18359.13    
  -3028.713       24001.47       54438.01       80686.95       92587.35    
   83993.92       60170.88       31239.01       6948.555      -7312.084    
  -7623.496       2734.797       16681.53       26186.62       24363.91    
   11846.08      -294.4558      -3494.524       1221.715       10447.96    
   21761.45       31167.33       34974.64       32286.20       28347.00    
   29085.51       32735.25       36516.18       37374.73       31000.94    
   19484.79       10909.45       7871.313       7259.063       5280.424    
   2800.701      -869.5410      -8442.793      -19865.09      -32727.36    
  -45775.28      -59210.41      -72424.19      -82858.63      -85123.61    
  -73744.88      -53118.42      -33584.23      -20840.41      -14668.05    
  -13830.88      -18795.18      -28551.80      -37482.72      -41392.27    
  -41937.87      -40770.66      -38489.97      -32523.39      -24959.65    
  -22722.81      -26784.30      -31991.40      -35907.42      -37443.45    
  -35290.63      -31687.56      -26575.71      -18631.39      -8527.998    
   3328.823       18134.00       35860.78       52497.66       65015.29    
   70633.27       70417.02       64081.28       50125.42       29421.92    
   10095.88      -3011.055      -12767.34      -20833.21      -24181.36    
  -22802.12      -22312.13      -26200.87      -30496.65      -27056.86    
  -16349.65      -7706.612      -5670.002      -8944.781      -13896.96    
  -18244.57      -20635.09      -19599.58      -18718.22      -23302.84    
  -30930.94      -34646.96      -29174.50      -15403.58       856.2490    
   13094.36       18899.42       18831.46       13090.36       5216.053    
   2637.507       11056.70       28160.88       48013.18       64170.09    
   70397.80       64465.88       49791.61       29298.44       5045.685    
  -19293.47      -36909.40      -43594.83      -42690.91      -41428.48    
  -45048.95      -52142.02      -59702.41      -63106.60      -56919.52    
  -42674.89      -28809.47      -23285.32      -27965.06      -36905.07    
  -41602.67      -37775.37      -26401.76      -12443.02      -3992.182    
  -3651.053      -7089.180      -10576.40      -12067.07      -8679.703    
   558.0732       14821.15       31043.32       46664.58       62104.21    
   76522.55       83343.73       79513.48       70176.68       61497.86    
   57728.84       63638.68       80630.84       101724.3       117950.5    
   123667.5       119209.9       106395.1       90162.07       71797.02    
   52706.37       34296.18       17411.27       2109.840      -7827.958    
  -10193.28      -7692.785       289.0518       11986.47       22893.15    
   29919.12       30989.69       26176.13       18033.01       8180.743    
  -726.2241      -5232.203      -1602.006       9123.851       21251.39    
   28654.87       30997.62       30840.71       25986.31       14406.75    
  -912.8926      -11141.28      -9642.484       1266.023       13516.82    
   22121.63       25596.68       21898.84       11391.15       1878.766    
  -2490.319      -6192.043      -12671.68      -19058.21      -22122.62    
  -26702.96      -35038.56      -39099.10      -36367.35      -30287.13    
  -23596.56      -15236.84      -4520.898       8426.244       22199.06    
   37293.60       55260.34       74279.27       88568.50       93927.86    
   87369.23       69253.32       47135.57       26760.48       8449.424    
  -5628.922      -12074.23      -11761.18      -10288.72      -12811.15    
  -19404.26      -29497.04      -40261.24      -46511.00      -49332.48    
  -54745.45      -66378.25      -82130.63      -95198.00      -96429.53    
  -82212.44      -56843.56      -30109.85      -11193.18      -3046.510    
  -2085.271      -4466.206      -7253.408      -5603.195       5179.381    
   23573.39       41590.97       50702.21       45965.54       29886.05    
   5539.471      -24185.95      -52364.89      -74237.59      -93392.86    
  -113017.2      -129828.7      -138369.6      -140795.0      -142151.4    
  -141112.5      -135979.8      -129413.4      -124010.5      -117942.1    
  -108310.8      -95882.79      -83776.34      -74698.41      -67086.19    
  -61563.45      -64894.19      -80882.63      -105526.5      -130468.6    
  -147456.4      -150073.4      -141126.8      -131716.8      -131443.8    
  -143558.0      -162285.0      -177859.0      -186739.4      -193690.1    
  -201443.0      -203113.4      -194070.9      -177936.4      -158942.5    
  -130490.3      -83661.64      -14711.33       71556.48       175739.0    
   295475.3       422450.4       538075.5       619676.3       649280.2    
   620920.3       534056.4       404341.0       266108.0       152071.0    
   75771.13       32347.66       17056.56       23441.63       31747.13    
   18839.84      -23092.84      -87294.34      -171096.3      -257595.2    
  -316312.5      -323893.4      -284757.9      -206680.7      -126797.0    
  -64810.50      -34576.34      -23922.44      -7617.906       17746.52    
   40466.95       49704.17       55509.41       78247.86       122437.3    
   173741.6       208684.8       199289.6       136474.1       49117.41    
  -17215.38      -35845.03       1117.125       93667.17       218456.8    
   320315.8       360036.9       342273.6       292032.6       234502.3    
   171077.0       101869.3       40910.44       1001.172      -18192.66    
  -31308.16      -58676.75      -113235.7      -199400.8      -303991.8    
  -396792.7      -445076.6      -431373.3      -360567.8      -250566.9    
  -129346.9      -25023.02       42738.72       61398.47       30333.78    
  -30457.63      -88571.66      -120732.6      -106475.7      -45959.84    
   45184.66       153386.7       262545.3       345429.6       373316.0    
   337510.6       262004.1       197871.7       164502.0       169412.0    
   211710.5       270467.1       310900.6       325777.3       343533.4    
   379160.0       410284.5       410041.3       378025.4       321430.7    
   244499.4       141127.7       29338.31      -99056.55      -257484.9    
  -436527.8      -607831.8      -738559.8      -818717.9      -872908.8    
  -919762.1      -940124.1      -908916.0      -830860.3      -724809.7    
  -598306.9      -474309.8      -366060.4      -262103.7      -146104.0    
  -23443.77       86646.08       184600.5       278671.1       366168.0    
   458582.0       556690.0       634857.3       664444.9       644914.0    
   586430.6       513515.5       460730.6       441435.9       437490.6    
   436328.6       437047.3       431541.6       410279.0       374667.1    
   327518.1       277537.1       219699.2       177711.9       165118.5    
   173071.3       188201.9       198405.6       192507.9       160665.6    
   109538.8       48467.41      -587.4092      -20350.33      -15417.72    
   5835.484       44739.03       97596.00       141295.6       161357.8    
   159821.3       143514.5       117938.2       97372.18       94885.17    
   105329.8       120009.6       135330.7       143474.3       130240.6    
   91993.24       40059.01      -26939.39      -100996.8      -150505.5    
  -148394.4      -107735.3      -50780.20       8445.938       48194.80    
   56301.02       30404.97      -34525.92      -122801.6      -205980.2    
  -255993.2      -255866.6      -213317.2      -148265.0      -86237.48    
  -55909.41      -68897.84      -108231.7      -149298.1      -176933.9    
  -183116.8      -164461.9      -122422.5      -71081.81      -26497.56    
   7868.500       38647.34       72582.58       116175.7       167251.3    
   210078.3       235892.8       246724.6       242135.6       222159.2    
   197936.8       175223.9       158786.3       147331.3       129277.2    
   98595.16       48456.02      -24289.88      -113950.2      -207981.4    
  -279075.4      -302720.7      -281956.8      -230673.1      -160171.2    
  -94690.83      -60956.83      -63072.95      -93002.70      -132100.1    
  -158875.1      -153386.3      -119484.9      -81045.96      -60317.82    
  -58279.16      -63379.35      -72419.20      -92434.22      -121104.6    
  -137098.7      -132558.5      -115362.4      -88527.74      -61417.46    
  -54672.62      -83852.53      -147665.6      -220750.0      -270331.7    
  -284434.2      -273741.9      -250824.1      -229961.6      -221393.6    
  -223167.3      -213498.1      -182903.6      -121198.1      -38406.83    
   45586.19       96572.78       96953.91       60541.59       12942.06    
  -24743.91      -43679.59      -48094.59      -48316.91      -55412.01    
  -79868.39      -117778.0      -156702.9      -193621.1      -228618.8    
  -250716.4      -252296.5      -233555.2      -196802.4      -146708.9    
  -94235.20      -56932.21      -42051.59      -40537.08      -38225.18    
  -26656.62      -12650.29      -10223.26      -27397.18      -58556.51    
  -92935.88      -117611.7      -119033.8      -92960.58      -47133.81    
   5254.672       53813.78       90571.27       109791.7       112948.8    
   109279.8       105391.2       105160.9       107966.5       106554.7    
   94849.63       70216.56       32872.78      -9615.031      -38923.84    
  -44426.41      -27187.88      -2453.875       7289.266      -8126.141    
  -38524.81      -61057.96      -71961.84      -77295.44      -84196.25    
  -100442.2      -128315.2      -159707.0      -186294.0      -206426.1    
  -220033.2      -224577.9      -211517.3      -180726.0      -144807.9    
  -119110.5      -106679.6      -108369.4      -123372.2      -140717.4    
  -148262.8      -136833.1      -107205.0      -59065.54      -431.1895    
   50171.44       79799.30       85982.31       74104.00       55006.94    
   39008.46       29653.77       24503.27       17151.05       5240.535    
  -13079.18      -37310.64      -69100.55      -103507.8      -132607.4    
  -149619.6      -144991.1      -119653.1      -84293.61      -55074.44    
  -30376.52      -1833.359       36036.01       86781.25       145737.7    
   202649.5       249930.3       281061.3       294596.5       296056.8    
   285372.6       260119.7       224822.3       192636.8       176930.0    
   183098.3       203731.7       223055.4       224582.9       198098.5    
   147799.8       89252.79       37573.68       5437.391      -5459.188    
   1252.555       14214.79       22028.31       19958.45       11695.52    
   2254.869      -12666.12      -38858.45      -77597.97      -123184.1    
  -162647.8      -181721.3      -171005.5      -130546.8      -79309.48    
  -27687.97       20973.51       65950.63       107874.5       146851.8    
   180094.3       204203.6       220648.8       234951.4       249960.2    
   264589.2       274518.6       276341.2       272843.5       263222.2    
   243327.3       207790.1       162613.1       104996.8       40823.93    
  -27990.06      -96328.69      -155977.6      -199809.7      -220494.6    
  -217654.0      -197576.4      -174175.5      -157816.9      -150495.9    
  -153068.7      -164747.8      -179705.7      -189722.0      -191767.8    
  -183633.8      -162788.0      -131894.3      -100390.5      -77884.83    
  -68734.11      -73052.70      -86511.48      -100638.5      -107505.6    
  -106415.5      -98035.66      -86878.09      -79296.09      -77102.21    
  -77659.53      -83290.49      -102263.6      -138719.6      -188976.7    
  -245733.9      -298541.4      -333516.3      -344340.1      -336247.2    
  -319425.2      -297676.3      -270533.3      -240128.3      -197621.3    
  -140308.7      -67734.98       17000.91       103646.8       183205.3    
   249057.3       296838.6       323728.7       328866.3       318016.0    
