  0.9521480e-01  -69717.08       112392.8      -12345.00      -12345.00    
 -0.6202463e-02   249.9326             0.       57.62255       2.000000    
  -12345.00      -12345.00      -12345.00      -12345.00      -12345.00    
  -12345.00      -12345.00      -12345.00      -12345.00      -12345.00    
  -12345.00      -12345.00      -12345.00      -12345.00      -12345.00    
  -12345.00      -12345.00      -12345.00      -12345.00      -12345.00    
  -12345.00       40.74478      -115.2388       2210.440             0.    
   37.22906      -116.3641       2060.000       640.0000      -12345.00    
  -12345.00      -12345.00      -12345.00      -12345.00      -12345.00    
  -12345.00      -12345.00      -12345.00      -12345.00      -12345.00    
   402.2830       13.67549       194.3810       3.618511      -12345.00    
  -12345.00      -71.67625             0.             0.      -12345.00    
  -12345.00      -12345.00      -12345.00      -12345.00      -12345.00    
  -12345.00      -12345.00      -12345.00      -12345.00      -12345.00    
      1979       269        15         0         0
       100         6         0         0      2626
    -12345    -12345    -12345    -12345    -12345
         1         7        11    -12345    -12345
    -12345    -12345        37    -12345    -12345
    -12345    -12345    -12345    -12345    -12345
    -12345    -12345    -12345    -12345    -12345
         1         1         1         1         0
EKL     SHEEPSHEAD      
-12345  -12345  IPU0    
-12345  -12345  -12345  
-12345  -12345  -12345  
-12345  -12345  -12345  
-12345  -12345  -12345  
-12345  -12345  -12345  
-12345  -12345  -12345  
  -52.64594      -93.62086      -87.86596      -97.59924      -93.55006    
  -101.6191      -105.0976      -111.5052      -119.0272      -133.4245    
  -139.9535      -143.6099      -148.0629      -156.0965      -167.8487    
  -169.8947      -169.0985      -174.1699      -179.5350      -178.8935    
  -175.1139      -175.9868      -171.9105      -163.0962      -157.4804    
  -152.9828      -143.4286      -135.2290      -135.6019      -131.5445    
  -127.3305      -124.5315      -118.4515      -108.7406      -97.57907    
  -83.37075      -73.96552      -59.85865      -45.22314      -37.45158    
  -21.20443      -4.227909       7.908389       14.77247       21.82098    
   39.30045       40.03136       34.00964       45.73535       48.03912    
   47.20024       44.27423       42.50371       44.94984       41.99871    
   35.62624       31.70446       34.13432       32.42934       30.26764    
   26.93151       20.24798       13.13167     -0.3473138      -14.09506    
  -29.19875      -47.61094      -65.39793      -81.60327      -94.90945    
  -114.8783      -133.9901      -152.8512      -173.1842      -193.3382    
  -217.3071      -235.1591      -259.3364      -286.7719      -305.5380    
  -325.0656      -339.3316      -351.5049      -359.2414      -358.4711    
  -355.6642      -350.1790      -344.2001      -331.4630      -318.0020    
  -301.5412      -276.6407      -258.4206      -236.0180      -211.6787    
  -185.2266      -155.6808      -127.1439      -99.33842      -73.85065    
  -41.90508      -24.61757      -3.785243       20.32407       33.32520    
   49.10178       61.33119       74.86155       86.68888       95.10181    
   101.8119       106.3066       110.9468       114.0101       112.0334    
   106.2203       99.00176       90.87887       76.21766       63.28316    
   51.57216       30.37637       12.11852      -10.45245      -36.83874    
  -59.42505      -80.68175      -104.1476      -126.5321      -149.9908    
  -169.8960      -186.5267      -203.8452      -217.4850      -226.4798    
  -229.7689      -233.8645      -228.5128      -221.6223      -217.2849    
  -206.0852      -194.8132      -182.7026      -169.5025      -159.7222    
  -143.4945      -133.5114      -119.0286      -98.59022      -88.86332    
  -77.78944      -71.20108      -59.73722      -51.28624      -51.78778    
  -51.08029      -53.69665      -53.36127      -52.38089      -58.70235    
  -66.14376      -74.27039      -80.75514      -86.85589      -93.44585    
  -101.1667      -110.2617      -119.4098      -121.6599      -125.4552    
  -133.3569      -133.8012      -136.5191      -136.6730      -140.5400    
  -140.5545      -144.5996      -151.2204      -150.1187      -153.1394    
  -158.3062      -164.8333      -167.5791      -169.9740      -167.6755    
  -163.4425      -162.3272      -159.1198      -155.1584      -144.5549    
  -132.7372      -120.3868      -109.8820      -93.37611      -77.10456    
  -63.36718      -48.57559      -40.62863      -21.57659      -6.376182    
   9.998388       18.96824       21.91785       34.86253       45.14752    
   51.79670       52.86095       59.66874       64.91370       66.74397    
   65.31173       61.86551       61.01225       62.12790       55.82559    
   49.80665       44.79620       38.98761       28.82306       5.286115    
  -12.30122      -21.99529      -30.18287      -49.34273      -68.59652    
  -77.05879      -92.38451      -108.8397      -121.8312      -131.4241    
  -144.5880      -157.1059      -158.9964      -171.8482      -184.3363    
  -196.6295      -208.2342      -221.3997      -237.1053      -246.3788    
  -256.5409      -268.4303      -273.9590      -276.7724      -278.2510    
  -278.0282      -281.2560      -278.5511      -272.7468      -271.1366    
  -263.5300      -253.1595      -248.5786      -233.5459      -223.9661    
  -211.4248      -203.0198      -198.2734      -185.5059      -181.3779    
  -176.3344      -167.4356      -164.8419      -162.2709      -157.1114    
  -155.8302      -149.6999      -151.9422      -148.8729      -140.6191    
  -138.2512      -130.6480      -124.8774      -123.5289      -114.3277    
  -105.5252      -91.38020      -79.65941      -72.73092      -56.23985    
  -45.05483      -25.21617     -0.1609549       15.52958       42.85585    
   67.44382       85.00862       110.9036       129.1508       149.0064    
   167.3073       180.4469       189.9446       195.8204       199.4784    
   201.9732       198.0443       188.0176       181.7577       171.6429    
   153.2326       141.0406       121.3068       101.6382       83.01729    
   56.80350       32.23512      -1.693834      -27.73295      -58.38189    
  -88.47441      -117.6216      -146.6823      -168.7425      -198.2809    
  -224.7890      -245.0165      -265.0926      -284.3157      -296.1640    
  -308.5147      -325.2988      -331.2976      -337.3494      -344.2240    
  -350.7329      -351.8272      -351.8604      -354.0357      -354.3217    
  -352.3654      -351.1695      -350.1639      -343.6494      -337.6331    
  -328.4995      -322.4225      -306.5689      -296.6430      -284.7321    
  -265.8228      -251.4144      -229.5327      -209.2308      -188.2122    
  -169.7513      -151.6262      -130.3938      -110.4176      -94.18433    
  -75.40092      -54.13039      -39.58348      -20.47492      0.8339205    
   20.00488       40.75897       55.17111       68.36881       83.73447    
   94.64915       107.2744       118.2928       127.1196       134.9499    
   136.4632       135.3874       134.7876       128.8491       120.8536    
   111.7411       104.1690       91.71840       80.48431       64.06123    
   48.51054       35.99778       16.36355       15.02714       4.064966    
  -12.03629      -27.85941      -43.66766      -54.34756      -67.45625    
  -81.03351      -93.25014      -108.0622      -123.2322      -137.0712    
  -150.0430      -159.9741      -172.8090      -181.4690      -195.3582    
  -205.7774      -214.9939      -224.1347      -229.6870      -241.8749    
  -248.0976      -246.8159      -251.3162      -254.0880      -255.0453    
  -258.3792      -264.6825      -267.5467      -268.3913      -270.9246    
  -267.8170      -263.5316      -260.6838      -256.1537      -247.8629    
  -242.5797      -234.0383      -225.2565      -212.7930      -199.4183    
  -185.8065      -170.1316      -154.1252      -133.7208      -117.9872    
  -99.80616      -80.42723      -65.60493      -46.75063      -34.70490    
  -13.54002       3.059481       5.218671       18.15533       31.06670    
   49.09815       58.56012       63.10614       69.95031       75.41434    
   75.91619       78.00832       86.84708       83.30731       87.17214    
   89.79250       82.27388       80.07307       75.43745       64.79398    
   57.22366       45.88911       25.62698       14.95990     -0.8984444    
  -18.73912      -29.61670      -46.53293      -67.45563      -85.77538    
  -96.95828      -110.9574      -127.5618      -133.6884      -144.7582    
  -155.4817      -159.2713      -160.3638      -159.8509      -163.2231    
  -161.2434      -160.2380      -159.7989      -153.0443      -153.8878    
  -154.1161      -153.2140      -161.9376      -162.4483      -160.9044    
  -162.4092      -161.8821      -156.4154      -155.8496      -158.7298    
  -158.3410      -157.6234      -160.0244      -162.2657      -164.6104    
  -162.2053      -156.3866      -153.3484      -150.2177      -141.8582    
  -130.5061      -125.9348      -111.2380      -95.95392      -83.66701    
  -72.84550      -61.26256      -53.11689      -50.43615      -45.06851    
  -36.68414      -32.99963      -34.48341      -37.08343      -45.00749    
  -52.24679      -67.97790      -83.13944      -100.3017      -110.0561    
  -119.2961      -136.8338      -148.7910      -162.2209      -170.7003    
  -177.0685      -182.6895      -187.3384      -186.4468      -184.4551    
  -181.8559      -176.9984      -173.4101      -167.4307      -162.8917    
  -154.8334      -145.9734      -141.0964      -136.3989      -130.2416    
  -119.9311      -112.3179      -105.5852      -97.35291      -89.05634    
  -85.59753      -73.57328      -63.86626      -58.60945      -43.03816    
  -29.34219      -14.81370     -0.7177354e-01   2.678583       9.493379    
   22.60243       32.56831       38.21299       33.29983       35.87526    
   37.86261       34.03406       25.65026       23.86486       17.54060    
   11.32942       6.096423      -5.855395      -10.50268      -20.37387    
  -29.17156      -38.21208      -45.61307      -52.07423      -62.70520    
  -64.84057      -74.63863      -84.94537      -90.86797      -100.3194    
  -106.3656      -113.7274      -117.2500      -123.8686      -132.1210    
  -138.0310      -145.7664      -155.5569      -162.0219      -165.3926    
  -158.8184      -148.3707      -225.2274      -201.1418      -167.1332    
  -208.6535      -462.1102      -148.7127      -188.9029      -259.7672    
  -281.7595      -178.7992      -66.23755      -296.1737       93.97321    
  -446.8426       243.1453      -615.5946       481.6570      -873.9404    
   882.7374      -341.1807       5850.794       5272.837      -2997.038    
  -1794.489       13572.15      -4194.842      -37298.26       8415.931    
   14327.32      -12425.25      -11444.68       10872.84       10073.47    
   2668.319       10348.75      -2071.631      -1548.700      -981.2504    
  -4376.382      -10578.84       5998.054       9104.313      -3961.790    
   85.72655       1887.634       2793.581      -1105.634      -6683.380    
  -2972.769      -2936.146      -5011.456      -344.5333       4580.677    
  -732.7532       4482.599       6158.961       2239.801       2337.804    
  -1121.262      -2822.438      -2126.024       361.4018      -5426.697    
  -3976.760       1385.291       1050.647      -5042.804      -1621.034    
   4782.182       3092.051      -4661.794       168.8274       2242.375    
   748.7899       8748.918      -331.5294       781.8907      -1885.218    
  -2746.006       4061.932      -3284.681      -5662.068      -5617.986    
  -2976.617      -2841.674      -926.6846       2474.759      -2743.038    
  -4404.502       2858.048       5574.880       3989.857       3731.499    
   6806.994      -377.5825      -8043.016      -1632.114      -2070.968    
  -1310.021       6761.572       7731.147       1379.793      -3114.853    
   1375.189       14168.63       3844.440      -12460.64      -17805.77    
  -13238.14       5814.196       6135.294      -3624.541      -567.9111    
   7403.491       10995.29      -3886.813      -8940.263      -9272.226    
  -454.2777       15059.81       8663.148      -2010.260      -13303.98    
   1249.888       12611.01       397.3056      -6551.685       3534.817    
  -4125.145      -11679.85       11142.20       14282.13       787.5927    
  -11499.48      -32406.04      -29308.47       13237.77       34981.59    
   16855.01       20449.49       31673.00       28300.31       1133.337    
  -48183.47      -68284.05      -56039.50      -716.9608       15905.15    
  -40199.63      -16136.09       63216.60       77061.73       5794.823    
  -59512.40       3905.210       36409.36       40978.71       55677.75    
   32318.60      -982.5284      -50482.04      -64884.83      -50159.66    
  -19527.17      -28208.39      -69717.08      -41443.25       56733.38    
   112392.8       98196.20       38292.20      -19299.75      -61318.20    
  -29156.79       36372.73       7905.347      -42450.32      -63358.29    
  -34978.87       23232.79       40532.39       10468.26      -25462.90    
  -28292.96      -6420.127       22261.07       68530.75       74974.69    
   3463.019      -59750.97      -26926.14       34554.36       40016.20    
  -4636.900      -35676.93      -30268.04      -24041.96      -15007.64    
  -27578.32      -25613.14      -62.82307       16765.61      -14069.73    
  -5090.448       60959.31       45402.56       7719.456       11115.43    
   12054.16      -18476.51      -6332.409      -17549.71      -32186.46    
  -20238.98       1597.332       44148.52       65733.45       24805.17    
  -47282.56      -40849.94      -19319.46       439.4171      -2626.268    
   13750.83       5210.899      -19000.56      -4331.548       8301.561    
   5340.608      -17233.48      -4167.130       13911.84       16987.94    
  -5335.680      -18963.24      -10891.75       318.3838       9970.691    
   5896.672       9233.925       22823.80       11378.95      -12500.81    
   7595.566       39872.47       16393.22      -19463.88      -22144.94    
  -22450.99      -36278.99      -36495.81      -33260.73      -25333.45    
   5298.726       30902.70       46049.21       50322.48       53722.38    
   33247.60      -11522.85      -33538.56      -25041.70      -23303.49    
  -10060.13      -7710.208      -5429.174       3914.904      -14089.70    
  -11730.07      -16127.76      -12958.13      -1184.077       9911.701    
   23869.62       18763.59       12778.17       19241.22       23196.44    
   8646.291      -11293.62      -21596.94      -13595.38      -16449.84    
  -8232.217       4592.797      -2160.828      -927.4749      -1804.163    
   2524.341       14099.47       8313.353      -21822.50      -25730.66    
  -2783.283       26093.48       25615.25      -4869.792       5169.986    
   11805.84       5469.414       1707.095      -9466.685      -10440.74    
  -9869.493      -3522.100       3603.416       2118.885      -7257.690    
  -17982.99      -21381.90      -14344.46       9134.196       17038.13    
   12941.41       11826.39       14204.56       19433.47       5237.126    
  -1109.326      -608.3733      -1435.753       682.3215      -10189.23    
  -16000.83      -10292.56      -15624.12      -13103.34       6207.389    
   13444.85       7243.845      -3937.785      -11419.72      -7039.489    
   5881.130       9317.004       18217.11       18989.20       1267.899    
  -10023.78      -10976.18      -5340.476      -4094.112      -10433.08    
  -14157.36      -376.4490       21551.89       22240.80       1765.788    
  -11050.57      -21426.83      -11663.50       4844.986       4457.392    
   1344.111       11170.88       11003.91       26206.04       28106.53    
   2420.212      -4975.575      -30392.82      -41443.27      -31064.71    
  -8938.470       2896.159       12579.02       26272.95       14167.70    
   7126.456       9102.193       6372.816       2173.415      -1479.915    
   6241.563       14913.77      -995.2504      -24511.76      -36947.63    
  -33124.32      -11804.36       2562.829       9869.430       16863.96    
   35038.09       41410.05       15193.36      -12832.48      -18853.23    
  -10786.00      -13171.69      -27960.59      -22629.52       1535.306    
   9686.885       4097.828       5915.305       28065.40       23314.35    
  -3007.085      -18586.23      -17647.63      -3892.488       2798.055    
  -1229.955      -3724.444      -1549.497      -705.9301       12584.10    
   13885.34       10971.25       6359.595      -2690.644      -210.3369    
   2247.714      -6477.002      -18397.17      -9565.958      -606.7238    
  -3090.106      -3583.324      -1402.460       7126.094       9480.218    
  -962.2164      -3736.644       2223.115       1992.487      -8036.965    
  -3523.068       5503.000       6583.284       8202.991       1602.543    
  -10823.71      -18431.46      -14468.09       4260.796       18693.40    
   20801.80       7179.691      -8017.319      -6508.712      -3053.081    
  -621.4234      -965.3941       11092.54       17293.29       3602.041    
  -5873.843      -6331.820      -11559.63      -6407.389       8843.809    
   3625.190      -11372.31      -14427.25      -10468.61      -1413.544    
   12280.07       12992.56      -1324.704      -8965.278      -10606.38    
  -11394.09      -3533.068       14574.45       20110.75       8736.720    
   5435.513      -2770.783      -11873.64      -3590.874      -449.9395    
  -15961.19      -16731.84       4574.970       21863.89       16938.39    
   11275.19       10604.57       7142.664      -5222.129      -15888.03    
  -16899.72      -18977.34       1405.842       6965.934       1675.202    
   11732.57       13530.69       6545.866      -2795.700       6230.702    
   2027.121      -23095.39      -29304.13      -23914.37      -13320.74    
   3473.344       15258.69       18063.58       18509.28       9490.823    
   9240.577       4499.720      -9011.554      -10457.16      -7036.910    
   2307.475       7972.823       15057.63       12673.96      -1533.209    
  -13142.10      -19840.08      -6454.409       19056.22       22913.32    
   1560.552      -17563.88      -19461.98      -9300.517       1770.151    
  -7083.152      -20732.86      -10808.01       3462.176       8525.450    
   13157.29       10167.87       2374.666       6880.201       5235.208    
  -397.9661      -1128.832       3712.214       7797.180       8534.395    
   11058.38       8651.339      -3699.199      -13738.50      -17651.65    
  -18201.66      -6772.221       2392.231       9819.128      -1416.512    
  -5168.479       9607.975       9944.179       8554.648       4806.617    
  -4505.682      -16595.31      -13947.71      -4643.512      -5761.969    
  -838.0594       12911.08       21955.54       11034.36      -7175.179    
  -6730.617       2663.132       9073.611       3472.789      -8287.796    
  -3468.605       5194.926       10098.35       8005.338      -10536.13    
  -17939.18      -26563.30      -28479.32      -6153.102       4831.187    
   12273.00       23576.34       17902.42       2746.789      -3106.354    
  -5872.236       1789.331       2109.457      -3039.418      -4759.295    
  -786.7490       12071.57       11776.66      -3078.242      -14048.70    
  -9359.490      -4332.499       138.2491       553.7395       2320.131    
